Combined,City,State,Zip
"Agawam , MA",Agawam ,MA,01001
"Amherst , MA",Amherst ,MA,01002
"Chicopee , MA",Chicopee ,MA,01020
"Hadley , MA",Hadley ,MA,01035
"Holyoke , MA",Holyoke ,MA,01040
"Northampton , MA",Northampton ,MA,01060
"Palmer , MA",Palmer ,MA,01069
"Ware , MA",Ware ,MA,01082
"Warren , MA",Warren ,MA,01083
"Westfield , MA",Westfield ,MA,01085
"West Springfield, MA",West Springfield,MA,01089
"Wilbraham , MA",Wilbraham ,MA,01095
"Springfield , MA",Springfield ,MA,01105
"Pitts , MA",Pitts ,MA,01201
"Pittsfield , MA",Pittsfield ,MA,01201
"Cheshire , MA",Cheshire ,MA,01225
"North Adams, MA",North Adams,MA,01247
"Greenfield , MA",Greenfield ,MA,01301
"Athol , MA",Athol ,MA,01331
"Orange , MA",Orange ,MA,01364
"Fitchburg , MA",Fitchburg ,MA,01420
"Ayer , MA",Ayer ,MA,01432
"Gardner , MA",Gardner ,MA,01440
"Leominster , MA",Leominster ,MA,01453
"Littleton , MA",Littleton ,MA,01460
"Lunenburg , MA",Lunenburg ,MA,01462
"Pepperell , MA",Pepperell ,MA,01463
"Townsend , MA",Townsend ,MA,01469
"Winchendon , MA",Winchendon ,MA,01475
"Auburn , MA",Auburn ,MA,01501
"Boylston , MA",Boylston ,MA,01505
"Brookfield , MA",Brookfield ,MA,01506
"East Brookfield, MA",East Brookfield,MA,01515
"Holden , MA",Holden ,MA,01520
"Lancaster , MA",Lancaster ,MA,01523
"Millbury , MA",Millbury ,MA,01527
"Northborough , MA",Northborough ,MA,01532
"Shrewsbury , MA",Shrewsbury ,MA,01545
"Southbridge , MA",Southbridge ,MA,01550
"Spencer , MA",Spencer ,MA,01562
"Webster , MA",Webster ,MA,01570
"Dudley , MA",Dudley ,MA,01571
"Westboro , MA",Westboro ,MA,01581
"Westborough , MA",Westborough ,MA,01581
"Worcester , MA",Worcester ,MA,01603
"Framingham , MA",Framingham ,MA,01701
"Acton , MA",Acton ,MA,01720
"Bedford , MA",Bedford ,MA,01730
"Concord , MA",Concord ,MA,01742
"Hudson , MA",Hudson ,MA,01749
"Marlborough , MA",Marlborough ,MA,01752
"Mendon , MA",Mendon ,MA,01756
"Milford , MA",Milford ,MA,01757
"Natick , MA",Natick ,MA,01760
"Southborough , MA",Southborough ,MA,01772
"Woburn , MA",Woburn ,MA,01801
"Burlington , MA",Burlington ,MA,01803
"Andover , MA",Andover ,MA,01810
"Haverhill , MA",Haverhill ,MA,01831
"Lawrence , MA",Lawrence ,MA,01841
"Methuen , MA",Methuen ,MA,01844
"Lowell , MA",Lowell ,MA,01851
"Tewksbury , MA",Tewksbury ,MA,01876
"Wakefield , MA",Wakefield ,MA,01880
"Wilmington , MA",Wilmington ,MA,01887
"Winchester , MA",Winchester ,MA,01890
"Lynn , MA",Lynn ,MA,01905
"Amesbury , MA",Amesbury ,MA,01913
"Beverly , MA",Beverly ,MA,01915
"Danvers , MA",Danvers ,MA,01923
"Gloucester , MA",Gloucester ,MA,01930
"Ipswich , MA",Ipswich ,MA,01938
"Lynnfield , MA",Lynnfield ,MA,01940
"Saugus , MA",Saugus ,MA,01945
"Salisbury , MA",Salisbury ,MA,01952
"Peabody , MA",Peabody ,MA,01960
"Salem , MA",Salem ,MA,01970
"Dedham , MA",Dedham ,MA,02026
"Foxboro , MA",Foxboro ,MA,02035
"Franklin , MA",Franklin ,MA,02038
"Hingham , MA",Hingham ,MA,02043
"Whitman , MA",Whitman ,MA,02047
"Mansfield , MA",Mansfield ,MA,02048
"Norwell , MA",Norwell ,MA,02061
"Norwood , MA",Norwood ,MA,02062
"Sharon , MA",Sharon ,MA,02067
"Stoughton , MA",Stoughton ,MA,02072
"Walpole , MA",Walpole ,MA,02081
"Westwood , MA",Westwood ,MA,02090
"Dorchester , MA",Dorchester ,MA,02122
"Boston , MA",Boston ,MA,02124
"West Roxbury, MA",West Roxbury,MA,02132
"Brighton , MA",Brighton ,MA,02135
"Cambridge , MA",Cambridge ,MA,02138
"Somerville , MA",Somerville ,MA,02145
"Malden , MA",Malden ,MA,02148
"Everett , MA",Everett ,MA,02149
"Medford , MA",Medford ,MA,02155
"Quincy , MA",Quincy ,MA,02169
"Stoneham , MA",Stoneham ,MA,02180
"Braintree , MA",Braintree ,MA,02184
"Weymouth , MA",Weymouth ,MA,02188
"South Weymouth, MA",South Weymouth,MA,02190
"Brockton , MA",Brockton ,MA,02301
"Bridgewater , MA",Bridgewater ,MA,02324
"Hanover , MA",Hanover ,MA,02339
"Middleboro , MA",Middleboro ,MA,02346
"Plymouth , MA",Plymouth ,MA,02360
"Kingston , MA",Kingston ,MA,02364
"Raynham , MA",Raynham ,MA,02370
"Lexington , MA",Lexington ,MA,02420
"Newton , MA",Newton ,MA,02458
"Wellesley , MA",Wellesley ,MA,02460
"Watertown , MA",Watertown ,MA,02472
"Arlington , MA",Arlington ,MA,02476
"Belmont , MA",Belmont ,MA,02478
"Needham Heights, MA",Needham Heights,MA,02494
"Needham Hts, MA",Needham Hts,MA,02494
"Bourne , MA",Bourne ,MA,02532
"Falmouth , MA",Falmouth ,MA,02540
"Nantucket , MA",Nantucket ,MA,02554
"Wareham , MA",Wareham ,MA,02571
"Hyannis , MA",Hyannis ,MA,02601
"Chatham , MA",Chatham ,MA,02633
"Harwich , MA",Harwich ,MA,02645
"Attleboro , MA",Attleboro ,MA,02703
"Fairhaven , MA",Fairhaven ,MA,02719
"Fall River, MA",Fall River,MA,02721
"Somerset , MA",Somerset ,MA,02725
"Marion , MA",Marion ,MA,02738
"New Bedford, MA",New Bedford,MA,02742
"N Dartmouth, MA",N Dartmouth,MA,02747
"Dartmouth , MA",Dartmouth ,MA,02747
"N Attleboro, MA",N Attleboro,MA,02760
"North Attleboro, MA",North Attleboro,MA,02760
"Seekonk , MA",Seekonk ,MA,02771
"Swansea , MA",Swansea ,MA,02777
"Bristol , RI",Bristol ,RI,02809
"East Greenwich, RI",East Greenwich,RI,02818
"Newport , RI",Newport ,RI,02840
"Middletown , RI",Middletown ,RI,02842
"N Kingstown, RI",N Kingstown,RI,02852
"North Kingstown, RI",North Kingstown,RI,02852
"Pawtucket , RI",Pawtucket ,RI,02860
"Wakefield , RI",Wakefield ,RI,02879
"Narragansett , RI",Narragansett ,RI,02882
"Warren , RI",Warren ,RI,02885
"Warwick , RI",Warwick ,RI,02886
"Westerly , RI",Westerly ,RI,02891
"W Warwick, RI",W Warwick,RI,02893
"Woonsocket , RI",Woonsocket ,RI,02895
"North Smithfield, RI",North Smithfield,RI,02896
"East Providence, RI",East Providence,RI,02914
"Rumford , RI",Rumford ,RI,02916
"Smithfield , RI",Smithfield ,RI,02917
"Johnston , RI",Johnston ,RI,02919
"Cranston , RI",Cranston ,RI,02920
"Derry , NH",Derry ,NH,03038
"Goffstown , NH",Goffstown ,NH,03045
"Hudson , NH",Hudson ,NH,03051
"Londonderry , NH",Londonderry ,NH,03053
"Milford , NH",Milford ,NH,03055
"Nashua , NH",Nashua ,NH,03060
"Salem , NH",Salem ,NH,03079
"Salemn , NH",Salemn ,NH,03079
"Manchester , NH",Manchester ,NH,03102
"Manchesteer , NH",Manchesteer ,NH,03103
"Hooksett , NH",Hooksett ,NH,03106
"Bedford , NH",Bedford ,NH,03110
"Belmont , NH",Belmont ,NH,03220
"Franklin , NH",Franklin ,NH,03235
"Laconia , NH",Laconia ,NH,03246
"Gilford , NH",Gilford ,NH,03249
"Meredith , NH",Meredith ,NH,03253
"Concord , NH",Concord ,NH,03276
"Tilton , NH",Tilton ,NH,03276
"Bow , NH",Bow ,NH,03304
"Keene , NH",Keene ,NH,03431
"East Swanzey, NH",East Swanzey,NH,03446
"Swanzey , NH",Swanzey ,NH,03446
"Littleton , NH",Littleton ,NH,03561
"Colebrook , NH",Colebrook ,NH,03576
"Gorham , NH",Gorham ,NH,03581
"Lancaster , NH",Lancaster ,NH,03584
"Claremont , NH",Claremont ,NH,03743
"Lebanon , NH",Lebanon ,NH,03766
"Newport , NH",Newport ,NH,03773
"Woodsville , NH",Woodsville ,NH,03785
"Newington , NH",Newington ,NH,03801
"Portsmouth , NH",Portsmouth ,NH,03801
"Center Conway, NH",Center Conway,NH,03813
"Conway , NH",Conway ,NH,03818
"Dover , NH",Dover ,NH,03820
"Exeter , NH",Exeter ,NH,03833
"Greenland , NH",Greenland ,NH,03840
"North Conway, NH",North Conway,NH,03860
"North Hampton, NH",North Hampton,NH,03862
"Plaistow , NH",Plaistow ,NH,03865
"Rochester , NH",Rochester ,NH,03866
"Somersworth , NH",Somersworth ,NH,03878
"Stratham , NH",Stratham ,NH,03885
"York , ME",York ,ME,03909
"Bridgton , ME",Bridgton ,ME,04009
"Brunswick , ME",Brunswick ,ME,04011
"Arundel , ME",Arundel ,ME,04046
"Parsonsfield , ME",Parsonsfield ,ME,04047
"Windham , ME",Windham ,ME,04062
"Saco , ME",Saco ,ME,04072
"Westbrook , ME",Westbrook ,ME,04072
"Sanford , ME",Sanford ,ME,04073
"Scarborough , ME",Scarborough ,ME,04074
"Topsham , ME",Topsham ,ME,04086
"Yarmouth , ME",Yarmouth ,ME,04096
"Portland , ME",Portland ,ME,04103
"Falmouth , ME",Falmouth ,ME,04105
"South Portland, ME",South Portland,ME,04106
"Auburn , ME",Auburn ,ME,04210
"Livermore Falls, ME",Livermore Falls,ME,04254
"Oxford , MA",Oxford ,MA,04270
"Oxford , ME",Oxford ,ME,04270
"South Paris, ME",South Paris,ME,04281
"Augusta , ME",Augusta ,ME,04330
"Gardiner , ME",Gardiner ,ME,04345
"Hallowell , ME",Hallowell ,ME,04347
"Winthrop , ME",Winthrop ,ME,04364
"Bangor , ME",Bangor ,ME,04401
"Dover Foxcroft, ME",Dover Foxcroft,ME,04426
"Dover-foxcroft , ME",Dover-foxcroft ,ME,04426
"Lincoln , ME",Lincoln ,ME,04457
"Millinocket , ME",Millinocket ,ME,04462
"Newcastle , ME",Newcastle ,ME,04553
"Waldoboro , ME",Waldoboro ,ME,04572
"Wiscasset , ME",Wiscasset ,ME,04578
"Woolwich , ME",Woolwich ,ME,04579
"Ellsworth , ME",Ellsworth ,ME,04605
"Trenton , ME",Trenton ,ME,04605
"Calais , ME",Calais ,ME,04619
"Machias , ME",Machias ,ME,04654
"Houlton , ME",Houlton ,ME,04730
"Caribou , ME",Caribou ,ME,04736
"Fort Kent, ME",Fort Kent,ME,04743
"Presque Isle, ME",Presque Isle,ME,04769
"Rockland , ME",Rockland ,ME,04841
"Thomaston , ME",Thomaston ,ME,04861
"Waterville , ME",Waterville ,ME,04901
"Belfast , ME",Belfast ,ME,04915
"Farmington , ME",Farmington ,ME,04938
"Newport , ME",Newport ,ME,04953
"Oakland , ME",Oakland ,ME,04963
"Pittsfield , ME",Pittsfield ,ME,04967
"Skowhegan , ME",Skowhegan ,ME,04976
"White River, VT",White River,VT,05001
"White Rvr, VT",White Rvr,VT,05001
"Bethel , VT",Bethel ,VT,05032
"Norwich , VT",Norwich ,VT,05055
"Wells River, VT",Wells River,VT,05081
"Bellows Falls, VT",Bellows Falls,VT,05101
"Ludlow , VT",Ludlow ,VT,05149
"North Springfield, VT",North Springfield,VT,05150
"Springfield , VT",Springfield ,VT,05156
"Bennington , VT",Bennington ,VT,05201
"Manchester Center, VT",Manchester Center,VT,05255
"Brattleboro , VT",Brattleboro ,VT,05301
"Burlington , VT",Burlington ,VT,05401
"S Burlington, VT",S Burlington,VT,05403
"S. Burlington, VT",S. Burlington,VT,05403
"So Burlington, VT",So Burlington,VT,05403
"South Burlington, VT",South Burlington,VT,05403
"Enosburg Falls,, VT","Enosburg Falls,",VT,05450
"Essex Junction, VT",Essex Junction,VT,05452
"Franklin , VT",Franklin ,VT,05457
"Saint Albans, VT",Saint Albans,VT,05478
"St Albans, VT",St Albans,VT,05478
"St.albans , VT",St.albans ,VT,05478
"Shelburne , VT",Shelburne ,VT,05482
"Swanton , VT",Swanton ,VT,05488
"Vergennes , VT",Vergennes ,VT,05491
"Williston , VT",Williston ,VT,05495
"Montpelier , VT",Montpelier ,VT,05601
"Berlin , VT",Berlin ,VT,05602
"Barre , VT",Barre ,VT,05641
"Morrisville , VT",Morrisville ,VT,05661
"South Barre, VT",South Barre,VT,05670
"Rutland , VT",Rutland ,VT,05701
"Cuttingsville , VT",Cuttingsville ,VT,05738
"Fair Haven, VT",Fair Haven,VT,05743
"Middlebury , VT",Middlebury ,VT,05753
"Stockbridge , VT",Stockbridge ,VT,05772
"Saint Johnsbury, VT",Saint Johnsbury,VT,05819
"St Johnsbury, VT",St Johnsbury,VT,05819
"Hardwick , VT",Hardwick ,VT,05843
"Newport , VT",Newport ,VT,05855
"Avon , CT",Avon ,CT,06001
"Bristol , CT",Bristol ,CT,06010
"Canaan , CT",Canaan ,CT,06018
"Canton , CT",Canton ,CT,06019
"Ellington , CT",Ellington ,CT,06029
"Glastonbury , CT",Glastonbury ,CT,06033
"Berlin , CT",Berlin ,CT,06037
"Manchester , CT",Manchester ,CT,06040
"New Britain, CT",New Britain,CT,06051
"Plainville , CT",Plainville ,CT,06062
"Rockville , CT",Rockville ,CT,06066
"Vernon , CT",Vernon ,CT,06066
"Simsbury , CT",Simsbury ,CT,06070
"Stafford Springs, CT",Stafford Springs,CT,06076
"Enfield , CT",Enfield ,CT,06082
"West Simsbury, CT",West Simsbury,CT,06092
"Windsor , CT",Windsor ,CT,06095
"Winsted , CT",Winsted ,CT,06098
"E Hartford, CT",E Hartford,CT,06108
"East Hartford, CT",East Hartford,CT,06108
"Hartford , CT",Hartford ,CT,06114
"Willimantic , CT",Willimantic ,CT,06226
"Brooklyn , CT",Brooklyn ,CT,06234
"Columbia , CT",Columbia ,CT,06237
"North Franklin, CT",North Franklin,CT,06254
"North Windham, CT",North Windham,CT,06256
"Putnam , CT",Putnam ,CT,06260
"New London, CT",New London,CT,06320
"Groton , CT",Groton ,CT,06340
"Mystic , CT",Mystic ,CT,06355
"Niantic , CT",Niantic ,CT,06357
"Norwich , CT",Norwich ,CT,06360
"Lyme , CT",Lyme ,CT,06371
"Plainfield , CT",Plainfield ,CT,06374
"Pawcatuck , CT",Pawcatuck ,CT,06379
"Ansonia , CT",Ansonia ,CT,06401
"Branford , CT",Branford ,CT,06405
"Cheshire , CT",Cheshire ,CT,06410
"Colchester , CT",Colchester ,CT,06415
"Madison , CT",Madison ,CT,06443
"Meriden , CT",Meriden ,CT,06450
"Middletown , CT",Middletown ,CT,06457
"Milford , CT",Milford ,CT,06460
"North Haven, CT",North Haven,CT,06473
"Hamden , CT",Hamden ,CT,06473
"Old Saybrook, CT",Old Saybrook,CT,06475
"Shelton , CT",Shelton ,CT,06484
"Wallingford , CT",Wallingford ,CT,06492
"Westbrook , CT",Westbrook ,CT,06498
"East Haven, CT",East Haven,CT,06512
"New Haven, CT",New Haven,CT,06515
"West Haven, CT",West Haven,CT,06516
"Woodbridge , CT",Woodbridge ,CT,06525
"Bridgeport , CT",Bridgeport ,CT,06606
"Stratford , CT",Stratford ,CT,06615
"Waterbury , CT",Waterbury ,CT,06705
"Litchfield , CT",Litchfield ,CT,06759
"Middlebury , CT",Middlebury ,CT,06762
"New Milford, CT",New Milford,CT,06776
"Oakville , CT",Oakville ,CT,06779
"Terryville , CT",Terryville ,CT,06786
"Thomaston , CT",Thomaston ,CT,06787
"Torrington , CT",Torrington ,CT,06790
"Watertown , CT",Watertown ,CT,06795
"Woodbury , CT",Woodbury ,CT,06798
"Cos Cob, CT",Cos Cob,CT,06807
"Danbury , CT",Danbury ,CT,06810
"Darien , CT",Darien ,CT,06820
"Faifield , CT",Faifield ,CT,06824
"Fairfield , CT",Fairfield ,CT,06825
"Greenwich , CT",Greenwich ,CT,06830
"New Canaan, CT",New Canaan,CT,06840
"Norwalk , CT",Norwalk ,CT,06851
"Ridgefield , CT",Ridgefield ,CT,06877
"Westport , CT",Westport ,CT,06880
"Wilton , CT",Wilton ,CT,06897
"Stamford , CT",Stamford ,CT,06902
"Avenel , NJ",Avenel ,NJ,07001
"Bloomfield , NJ",Bloomfield ,NJ,07003
"Bloomfiled , NJ",Bloomfiled ,NJ,07003
"Fairfield , NJ",Fairfield ,NJ,07004
"Boonton , NJ",Boonton ,NJ,07005
"West Caldwell, NJ",West Caldwell,NJ,07006
"Clifton , NJ",Clifton ,NJ,07012
"Fairview , NJ",Fairview ,NJ,07022
"Kearny , NJ",Kearny ,NJ,07032
"Livingston , NJ",Livingston ,NJ,07039
"Maplewood , NJ",Maplewood ,NJ,07040
"Verona , NJ",Verona ,NJ,07044
"North Bergen, NJ",North Bergen,NJ,07047
"Parsippany , NJ",Parsippany ,NJ,07054
"No. Plainfield, NJ",No. Plainfield,NJ,07060
"North Plainfield, NJ",North Plainfield,NJ,07060
"No Plainfiled, NJ",No Plainfiled,NJ,07060
"Rahway , NJ",Rahway ,NJ,07065
"Colonia , NJ",Colonia ,NJ,07067
"Denville , NJ",Denville ,NJ,07068
"Watchung , NJ",Watchung ,NJ,07069
"Rutherford , NJ",Rutherford ,NJ,07070
"Lyndhurst , NJ",Lyndhurst ,NJ,07071
"East Rutherford, NJ",East Rutherford,NJ,07073
"Wood Ridge, NJ",Wood Ridge,NJ,07075
"Runnemede , NJ",Runnemede ,NJ,07078
"Springfield , NJ",Springfield ,NJ,07081
"Union , NJ",Union ,NJ,07083
"Union City, NJ",Union City,NJ,07087
"Vauxhall , NJ",Vauxhall ,NJ,07088
"Westfield , NJ",Westfield ,NJ,07090
"West New, NJ",West New,NJ,07093
"Woodbridge , NJ",Woodbridge ,NJ,07095
"Secaucus , NJ",Secaucus ,NJ,07096
"Nutley , NJ",Nutley ,NJ,07110
"Roselle , NJ",Roselle ,NJ,07203
"Hillside , NJ",Hillside ,NJ,07205
"Jersey City, NJ",Jersey City,NJ,07304
"Butler , NJ",Butler ,NJ,07405
"Fairlawn , NJ",Fairlawn ,NJ,07410
"Randolph , NJ",Randolph ,NJ,07421
"Little Falls, NJ",Little Falls,NJ,07424
"Mahwah , NJ",Mahwah ,NJ,07430
"Wayne , NJ",Wayne ,NJ,07442
"Pompton Plains, NJ",Pompton Plains,NJ,07444
"Ramsey , NJ",Ramsey ,NJ,07446
"Ridgewood , NJ",Ridgewood ,NJ,07450
"Upper Saddle, NJ",Upper Saddle,NJ,07458
"Sussex , NJ",Sussex ,NJ,07461
"Ramsey , NY",Ramsey ,NY,07466
"Wyckoff , NJ",Wyckoff ,NJ,07481
"Hawthorne , NJ",Hawthorne ,NJ,07506
"Totowa , NJ",Totowa ,NJ,07512
"Hackensack , NJ",Hackensack ,NJ,07601
"Hasbrouck Heights, NJ",Hasbrouck Heights,NJ,07604
"Maywood , NJ",Maywood ,NJ,07607
"Bergenfield , NJ",Bergenfield ,NJ,07621
"Englewood , NJ",Englewood ,NJ,07631
"Englewood Cliffs, NJ",Englewood Cliffs,NJ,07632
"Little Ferry, NJ",Little Ferry,NJ,07643
"Oradell , NJ",Oradell ,NJ,07649
"Paramus , NJ",Paramus ,NJ,07652
"Rochelle Park, NJ",Rochelle Park,NJ,07662
"Tenafly , NJ",Tenafly ,NJ,07670
"Red Bank, NJ",Red Bank,NJ,07701
"Tinton Falls, NJ",Tinton Falls,NJ,07701
"Shrewsbury , NJ",Shrewsbury ,NJ,07702
"Shrewwbury , NJ",Shrewwbury ,NJ,07702
"Asbury Park, NJ",Asbury Park,NJ,07712
"Ocean Township, NJ",Ocean Township,NJ,07712
"Ocean , NJ",Ocean ,NJ,07712
"Belford , NJ",Belford ,NJ,07718
"Wall , NJ",Wall ,NJ,07719
"Eatontown , NJ",Eatontown ,NJ,07724
"Farmingdale , NJ",Farmingdale ,NJ,07727
"Freehold , NJ",Freehold ,NJ,07728
"Hazlet , NJ",Hazlet ,NJ,07730
"Bound Brook, NJ",Bound Brook,NJ,07735
"Keyport , NJ",Keyport ,NJ,07735
"Middletown , NJ",Middletown ,NJ,07748
"Neptune , NJ",Neptune ,NJ,07753
"Oakhurst , NJ",Oakhurst ,NJ,07755
"Bridgewater , NJ",Bridgewater ,NJ,07762
"W Long, NJ",W Long,NJ,07764
"Dover , NJ",Dover ,NJ,07801
"Budd Lake, NJ",Budd Lake,NJ,07828
"Denville, Nj, NJ","Denville, Nj",NJ,07834
"Hackettstown , NJ",Hackettstown ,NJ,07840
"Kenvil , NJ",Kenvil ,NJ,07847
"Ledgewood , NJ",Ledgewood ,NJ,07852
"Netcong , NJ",Netcong ,NJ,07857
"Newton , NJ",Newton ,NJ,07860
"Rockaway , NJ",Rockaway ,NJ,07866
"Stanhope , NJ",Stanhope ,NJ,07874
"Washington , NJ",Washington ,NJ,07882
"Summit , NJ",Summit ,NJ,07901
"Bernardsville , NJ",Bernardsville ,NJ,07924
"Cedar Knolls, NJ",Cedar Knolls,NJ,07927
"Far Hills, NJ",Far Hills,NJ,07931
"East Hanover, NJ",East Hanover,NJ,07936
"Madison , NJ",Madison ,NJ,07940
"Mendham , NJ",Mendham ,NJ,07945
"Morristown , NJ",Morristown ,NJ,07960
"Whippany , NJ",Whippany ,NJ,07981
"Cherry Hill, NJ",Cherry Hill,NJ,08002
"Cherryhill , NJ",Cherryhill ,NJ,08002
"Turnersville , NJ",Turnersville ,NJ,08012
"Burlington City, NJ",Burlington City,NJ,08016
"Burlington , NJ",Burlington ,NJ,08016
"Glassboro , NJ",Glassboro ,NJ,08028
"Hammonton , NJ",Hammonton ,NJ,08037
"Lumberton , NJ",Lumberton ,NJ,08048
"Toms River, NJ",Toms River,NJ,08050
"Manahawkin , NJ",Manahawkin ,NJ,08050
"Maple Shade, NJ",Maple Shade,NJ,08052
"Mount Laurel, NJ",Mount Laurel,NJ,08053
"Marlton , NJ",Marlton ,NJ,08053
"Mt Laurel, NJ",Mt Laurel,NJ,08054
"Mt. Laurel, NJ",Mt. Laurel,NJ,08054
"Medford , NJ",Medford ,NJ,08055
"Mt. Holly, NJ",Mt. Holly,NJ,08057
"Moorestown , NJ",Moorestown ,NJ,08057
"Mt.ephraim , NJ",Mt.ephraim ,NJ,08059
"Palmyra , NJ",Palmyra ,NJ,08065
"Penns Grove, NJ",Penns Grove,NJ,08069
"Pennsville , NJ",Pennsville ,NJ,08070
"Delran , NJ",Delran ,NJ,08075
"Salem , NJ",Salem ,NJ,08079
"Sicklerville , NJ",Sicklerville ,NJ,08081
"Stratford , NJ",Stratford ,NJ,08084
"Swedesboro , NJ",Swedesboro ,NJ,08085
"Westville , NJ",Westville ,NJ,08093
"Williamstown , NJ",Williamstown ,NJ,08094
"Woodbury , NJ",Woodbury ,NJ,08096
"Woodbury Heights, NJ",Woodbury Heights,NJ,08097
"Cape May, NJ",Cape May,NJ,08210
"Swainton , NJ",Swainton ,NJ,08210
"Ocean City, NJ",Ocean City,NJ,08226
"Pleasantville , NJ",Pleasantville ,NJ,08232
"Egg Harbor, NJ",Egg Harbor,NJ,08234
"Egg Harbor, NJ",Egg Harbor,NJ,08234
"Woodbine , NJ",Woodbine ,NJ,08270
"Bridgeton , NJ",Bridgeton ,NJ,08302
"Mays Landing, NJ",Mays Landing,NJ,08330
"Millville , NJ",Millville ,NJ,08332
"Monroeville , NJ",Monroeville ,NJ,08343
"Vineland , NJ",Vineland ,NJ,08360
"Atlantic City, NJ",Atlantic City,NJ,08401
"Bordentown , NJ",Bordentown ,NJ,08505
"Cranbury , NJ",Cranbury ,NJ,08512
"East Windsor, NJ",East Windsor,NJ,08520
"Hopewell , NJ",Hopewell ,NJ,08525
"Princeton , NJ",Princeton ,NJ,08540
"Hamilton , NJ",Hamilton ,NJ,08619
"Ewing , NJ",Ewing ,NJ,08638
"Trenton , NJ",Trenton ,NJ,08638
"Lawrenceville , NJ",Lawrenceville ,NJ,08648
"Hamilton Square, NJ",Hamilton Square,NJ,08690
"Lakewood , NJ",Lakewood ,NJ,08701
"Brick , NJ",Brick ,NJ,08723
"Manasquan , NJ",Manasquan ,NJ,08736
"Sea Girt, NJ",Sea Girt,NJ,08750
"Annandale , NJ",Annandale ,NJ,08801
"Clinton , NJ",Clinton ,NJ,08809
"Dayton , NJ",Dayton ,NJ,08810
"Green Brook, NJ",Green Brook,NJ,08812
"Greenbrook , NJ",Greenbrook ,NJ,08812
"East Brunswick, NJ",East Brunswick,NJ,08816
"Edison , NJ",Edison ,NJ,08817
"Flemington , NJ",Flemington ,NJ,08822
"Lebanon , NJ",Lebanon ,NJ,08833
"Monmouth Jct, NJ",Monmouth Jct,NJ,08852
"Monmouth Junction, NJ",Monmouth Junction,NJ,08852
"Old Bridge, NJ",Old Bridge,NJ,08857
"Phillipsburg , NJ",Phillipsburg ,NJ,08865
"Somerset , NJ",Somerset ,NJ,08873
"Branchburg , NJ",Branchburg ,NJ,08876
"Somerville , NJ",Somerville ,NJ,08876
"South Amboy, NJ",South Amboy,NJ,08879
"Stewartsville , NJ",Stewartsville ,NJ,08886
"North Brunswick, NJ",North Brunswick,NJ,08902
"New Brunswick, NJ",New Brunswick,NJ,08906
"New York, NY",New York,NY,10019
"Manhattan , NY",Manhattan ,NY,10019
"Ny , NY",Ny ,NY,10019
"Staten Island, NY",Staten Island,NY,10305
"Bronx , NY",Bronx ,NY,10461
"Bedford Hills, NY",Bedford Hills,NY,10507
"Brewster , NY",Brewster ,NY,10509
"Carmel , NY",Carmel ,NY,10512
"Croton On, NY",Croton On,NY,10520
"Elmsford , NY",Elmsford ,NY,10523
"Katonah , NY",Katonah ,NY,10536
"Larchmont , NY",Larchmont ,NY,10538
"Mahopac , NY",Mahopac ,NY,10541
"Mamaroneck , NY",Mamaroneck ,NY,10543
"Mohegan Lake, NY",Mohegan Lake,NY,10547
"Mount Kisco, NY",Mount Kisco,NY,10549
"Mt Kisco, NY",Mt Kisco,NY,10549
"Mt. Kisco, NY",Mt. Kisco,NY,10549
"Pleasantville , NY",Pleasantville ,NY,10549
"Peekskill , NY",Peekskill ,NY,10566
"Cortlandt Manor, NY",Cortlandt Manor,NY,10567
"Port Chester, NY",Port Chester,NY,10573
"Rye , NY",Rye ,NY,10580
"Scarsdale , NY",Scarsdale ,NY,10583
"Sleepy Hollow, NY",Sleepy Hollow,NY,10591
"Tarrytown , NY",Tarrytown ,NY,10591
"Yorktown Heights, NY",Yorktown Heights,NY,10598
"White Plains, NY",White Plains,NY,10601
"Yonkers , NY",Yonkers ,NY,10703
"New Rochelle, NY",New Rochelle,NY,10801
"Blauvelt , NY",Blauvelt ,NY,10913
"Fort Montgomery, NY",Fort Montgomery,NY,10922
"Goshen , NY",Goshen ,NY,10924
"Harriman , NY",Harriman ,NY,10926
"Middletown , NY",Middletown ,NY,10940
"Monroe , NY",Monroe ,NY,10950
"Monsey , NY",Monsey ,NY,10952
"Nanuet , NY",Nanuet ,NY,10954
"New Hampton, NY",New Hampton,NY,10958
"Nyack , NY",Nyack ,NY,10960
"Orangeburg , NY",Orangeburg ,NY,10962
"Warwick , NY",Warwick ,NY,10990
"West Haverstraw, NY",West Haverstraw,NY,10993
"West Nyack, NY",West Nyack,NY,10994
"Floralpark , NY",Floralpark ,NY,11001
"Great Neck, NY",Great Neck,NY,11021
"Manhasset , NY",Manhasset ,NY,11030
"Garden City, NY",Garden City,NY,11040
"Inwood , NY",Inwood ,NY,11096
"Long Island, NY",Long Island,NY,11101
"Brooklyn , NY",Brooklyn ,NY,11209
"Bayside , NY",Bayside ,NY,11361
"Douglaston , NY",Douglaston ,NY,11362
"Corona , NY",Corona ,NY,11368
"Jackson Heights, NY",Jackson Heights,NY,11372
"Forest Hills, NY",Forest Hills,NY,11375
"Woodside , NY",Woodside ,NY,11377
"Ozone Park, NY",Ozone Park,NY,11417
"Queens Village, NY",Queens Village,NY,11429
"Jamaica , NY",Jamaica ,NY,11432
"Freeport , NY",Freeport ,NY,11520
"Glen Cove, NY",Glen Cove,NY,11542
"Glen Head, NY",Glen Head,NY,11545
"Greenvale , NY",Greenvale ,NY,11548
"Hempstead , NY",Hempstead ,NY,11550
"East Meadow, NY",East Meadow,NY,11554
"Lynbrook , NY",Lynbrook ,NY,11563
"Rockville Centre, NY",Rockville Centre,NY,11570
"Roslyn , NY",Roslyn ,NY,11576
"Valley Stream, NY",Valley Stream,NY,11580
"Westbury , NY",Westbury ,NY,11590
"Amityville , NY",Amityville ,NY,11701
"West Babylon, NY",West Babylon,NY,11704
"Bay Shore, NY",Bay Shore,NY,11706
"Bohemia , NY",Bohemia ,NY,11716
"Wantagh , NY",Wantagh ,NY,11716
"Commack , NY",Commack ,NY,11725
"Huntington , NY",Huntington ,NY,11743
"Huntington Sta, NY",Huntington Sta,NY,11746
"Huntington Station, NY",Huntington Station,NY,11746
"Levittown , NY",Levittown ,NY,11756
"Lindenhurst , NY",Lindenhurst ,NY,11757
"Massapequa , NY",Massapequa ,NY,11758
"Massapequa Park, NY",Massapequa Park,NY,11762
"Medford , NY",Medford ,NY,11763
"Oakdale , NY",Oakdale ,NY,11769
"Patchogue , NY",Patchogue ,NY,11772
"Port Jefferson, NY",Port Jefferson,NY,11776
"Port Jefferson, NY",Port Jefferson,NY,11776
"Portjeff Station, NY",Portjeff Station,NY,11776
"Saint James, NY",Saint James,NY,11780
"St James, NY",St James,NY,11780
"St. James, NY",St. James,NY,11780
"St.james , NY",St.james ,NY,11780
"Sayville , NY",Sayville ,NY,11782
"Smithtown , NY",Smithtown ,NY,11787
"Syosset , NY",Syosset ,NY,11791
"West Islip, NY",West Islip,NY,11795
"Hicksville , NY",Hicksville ,NY,11801
"Riverhead , NY",Riverhead ,NY,11901
"Middle Island, NY",Middle Island,NY,11953
"Quogue , NY",Quogue ,NY,11959
"Southampton , NY",Southampton ,NY,11968
"Southold , NY",Southold ,NY,11971
"Amsterdam , NY",Amsterdam ,NY,12010
"Ballston Spa, NY",Ballston Spa,NY,12020
"Malta , NY",Malta ,NY,12020
"Burnt Hills, NY",Burnt Hills,NY,12027
"Cobleskill , NY",Cobleskill ,NY,12043
"East Greenbush, NY",East Greenbush,NY,12061
"Clifton Park, NY",Clifton Park,NY,12065
"Glenmont , NY",Glenmont ,NY,12077
"Gloversville , NY",Gloversville ,NY,12078
"Johnstown , NY",Johnstown ,NY,12095
"Latham , NY",Latham ,NY,12110
"Mechanicville , NY",Mechanicville ,NY,12118
"New Lebanon, NY",New Lebanon,NY,12125
"Ravena , NY",Ravena ,NY,12143
"Rensselaer , NY",Rensselaer ,NY,12144
"Troy , NY",Troy ,NY,12180
"Albany , NY",Albany ,NY,12205
"Colonie , NY",Colonie ,NY,12205
"Glenville , NY",Glenville ,NY,12302
"Scotia , NY",Scotia ,NY,12302
"Schenectady , NY",Schenectady ,NY,12304
"Kingston , NY",Kingston ,NY,12401
"Catskill , NY",Catskill ,NY,12414
"Ellenville , NY",Ellenville ,NY,12428
"Saugerties , NY",Saugerties ,NY,12477
"Tannersville , NY",Tannersville ,NY,12485
"Beacon , NY",Beacon ,NY,12508
"Copake Falls, NY",Copake Falls,NY,12517
"Fishkill , NY",Fishkill ,NY,12524
"Hudson , NY",Hudson ,NY,12534
"Hyde Park, NY",Hyde Park,NY,12538
"Millbrook , NY",Millbrook ,NY,12545
"Millerton , NY",Millerton ,NY,12546
"Milton , NY",Milton ,NY,12547
"Newburgh , NY",Newburgh ,NY,12550
"New Windsor, NY",New Windsor,NY,12553
"Pawling , NY",Pawling ,NY,12564
"Pine Bush, NY",Pine Bush,NY,12566
"Rhinebeck , NY",Rhinebeck ,NY,12572
"Wappingers Falls, NY",Wappingers Falls,NY,12590
"Poughkeepsie , NY",Poughkeepsie ,NY,12601
"Monticello , NY",Monticello ,NY,12701
"Callicoon , NY",Callicoon ,NY,12723
"Hortonville , NY",Hortonville ,NY,12745
"Liberty , NY",Liberty ,NY,12754
"Port Jervis, NY",Port Jervis,NY,12771
"Glens Falls, NY",Glens Falls,NY,12801
"South Glens, NY",South Glens,NY,12803
"Queensbury , NY",Queensbury ,NY,12804
"Comstock , NY",Comstock ,NY,12821
"Granville , NY",Granville ,NY,12832
"Greenwich , NY",Greenwich ,NY,12834
"Lake George, NY",Lake George,NY,12845
"Saratoga Springs, NY",Saratoga Springs,NY,12866
"Ticonderoga , NY",Ticonderoga ,NY,12883
"Warrensburg , NY",Warrensburg ,NY,12885
"Whitehall , NY",Whitehall ,NY,12887
"Dannemora Ford, NY",Dannemora Ford,NY,12901
"Plattsburgh , NY",Plattsburgh ,NY,12901
"Champlain , NY",Champlain ,NY,12919
"Chazy , NY",Chazy ,NY,12921
"Elizabethtown , NY",Elizabethtown ,NY,12932
"Ellenburg Depot, NY",Ellenburg Depot,NY,12935
"Malone , NY",Malone ,NY,12953
"Saranac Lake, NY",Saranac Lake,NY,12983
"Union Springs, NY",Union Springs,NY,13021
"Auburn , NY",Auburn ,NY,13021
"Baldwinsville , NY",Baldwinsville ,NY,13027
"Central Square, NY",Central Square,NY,13036
"Ciceo , NY",Ciceo ,NY,13039
"Cicero , NY",Cicero ,NY,13039
"Cortland , NY",Cortland ,NY,13045
"Dryden , NY",Dryden ,NY,13053
"East Syracuse, NY",East Syracuse,NY,13057
"Elbridge , NY",Elbridge ,NY,13060
"Fayetteville , NY",Fayetteville ,NY,13066
"Fulton , NY",Fulton ,NY,13069
"Liverpool , NY",Liverpool ,NY,13088
"Oswego , NY",Oswego ,NY,13126
"Phoenix , NY",Phoenix ,NY,13135
"Pulaski , NY",Pulaski ,NY,13142
"Seneca Falls, NY",Seneca Falls,NY,13148
"Skaneateles , NY",Skaneateles ,NY,13152
"Tully , NY",Tully ,NY,13159
"Waterloo , NY",Waterloo ,NY,13165
"Syracuse , NY",Syracuse ,NY,13204
"Boonville , NY",Boonville ,NY,13309
"Camden , NY",Camden ,NY,13316
"Cooperstown , NY",Cooperstown ,NY,13326
"Hamilton , NY",Hamilton ,NY,13346
"Herkimer , NY",Herkimer ,NY,13350
"Lowville , NY",Lowville ,NY,13367
"Marcy , NY",Marcy ,NY,13403
"Morrisville , NY",Morrisville ,NY,13408
"Nelliston , NY",Nelliston ,NY,13410
"Oneida , NY",Oneida ,NY,13421
"Richfield Springs, NY",Richfield Springs,NY,13439
"Rome , NY",Rome ,NY,13440
"Sherburne , NY",Sherburne ,NY,13460
"Yorkville , NY",Yorkville ,NY,13495
"Utica , NY",Utica ,NY,13502
"Watertown , NY",Watertown ,NY,13601
"Watertwon , NY",Watertwon ,NY,13601
"Adams , NY",Adams ,NY,13605
"Alexandria Bay, NY",Alexandria Bay,NY,13607
"Canton , NY",Canton ,NY,13617
"Carthage , NY",Carthage ,NY,13619
"Clayton , NY",Clayton ,NY,13624
"Gouverneur , NY",Gouverneur ,NY,13642
"Massena , NY",Massena ,NY,13662
"Ogdensburg , NY",Ogdensburg ,NY,13669
"Potsdam , NY",Potsdam ,NY,13676
"Bainbridge , NY",Bainbridge ,NY,13733
"Endicott , NY",Endicott ,NY,13760
"Greene , NY",Greene ,NY,13778
"Norwich , NY",Norwich ,NY,13815
"Oneonta , NY",Oneonta ,NY,13820
"Owego , NY",Owego ,NY,13827
"Sidney , NY",Sidney ,NY,13838
"Vestal , NY",Vestal ,NY,13850
"Whitney Point, NY",Whitney Point,NY,13862
"Binghamton , NY",Binghamton ,NY,13904
"Angola , NY",Angola ,NY,14006
"Arcade , NY",Arcade ,NY,14009
"Attica , NY",Attica ,NY,14011
"Batavia , NY",Batavia ,NY,14020
"Boston , NY",Boston ,NY,14025
"Bowmansville , NY",Bowmansville ,NY,14026
"Clarence , NY",Clarence ,NY,14031
"Depew , NY",Depew ,NY,14043
"Dunkirk , NY",Dunkirk ,NY,14048
"East Aurora, NY",East Aurora,NY,14052
"Hamburg , NY",Hamburg ,NY,14052
"Elma , NY",Elma ,NY,14059
"Fredonia , NY",Fredonia ,NY,14063
"Getzville , NY",Getzville ,NY,14068
"Gowanda , NY",Gowanda ,NY,14070
"Grand Island, NY",Grand Island,NY,14072
"Java Center, NY",Java Center,NY,14082
"Lockport , NY",Lockport ,NY,14094
"Pendleton , NY",Pendleton ,NY,14094
"Medina , NY",Medina ,NY,14103
"North Collins, NY",North Collins,NY,14111
"Orchard Park, NY",Orchard Park,NY,14127
"Ransomville , NY",Ransomville ,NY,14131
"Springville , NY",Springville ,NY,14141
"Amherst , NY",Amherst ,NY,14150
"Kenmore , NY",Kenmore ,NY,14217
"Williamsville , NY",Williamsville ,NY,14221
"West Seneca, NY",West Seneca,NY,14224
"Cheektowaga , NY",Cheektowaga ,NY,14225
"Niagara Falls, NY",Niagara Falls,NY,14304
"Albion , NY",Albion ,NY,14411
"Avon , NY",Avon ,NY,14414
"Brockport , NY",Brockport ,NY,14420
"Canandaigua , NY",Canandaigua ,NY,14424
"Farmington , NY",Farmington ,NY,14425
"Churchville , NY",Churchville ,NY,14428
"Dansville , NY",Dansville ,NY,14437
"East Rochester, NY",East Rochester,NY,14444
"Fairport , NY",Fairport ,NY,14450
"Geneva , NY",Geneva ,NY,14456
"Honeoyefalls , NY",Honeoyefalls ,NY,14472
"Leroy , NY",Leroy ,NY,14482
"Macedon , NY",Macedon ,NY,14502
"Newark , NY",Newark ,NY,14513
"Nunda , NY",Nunda ,NY,14517
"Ovid , NY",Ovid ,NY,14521
"Penn Yan, NY",Penn Yan,NY,14527
"Perry , NY",Perry ,NY,14530
"Sodus , NY",Sodus ,NY,14551
"Spencerport , NY",Spencerport ,NY,14559
"Victor , NY",Victor ,NY,14564
"Wayland , NY",Wayland ,NY,14572
"Webster , NY",Webster ,NY,14580
"Williamson , NY",Williamson ,NY,14589
"Wolcott , NY",Wolcott ,NY,14590
"Rochester , NY",Rochester ,NY,14615
"Penfield , NY",Penfield ,NY,14625
"Jamestown , NY",Jamestown ,NY,14701
"Great Valley, NY",Great Valley,NY,14741
"Lakewood , NY",Lakewood ,NY,14750
"Little Valley, NY",Little Valley,NY,14755
"Olean , NY",Olean ,NY,14760
"Randolph , NY",Randolph ,NY,14772
"Westfield , NY",Westfield ,NY,14787
"Bath , NY",Bath ,NY,14810
"Hornell , NY",Hornell ,NY,14843
"Ithaca , NY",Ithaca ,NY,14850
"Painted Post, NY",Painted Post,NY,14870
"Trumansburg , NY",Trumansburg ,NY,14886
"Watkins Glen, NY",Watkins Glen,NY,14891
"Wellsville , NY",Wellsville ,NY,14895
"Elmira , NY",Elmira ,NY,14901
"Aliquippa , PA",Aliquippa ,PA,15001
"Ambridge , PA",Ambridge ,PA,15003
"Bakerstown , PA",Bakerstown ,PA,15007
"Beaver , PA",Beaver ,PA,15009
"Beaver Falls, PA",Beaver Falls,PA,15010
"Belle Vernon, PA",Belle Vernon,PA,15012
"Bridgeville , PA",Bridgeville ,PA,15017
"Burgettstown , PA",Burgettstown ,PA,15021
"Charleroi , PA",Charleroi ,PA,15022
"Gibsonia , PA",Gibsonia ,PA,15044
"Mcdonald , PA",Mcdonald ,PA,15057
"Natrona Heights, PA",Natrona Heights,PA,15065
"New Kensington, PA",New Kensington,PA,15068
"Tarentum , PA",Tarentum ,PA,15084
"Pittsburgh , PA",Pittsburgh ,PA,15090
"Wexford , PA",Wexford ,PA,15090
"Bethel Park, PA",Bethel Park,PA,15102
"Carnegie , PA",Carnegie ,PA,15106
"Heidelberg , PA",Heidelberg ,PA,15106
"Moon Township, PA",Moon Township,PA,15108
"Moon Twp, PA",Moon Twp,PA,15108
"Glenshaw , PA",Glenshaw ,PA,15116
"West Mifflin, PA",West Mifflin,PA,15122
"White Oak, PA",White Oak,PA,15131
"Mckeesport , PA",Mckeesport ,PA,15132
"Mckees Rocks, PA",Mckees Rocks,PA,15136
"Sewickley , PA",Sewickley ,PA,15143
"Monroeville , PA",Monroeville ,PA,15146
"Castle Shannon, PA",Castle Shannon,PA,15234
"Pleasant Hills, PA",Pleasant Hills,PA,15236
"Washington , PA",Washington ,PA,15301
"Bentleyville , PA",Bentleyville ,PA,15314
"Mcmurray , PA",Mcmurray ,PA,15317
"Carmichaels , PA",Carmichaels ,PA,15320
"Mt Morris, PA",Mt Morris,PA,15329
"Houston , PA",Houston ,PA,15342
"Mount Morris, PA",Mount Morris,PA,15349
"Richeyville , PA",Richeyville ,PA,15358
"Canonsburg , PA",Canonsburg ,PA,15370
"Waynesburg , PA",Waynesburg ,PA,15370
"Uniontown , PA",Uniontown ,PA,15401
"Brownsville , PA",Brownsville ,PA,15417
"Confluence , PA",Confluence ,PA,15424
"Connellsville , PA",Connellsville ,PA,15425
"Masontown , PA",Masontown ,PA,15461
"Point Marion, PA",Point Marion,PA,15474
"Somerset , PA",Somerset ,PA,15501
"Bedford , PA",Bedford ,PA,15522
"Boswell , PA",Boswell ,PA,15531
"Greensburg , PA",Greensburg ,PA,15601
"Adamsburg , PA",Adamsburg ,PA,15611
"Apollo , PA",Apollo ,PA,15613
"Delmont , PA",Delmont ,PA,15626
"North Huntingdon, PA",North Huntingdon,PA,15642
"Irwin , PA",Irwin ,PA,15642
"Latrobe , PA",Latrobe ,PA,15650
"Leechburg , PA",Leechburg ,PA,15656
"Ligonier , PA",Ligonier ,PA,15658
"Mount Pleasant, PA",Mount Pleasant,PA,15666
"Mt. Pleasant, PA",Mt. Pleasant,PA,15666
"Murrysville , PA",Murrysville ,PA,15668
"New Alexandria, PA",New Alexandria,PA,15670
"Vandergrift , PA",Vandergrift ,PA,15690
"Indiana , PA",Indiana ,PA,15701
"Northern Cambria, PA",Northern Cambria,PA,15714
"Blairsville , PA",Blairsville ,PA,15717
"Carrolltown , PA",Carrolltown ,PA,15722
"Homer City, PA",Homer City,PA,15748
"Mahaffey , PA",Mahaffey ,PA,15757
"Punxsutawney , PA",Punxsutawney ,PA,15767
"Du Bois, PA",Du Bois,PA,15801
"Dubois , PA",Dubois ,PA,15801
"Brookville , PA",Brookville ,PA,15825
"St Marys, PA",St Marys,PA,15857
"St. Marys, PA",St. Marys,PA,15857
"Johnstown , PA",Johnstown ,PA,15901
"Ebensburg , PA",Ebensburg ,PA,15931
"Portage/pa/portage , PA",Portage/pa/portage ,PA,15946
"South Fork, PA",South Fork,PA,15956
"Windber , PA",Windber ,PA,15963
"Butler , PA",Butler ,PA,16001
"Lyndora , PA",Lyndora ,PA,16045
"Slippery Rock, PA",Slippery Rock,PA,16057
"Zelienople , PA",Zelienople ,PA,16063
"Cranberry Twp, PA",Cranberry Twp,PA,16066
"Cranberry Twp., PA",Cranberry Twp.,PA,16066
"New Castle, PA",New Castle,PA,16105
"Ellwood City, PA",Ellwood City,PA,16117
"Greenville , PA",Greenville ,PA,16125
"Grove City, PA",Grove City,PA,16127
"Mercer , PA",Mercer ,PA,16137
"New Wilmington, PA",New Wilmington,PA,16142
"Sandy Lake, PA",Sandy Lake,PA,16145
"Sharon , PA",Sharon ,PA,16146
"Hermitage , PA",Hermitage ,PA,16148
"Kittanning , PA",Kittanning ,PA,16201
"Clarion , PA",Clarion ,PA,16214
"Freeport , PA",Freeport ,PA,16229
"New Bethlehem, PA",New Bethlehem,PA,16242
"Plumville , PA",Plumville ,PA,16246
"Conneaut Lake, PA",Conneaut Lake,PA,16316
"Franklin , PA",Franklin ,PA,16323
"Guys Mills, PA",Guys Mills,PA,16327
"Meadville , PA",Meadville ,PA,16335
"Reno , PA",Reno ,PA,16343
"Seneca , PA",Seneca ,PA,16346
"Titusville , PA",Titusville ,PA,16354
"Warren , PA",Warren ,PA,16365
"Corry , PA",Corry ,PA,16407
"Edinboro , PA",Edinboro ,PA,16412
"Girard , PA",Girard ,PA,16417
"North East, PA",North East,PA,16428
"Waterford , PA",Waterford ,PA,16441
"Erie , PA",Erie ,PA,16509
"Altoona , PA",Altoona ,PA,16602
"Claysburg , PA",Claysburg ,PA,16625
"Cresson , PA",Cresson ,PA,16630
"Hollidaysburg , PA",Hollidaysburg ,PA,16648
"Houtzdale , PA",Houtzdale ,PA,16651
"Huntingdon , PA",Huntingdon ,PA,16652
"Patton , PA",Patton ,PA,16668
"Tyrone , PA",Tyrone ,PA,16686
"Bradford , PA",Bradford ,PA,16701
"Kane , PA",Kane ,PA,16735
"State College, PA",State College,PA,16801
"Bellefonte , PA",Bellefonte ,PA,16823
"Clearfield , PA",Clearfield ,PA,16830
"Curwensville , PA",Curwensville ,PA,16833
"Philipsburg , PA",Philipsburg ,PA,16866
"Wellsboro , PA",Wellsboro ,PA,16901
"Coudersport , PA",Coudersport ,PA,16915
"Elkland , PA",Elkland ,PA,16920
"Mansfield , PA",Mansfield ,PA,16933
"Troy , PA",Troy ,PA,16947
"Burnham , PA",Burnham ,PA,17009
"Carlisle , PA",Carlisle ,PA,17013
"Dillsburg , PA",Dillsburg ,PA,17019
"Duncannon , PA",Duncannon ,PA,17020
"Elizabethtown , PA",Elizabethtown ,PA,17022
"Halifax , PA",Halifax ,PA,17032
"Lebanon , PA",Lebanon ,PA,17042
"Lemoyne , PA",Lemoyne ,PA,17043
"Lewistown , PA",Lewistown ,PA,17044
"Loysvile , PA",Loysvile ,PA,17047
"Mechanicsburg , PA",Mechanicsburg ,PA,17050
"Mifflintown , PA",Mifflintown ,PA,17059
"Millersburg , PA",Millersburg ,PA,17061
"Palmyra , PA",Palmyra ,PA,17078
"Thompsontown , PA",Thompsontown ,PA,17094
"Harrisburg , PA",Harrisburg ,PA,17104
"Chambersburg , MD",Chambersburg ,MD,17201
"Chambersburg , PA",Chambersburg ,PA,17201
"Frederick , MD",Frederick ,MD,17204
"Greencastle , PA",Greencastle ,PA,17225
"Mercersburg , PA",Mercersburg ,PA,17236
"Shippensburg , PA",Shippensburg ,PA,17257
"Waynesboro , PA",Waynesboro ,PA,17268
"Codorus , PA",Codorus ,PA,17311
"Gettysburg , PA",Gettysburg ,PA,17325
"Hanover , PA",Hanover ,PA,17331
"Manchester , PA",Manchester ,PA,17345
"Red Lion, PA",Red Lion,PA,17356
"Spring Grove, PA",Spring Grove,PA,17364
"Wrightsville , PA",Wrightsville ,PA,17368
"York , PA",York ,PA,17402
"Columbia , PA",Columbia ,PA,17512
"East Petersburg, PA",East Petersburg,PA,17520
"Ephrata , PA",Ephrata ,PA,17522
"Lititz , PA",Lititz ,PA,17543
"Mount Joy, PA",Mount Joy,PA,17552
"Mt Joy, PA",Mt Joy,PA,17552
"New Holland, PA",New Holland,PA,17557
"Paradise , PA",Paradise ,PA,17562
"Quarryville , PA",Quarryville ,PA,17566
"Lancaster , PA",Lancaster ,PA,17601
"Williamsport , PA",Williamsport ,PA,17701
"Lock Haven, PA",Lock Haven,PA,17745
"Montgomery , PA",Montgomery ,PA,17752
"Montoursville , PA",Montoursville ,PA,17754
"Muncy , PA",Muncy ,PA,17756
"Pennsdale , PA",Pennsdale ,PA,17756
"Sunbury , PA",Sunbury ,PA,17801
"Beaver Springs, PA",Beaver Springs,PA,17812
"Bloomsburg , PA",Bloomsburg ,PA,17815
"Danville , PA",Danville ,PA,17821
"Hummels Wharf, PA",Hummels Wharf,PA,17831
"Lewisburg , PA",Lewisburg ,PA,17837
"Milton , PA",Milton ,PA,17847
"Northumberland , PA",Northumberland ,PA,17857
"Selinsgrove , PA",Selinsgrove ,PA,17870
"Shamokin , PA",Shamokin ,PA,17872
"Pottsville , PA",Pottsville ,PA,17901
"Ashland , PA",Ashland ,PA,17921
"Orwigsburg , PA",Orwigsburg ,PA,17961
"Schuylkill Haven, PA",Schuylkill Haven,PA,17972
"Shenandaoh , PA",Shenandaoh ,PA,17976
"Shenandoah , PA",Shenandoah ,PA,17976
"Valley View, PA",Valley View,PA,17983
"Bangor , PA",Bangor ,PA,18013
"Bath , PA",Bath ,PA,18014
"Bethlehem , PA",Bethlehem ,PA,18015
"Easton , PA",Easton ,PA,18042
"Emmaus , PA",Emmaus ,PA,18049
"Fogelsville , PA",Fogelsville ,PA,18051
"Whitehall , PA",Whitehall ,PA,18052
"Lehighton , PA",Lehighton ,PA,18058
"Nazareth , PA",Nazareth ,PA,18064
"Red Hill, PA",Red Hill,PA,18076
"Slatington , PA",Slatington ,PA,18080
"Siklerville , NJ",Siklerville ,NJ,18081
"Wind Gap, PA",Wind Gap,PA,18091
"Allentown , PA",Allentown ,PA,18103
"Hazleton , PA",Hazleton ,PA,18201
"Freeland , PA",Freeland ,PA,18224
"Nesquehoning , PA",Nesquehoning ,PA,18240
"Tamaqua , PA",Tamaqua ,PA,18252
"East Stroudsburg, PA",East Stroudsburg,PA,18301
"Bartonsvillle , PA",Bartonsvillle ,PA,18321
"Brodheadsville , PA",Brodheadsville ,PA,18322
"Milford , PA",Milford ,PA,18337
"Mount Pocono, PA",Mount Pocono,PA,18344
"Stroudsburg , PA",Stroudsburg ,PA,18360
"Eynon , PA",Eynon ,PA,18403
"Carbondale , PA",Carbondale ,PA,18407
"Kingston , PA",Kingston ,PA,18411
"Forest City, PA",Forest City,PA,18421
"Vandling , PA",Vandling ,PA,18421
"Honesdale , PA",Honesdale ,PA,18431
"Lenoxville , PA",Lenoxville ,PA,18441
"Moscow , PA",Moscow ,PA,18444
"Peckville , PA",Peckville ,PA,18452
"Scranton , PA",Scranton ,PA,18503
"Moosic , PA",Moosic ,PA,18507
"Berwick , PA",Berwick ,PA,18603
"Dushore , PA",Dushore ,PA,18614
"Pittston , PA",Pittston ,PA,18640
"Exeter , PA",Exeter ,PA,18643
"Dickson City, PA",Dickson City,PA,18657
"Tunhannock , PA",Tunhannock ,PA,18657
"Tunkhannock , PA",Tunkhannock ,PA,18657
"Wilkes Barre, PA",Wilkes Barre,PA,18702
"Wilkes-barre , PA",Wilkes-barre ,PA,18702
"Hanover Township, PA",Hanover Township,PA,18706
"Montrose , PA",Montrose ,PA,18801
"Athens , PA",Athens ,PA,18810
"Hallstead , PA",Hallstead ,PA,18822
"Milan , PA",Milan ,PA,18831
"Sayre , PA",Sayre ,PA,18840
"Towanda , PA",Towanda ,PA,18848
"Doylestown , PA",Doylestown ,PA,18901
"Colmar , PA",Colmar ,PA,18915
"Franconia , PA",Franconia ,PA,18924
"Montgomeryville , PA",Montgomeryville ,PA,18936
"Newtown , PA",Newtown ,PA,18940
"Quakertown , PA",Quakertown ,PA,18951
"Sellersville , PA",Sellersville ,PA,18960
"Souderton , PA",Souderton ,PA,18964
"Southampton , PA",Southampton ,PA,18966
"Warminster , PA",Warminster ,PA,18974
"Warrington , PA",Warrington ,PA,18976
"Abington , PA",Abington ,PA,19001
"Roslyn , PA",Roslyn ,PA,19001
"Harleysville , PA",Harleysville ,PA,19002
"Ardmore , PA",Ardmore ,PA,19003
"Bala Cynwyd, PA",Bala Cynwyd,PA,19004
"Broomall , PA",Broomall ,PA,19008
"Chester , PA",Chester ,PA,19013
"Drexel Hill, PA",Drexel Hill,PA,19026
"Edgemont , PA",Edgemont ,PA,19028
"Fairless Hills, PA",Fairless Hills,PA,19030
"Flourtown , PA",Flourtown ,PA,19031
"Fort Washington, PA",Fort Washington,PA,19034
"Glenolden , PA",Glenolden ,PA,19036
"Glenside , PA",Glenside ,PA,19038
"Haverford , PA",Haverford ,PA,19041
"Horsham , PA",Horsham ,PA,19044
"Phila , PA",Phila ,PA,19045
"Jenkintown , PA",Jenkintown ,PA,19046
"Langhorne , PA",Langhorne ,PA,19047
"Feasterville , PA",Feasterville ,PA,19053
"Trevose , PA",Trevose ,PA,19053
"Media , PA",Media ,PA,19063
"Springfield , PA",Springfield ,PA,19064
"Newtown Sq, PA",Newtown Sq,PA,19073
"Newtown Square, PA",Newtown Square,PA,19073
"Swarthmore , PA",Swarthmore ,PA,19081
"Willow Grove, PA",Willow Grove,PA,19090
"Wynnewood , PA",Wynnewood ,PA,19096
"Philadelphia , PA",Philadelphia ,PA,19111
"Paoli , PA",Paoli ,PA,19301
"Chadds Ford, PA",Chadds Ford,PA,19317
"Chaddsford , PA",Chaddsford ,PA,19317
"Coatesville , PA",Coatesville ,PA,19320
"Concordville , PA",Concordville ,PA,19331
"Devon , PA",Devon ,PA,19333
"Downingtown , PA",Downingtown ,PA,19335
"Exton , PA",Exton ,PA,19341
"Glen Mills, PA",Glen Mills,PA,19342
"Kennett Square, PA",Kennett Square,PA,19348
"Frazer , PA",Frazer ,PA,19355
"Oxford , PA",Oxford ,PA,19363
"Thorndale , PA",Thorndale ,PA,19372
"Chester Springs, PA",Chester Springs,PA,19380
"West Chester, PA",West Chester,PA,19382
"East Norriton, PA",East Norriton,PA,19401
"Norristown , PA",Norristown ,PA,19403
"Collegeville , PA",Collegeville ,PA,19426
"Conshohocken , PA",Conshohocken ,PA,19428
"Conshohoscken , PA",Conshohoscken ,PA,19428
"Hatfield , PA",Hatfield ,PA,19440
"Lansdale , PA",Lansdale ,PA,19446
"Phoenixville , PA",Phoenixville ,PA,19460
"Plymouth Meeting, PA",Plymouth Meeting,PA,19462
"Pottstown , PA",Pottstown ,PA,19464
"Limerick , PA",Limerick ,PA,19468
"Zieglerville , PA",Zieglerville ,PA,19492
"Bally , PA",Bally ,PA,19503
"Boyertown , PA",Boyertown ,PA,19512
"Elverson , PA",Elverson ,PA,19520
"Fleetwood , PA",Fleetwood ,PA,19522
"Gilbertsville , PA",Gilbertsville ,PA,19525
"Hamburg , PA",Hamburg ,PA,19526
"Kutztown , PA",Kutztown ,PA,19530
"Leesport , PA",Leesport ,PA,19533
"Morgantown , PA",Morgantown ,PA,19543
"Robesonia , PA",Robesonia ,PA,19551
"Temple , PA",Temple ,PA,19560
"Wernersville , PA",Wernersville ,PA,19565
"Reading , PA",Reading ,PA,19605
"Reading, , PA","Reading, ",PA,19607
"Shillington , PA",Shillington ,PA,19607
"Sinking Spring, PA",Sinking Spring,PA,19608
"Newark , DE",Newark ,DE,19702
"Middletown , DE",Middletown ,DE,19709
"Nerw Castle, DE",Nerw Castle,DE,19720
"New Castle, DE",New Castle,DE,19720
"Wilmington , DE",Wilmington ,DE,19805
"Dover , DE",Dover ,DE,19901
"Felton , DE",Felton ,DE,19943
"Georgetown , DE",Georgetown ,DE,19947
"Lewes , DE",Lewes ,DE,19958
"Milford , DE",Milford ,DE,19963
"Millsboro , DE",Millsboro ,DE,19966
"Seaford , DE",Seaford ,DE,19973
"Selbyville , DE",Selbyville ,DE,19975
"Smyrna , DE",Smyrna ,DE,19977
"Washington , DC",Washington ,DC,20016
"Manassas , VA",Manassas ,VA,20109
"Marshall , VA",Marshall ,VA,20115
"Chantilly , VA",Chantilly ,VA,20151
"Sterling , VA",Sterling ,VA,20164
"Dulles , VA",Dulles ,VA,20166
"Herndon , VA",Herndon ,VA,20170
"Leesbug , VA",Leesbug ,VA,20175
"Leesburg , VA",Leesburg ,VA,20175
"Warrenton , VA",Warrenton ,VA,20186
"Waldorf , MD",Waldorf ,MD,20601
"Brandywine , MD",Brandywine ,MD,20613
"Leonardtown , MD",Leonardtown ,MD,20650
"Lexington Park, MD",Lexington Park,MD,20653
"Prince Frederick, MD",Prince Frederick,MD,20678
"Lanham , MD",Lanham ,MD,20706
"Laurel , MD",Laurel ,MD,20707
"Bowie , MD",Bowie ,MD,20716
"College Park, MD",College Park,MD,20740
"Fort Washington, MD",Fort Washington,MD,20744
"Marlow Heights, MD",Marlow Heights,MD,20746
"Greenbelt , MD",Greenbelt ,MD,20770
"Upper Marlboro, MD",Upper Marlboro,MD,20772
"Landover Hills, MD",Landover Hills,MD,20784
"New Carrollton, MD",New Carrollton,MD,20785
"Bethesda , MD",Bethesda ,MD,20814
"Rockvill , MD",Rockvill ,MD,20850
"Rockville , MD",Rockville ,MD,20850
"North Bethesda, MD",North Bethesda,MD,20852
"Germantown , MD",Germantown ,MD,20874
"Kensington , MD",Kensington ,MD,20895
"Wheaton , MD",Wheaton ,MD,20902
"Silver Spring, MD",Silver Spring,MD,20904
"Gaithersburg , MD",Gaithersburg ,MD,20989
"Aberdeen , MD",Aberdeen ,MD,21001
"Abingdon , MD",Abingdon ,MD,21009
"Bel Air, MD",Bel Air,MD,21014
"Clarksville , MD",Clarksville ,MD,21029
"Cockeysville , MD",Cockeysville ,MD,21030
"Edgewood , MD",Edgewood ,MD,21040
"Ellicott City, MD",Ellicott City,MD,21042
"Columbia , MD",Columbia ,MD,21045
"Fallston , MD",Fallston ,MD,21047
"Glen Burnie, MD",Glen Burnie,MD,21060
"Havre De, MD",Havre De,MD,21078
"Jarrettsville , MD",Jarrettsville ,MD,21084
"Timonium , MD",Timonium ,MD,21093
"Owings Mills, MD",Owings Mills,MD,21117
"Pasadena , MD",Pasadena ,MD,21122
"Randallstown , MD",Randallstown ,MD,21133
"Westminster , MD",Westminster ,MD,21157
"White Marsh, MD",White Marsh,MD,21162
"Baltimore , MD",Baltimore ,MD,21204
"Towson , MD",Towson ,MD,21204
"Columbia , SC",Columbia ,SC,21212
"Dundalk , MD",Dundalk ,MD,21222
"Catonsville , MD",Catonsville ,MD,21228
"Parkville , MD",Parkville ,MD,21234
"Nottingham , MD",Nottingham ,MD,21236
"Annapolis , MD",Annapolis ,MD,21401
"Cumberland , MD",Cumberland ,MD,21502
"Lavale , MD",Lavale ,MD,21504
"Accident , MD",Accident ,MD,21520
"Grantsville , MD",Grantsville ,MD,21536
"Oakland , MD",Oakland ,MD,21550
"Easton , MD",Easton ,MD,21601
"Chestertown , MD",Chestertown ,MD,21620
"Denton , MD",Denton ,MD,21629
"Preston , MD",Preston ,MD,21655
"Hagerstown , MD",Hagerstown ,MD,21701
"Hancock , MD",Hancock ,MD,21750
"Maugansville , MD",Maugansville ,MD,21767
"Mount Airy, MD",Mount Airy,MD,21771
"Mt Airy, MD",Mt Airy,MD,21771
"Sykesville , MD",Sykesville ,MD,21784
"Taneytown , MD",Taneytown ,MD,21787
"Thurmont , MD",Thurmont ,MD,21788
"Salisbury , MD",Salisbury ,MD,21801
"Berlin , MD",Berlin ,MD,21811
"Pittsville , MD",Pittsville ,MD,21850
"Pocomoke City, MD",Pocomoke City,MD,21851
"Ocean Highway, MD",Ocean Highway,MD,21851
"Pocomoke , MD",Pocomoke ,MD,21851
"Rising Sun, MD",Rising Sun,MD,21911
"Elkton , MD",Elkton ,MD,21921
"Fairfax , VA",Fairfax ,VA,22030
"Falls Church, VA",Falls Church,VA,22041
"Springfield , VA",Springfield ,VA,22150
"Vienna , VA",Vienna ,VA,22182
"Vienna , VI",Vienna ,VI,22182
"Woodbridge , VA",Woodbridge ,VA,22191
"Arlington , VA",Arlington ,VA,22202
"Arlingon , VA",Arlingon ,VA,22203
"Alexancria , VA",Alexancria ,VA,22301
"Alexandria , VA",Alexandria ,VA,22301
"Fredericksburg , VA",Fredericksburg ,VA,22401
"King George, VA",King George,VA,22485
"Montross , VA",Montross ,VA,22520
"Stafford , VA",Stafford ,VA,22554
"Tappahannock , VA",Tappahannock ,VA,22560
"Winchester , VA",Winchester ,VA,22601
"Front Royal, VA",Front Royal,VA,22630
"Woodstock , VA",Woodstock ,VA,22664
"Culpeper , VA",Culpeper ,VA,22701
"Madison , VA",Madison ,VA,22727
"Harrisonburg , VA",Harrisonburg ,VA,22801
"Elkton , VA",Elkton ,VA,22827
"Luray , VA",Luray ,VA,22835
"Charlottesville , VA",Charlottesville ,VA,22901
"Orabge , VA",Orabge ,VA,22960
"Orange , VA",Orange ,VA,22960
"Waynesboro , VA",Waynesboro ,VA,22980
"Amelia , VA",Amelia ,VA,23002
"Ashland , VA",Ashland ,VA,23005
"Glen Allen, VA",Glen Allen,VA,23060
"Gloucester , VA",Gloucester ,VA,23061
"Goochland , VA",Goochland ,VA,23063
"Louisa , VA",Louisa ,VA,23093
"Mechanicsville , VA",Mechanicsville ,VA,23111
"Midlothian , VA",Midlothian ,VA,23112
"Powhatan , VA",Powhatan ,VA,23139
"West Point, VA",West Point,VA,23181
"Williamsburg , VA",Williamsburg ,VA,23185
"Richmond , VA",Richmond ,VA,23223
"Chesapeaake , VA",Chesapeaake ,VA,23320
"Chesapeake , VA",Chesapeake ,VA,23320
"Chesapeske , VA",Chesapeske ,VA,23320
"Keller , VA",Keller ,VA,23401
"Smithfield , VA",Smithfield ,VA,23430
"Suffolk , VA",Suffolk ,VA,23434
"Virginia Beach, VA",Virginia Beach,VA,23452
"Norfolk , VA",Norfolk ,VA,23502
"Newport News, VA",Newport News,VA,23601
"Poquoson , VA",Poquoson ,VA,23662
"Hampton , VA",Hampton ,VA,23666
"Portsmouth , VA",Portsmouth ,VA,23704
"Petersburg , VA",Petersburg ,VA,23804
"Chester , VA",Chester ,VA,23831
"Colonial Heights, VA",Colonial Heights,VA,23834
"Emporia , VA",Emporia ,VA,23847
"Franklin , VA",Franklin ,VA,23851
"Hopewell , VA",Hopewell ,VA,23860
"Jarratt , VA",Jarratt ,VA,23867
"Prince George, VA",Prince George,VA,23875
"Farmivlle , VA",Farmivlle ,VA,23901
"Farmville , VA",Farmville ,VA,23901
"Dillwyn , VA",Dillwyn ,VA,23936
"Keysville , VA",Keysville ,VA,23947
"South Hill, VA",South Hill,VA,23970
"Roanoke , VA",Roanoke ,VA,24014
"Bassett , VA",Bassett ,VA,24055
"Blacksburg , VA",Blacksburg ,VA,24062
"Christiansburg , VA",Christiansburg ,VA,24068
"Floyd , VA",Floyd ,VA,24091
"Martinsville , VA",Martinsville ,VA,24112
"Pearisburg , VA",Pearisburg ,VA,24134
"Radford , VA",Radford ,VA,24143
"Ridgeway , VA",Ridgeway ,VA,24148
"Rocky Mount, VA",Rocky Mount,VA,24151
"Salem , VA",Salem ,VA,24153
"Bristol , VA",Bristol ,VA,24202
"Abingdon , VA",Abingdon ,VA,24210
"Big Stone, VA",Big Stone,VA,24219
"Castlewood , VA",Castlewood ,VA,24224
"Clintwood , VA",Clintwood ,VA,24228
"Coeburn , VA",Coeburn ,VA,24230
"Honaker , VA",Honaker ,VA,24260
"Lebanon , VA",Lebanon ,VA,24266
"Pennington Gap, VA",Pennington Gap,VA,24277
"Saint Paul, VA",Saint Paul,VA,24283
"Wise , VA",Wise ,VA,24293
"Pulaski , VA",Pulaski ,VA,24301
"Galax , VA",Galax ,VA,24333
"Marion , VA",Marion ,VA,24354
"Wytheville , VA",Wytheville ,VA,24382
"Staunton , VA",Staunton ,VA,24401
"Buena Vista, VA",Buena Vista,VA,24416
"Covington , VA",Covington ,VA,24426
"Lexington , VA",Lexington ,VA,24450
"Lynchburg , VA",Lynchburg ,VA,24501
"Altavista , VA",Altavista ,VA,24517
"Amherst , VA",Amherst ,VA,24521
"Appomattox , VA",Appomattox ,VA,24522
"Bedford , VA",Bedford ,VA,24523
"Danville , VA",Danville ,VA,24541
"Forest , VA",Forest ,VA,24551
"South Boston, VA",South Boston,VA,24592
"Richlands , VA",Richlands ,VA,24641
"Tazewell , VA",Tazewell ,VA,24651
"Bluefield , WV",Bluefield ,WV,24701
"Princeton , WV",Princeton ,WV,24740
"Lewisburg , WV",Lewisburg ,WV,24901
"Marlinton , WV",Marlinton ,WV,24954
"Ronceverte , WV",Ronceverte ,WV,24970
"Cabin Creek, WV",Cabin Creek,WV,25035
"Danville , WV",Danville ,WV,25053
"Montgomery , WV",Montgomery ,WV,25136
"Nitro , WV",Nitro ,WV,25143
"Saint Albans, WV",Saint Albans,WV,25177
"St Albans, WV",St Albans,WV,25177
"St. Albans, WV",St. Albans,WV,25177
"Charleston , WV",Charleston ,WV,25177
"Whitesville , WV",Whitesville ,WV,25209
"Ripley , WV",Ripley ,WV,25271
"Spencer , WV",Spencer ,WV,25276
"South Charleston, WV",South Charleston,WV,25303
"So Charleston, WV",So Charleston,WV,25309
"Marmet , WV",Marmet ,WV,25365
"Martinsburg , WV",Martinsburg ,WV,25401
"Charles Town, WV",Charles Town,WV,25414
"Ranson , WV",Ranson ,WV,25438
"Williamsonm , WV",Williamsonm ,WV,25466
"Babrousville , WV",Babrousville ,WV,25504
"Barboursville , WV",Barboursville ,WV,25504
"Barbrousville , WV",Barbrousville ,WV,25504
"Chapmanville , WV",Chapmanville ,WV,25508
"Hurricane , WV",Hurricane ,WV,25526
"Lavalette , WV",Lavalette ,WV,25535
"Logan , WV",Logan ,WV,25601
"Williamson , WV",Williamson ,WV,25661
"Barbousville , WV",Barbousville ,WV,25704
"Huntington , WV",Huntington ,WV,25704
"Beckley , WV",Beckley ,WV,25801
"Ansted , WV",Ansted ,WV,25812
"Mount Hope, WV",Mount Hope,WV,25880
"Mt Hope, WV",Mt Hope,WV,25880
"Oak Hill, WV",Oak Hill,WV,25901
"Prosperity , WV",Prosperity ,WV,25909
"Triadelphia , WV",Triadelphia ,WV,26003
"Wheeling , WV",Wheeling ,WV,26003
"Glen Dale, WV",Glen Dale,WV,26038
"Moundsville , WV",Moundsville ,WV,26041
"Newell , WV",Newell ,WV,26050
"Weirton , WV",Weirton ,WV,26062
"Wellsburg , WV",Wellsburg ,WV,26070
"Parkersburg , WV",Parkersburg ,WV,26101
"New Martinsville, WV",New Martinsville,WV,26155
"Saint Marys, WV",Saint Marys,WV,26170
"Sistersville , WV",Sistersville ,WV,26175
"Buckhannon , WV",Buckhannon ,WV,26201
"Elkins , WV",Elkins ,WV,26201
"Belington , WV",Belington ,WV,26250
"Valley Bend, WV",Valley Bend,WV,26293
"Clarksburg , WV",Clarksburg ,WV,26301
"Bridgeport , WV",Bridgeport ,WV,26330
"Grafton , WV",Grafton ,WV,26354
"Weston , WV",Weston ,WV,26452
"Morgantown , WV",Morgantown ,WV,26501
"Westover , WV",Westover ,WV,26501
"Kingwood , WV",Kingwood ,WV,26537
"White Hall, WV",White Hall,WV,26554
"Fairmont , WV",Fairmont ,WV,26554
"Whitehall , WV",Whitehall ,WV,26554
"Mannington , WV",Mannington ,WV,26582
"Sutton , WV",Sutton ,WV,26601
"Gassaway , WV",Gassaway ,WV,26624
"Summersville , WV",Summersville ,WV,26651
"Keyser , WV",Keyser ,WV,26726
"Romney , WV",Romney ,WV,26757
"Moorefield , WV",Moorefield ,WV,26836
"Petersburg , WV",Petersburg ,WV,26847
"Madison , NC",Madison ,NC,27025
"Mount Airy, NC",Mount Airy,NC,27030
"Mt Airy, NC",Mt Airy,NC,27030
"Mt.airy , NC",Mt.airy ,NC,27030
"Pilot Mtn, NC",Pilot Mtn,NC,27041
"Winston Salem, NC",Winston Salem,NC,27103
"Winston , NC",Winston ,NC,27103
"Winston-salem , NC",Winston-salem ,NC,27103
"Asheboro , NC",Asheboro ,NC,27203
"Burlington , NC",Burlington ,NC,27215
"Graham , NC",Graham ,NC,27253
"High Point, NC",High Point,NC,27260
"Hillsborough , NC",Hillsborough ,NC,27278
"Kernersville , NC",Kernersville ,NC,27284
"Eden , NC",Eden ,NC,27289
"Lexington , NC",Lexington ,NC,27292
"Liberty , NC",Liberty ,NC,27298
"Pittsboro , NC",Pittsboro ,NC,27312
"Reidsville , NC",Reidsville ,NC,27320
"Sanford , NC",Sanford ,NC,27330
"Siler City, NC",Siler City,NC,27344
"Thomasville , NC",Thomasville ,NC,27360
"Troy , NC",Troy ,NC,27371
"Greensboro , NC",Greensboro ,NC,27401
"Angier , NC",Angier ,NC,27501
"Apex , NC",Apex ,NC,27502
"Cary , NC",Cary ,NC,27511
"Chapel Hill, NC",Chapel Hill,NC,27514
"Creedmooor , NC",Creedmooor ,NC,27522
"Creedmoor , NC",Creedmoor ,NC,27522
"Fuquay Varina, NC",Fuquay Varina,NC,27526
"Garner , NC",Garner ,NC,27529
"Goldsboro , NC",Goldsboro ,NC,27530
"Henderson , NC",Henderson ,NC,27536
"Kenly , NC",Kenly ,NC,27542
"Lillington , NC",Lillington ,NC,27546
"Louisburg , NC",Louisburg ,NC,27549
"Oxford , NC",Oxford ,NC,27549
"Roxboro , NC",Roxboro ,NC,27573
"Smithfield , NC",Smithfield ,NC,27577
"Wake Forest, NC",Wake Forest,NC,27587
"Wendell , NC",Wendell ,NC,27591
"Zebulon , NC",Zebulon ,NC,27597
"Raleigh , NC",Raleigh ,NC,27604
"Ralegih , NC",Ralegih ,NC,27609
"Durham , NC",Durham ,NC,27701
"Rocky Mount, NC",Rocky Mount,NC,27802
"Farmville , NC",Farmville ,NC,27828
"Greenville , NC",Greenville ,NC,27834
"Nashville , NC",Nashville ,NC,27856
"Roanoke Rapids, NC",Roanoke Rapids,NC,27870
"Tarboro , NC",Tarboro ,NC,27886
"Washington , NC",Washington ,NC,27889
"Williamston , NC",Williamston ,NC,27889
"Wilson , NC",Wilson ,NC,27893
"Elizabeth City, NC",Elizabeth City,NC,27906
"Ahoskie , NC",Ahoskie ,NC,27910
"Edenton , NC",Edenton ,NC,27932
"Kill Devil, NC",Kill Devil,NC,27948
"Kitty Hawk, NC",Kitty Hawk,NC,27949
"Manteo , NC",Manteo ,NC,27954
"Plymouth , NC",Plymouth ,NC,27962
"Windsor , NC",Windsor ,NC,27983
"Albemarle , NC",Albemarle ,NC,28001
"Belmont , NC",Belmont ,NC,28012
"Concord , NC",Concord ,NC,28026
"Cornelius , NC",Cornelius ,NC,28031
"Forest City, NC",Forest City,NC,28043
"Gastonia , NC",Gastonia ,NC,28054
"Huntersville , NC",Huntersville ,NC,28070
"Mooresville , NC",Mooresville ,NC,28078
"Indian Trail, NC",Indian Trail,NC,28079
"Kannapolis , NC",Kannapolis ,NC,28083
"Lincolnton , NC",Lincolnton ,NC,28092
"Lowell , NC",Lowell ,NC,28098
"Marshville , NC",Marshville ,NC,28103
"Stallings , NC",Stallings ,NC,28104
"Matthews , NC",Matthews ,NC,28105
"Monroe , NC",Monroe ,NC,28110
"Rock Hill, SC",Rock Hill,SC,28120
"Mt Holly, NC",Mt Holly,NC,28120
"Pineville , NC",Pineville ,NC,28134
"Salisbury , NC",Salisbury ,NC,28147
"Shelby , NC",Shelby ,NC,28151
"Wadesboro , NC",Wadesboro ,NC,28170
"Charlotte , NC",Charlotte ,NC,28212
"Fayetteville , NC",Fayetteville ,NC,28301
"Aberdeen , NC",Aberdeen ,NC,28315
"Carthage , NC",Carthage ,NC,28327
"Clinton , NC",Clinton ,NC,28328
"Dunn , NC",Dunn ,NC,28334
"Elizabethtown , NC",Elizabethtown ,NC,28337
"Hamlet , NC",Hamlet ,NC,28345
"Lumberton , NC",Lumberton ,NC,28358
"Pinehurst , NC",Pinehurst ,NC,28370
"Red Springs, NC",Red Springs,NC,28377
"Rockingham , NC",Rockingham ,NC,28379
"Roseboro , NC",Roseboro ,NC,28382
"Southern Pines, NC",Southern Pines,NC,28387
"Warsaw , NC",Warsaw ,NC,28398
"Wilmington , NC",Wilmington ,NC,28403
"Burgaw , NC",Burgaw ,NC,28425
"Fair Bluff, NC",Fair Bluff,NC,28439
"Shallotte , NC",Shallotte ,NC,28459
"Wallace , NC",Wallace ,NC,28466
"Whiteville , NC",Whiteville ,NC,28472
"Kinston , NC",Kinston ,NC,28502
"Ayden , NC",Ayden ,NC,28513
"Havelock , NC",Havelock ,NC,28532
"Jacksonville , NC",Jacksonville ,NC,28540
"La Grange, NC",La Grange,NC,28551
"Lagrange , NC",Lagrange ,NC,28551
"Morehead City, NC",Morehead City,NC,28557
"New Bern, NC",New Bern,NC,28560
"Trenton , NC",Trenton ,NC,28585
"Winterville , NC",Winterville ,NC,28590
"Hickory , NC",Hickory ,NC,28601
"Boone , NC",Boone ,NC,28607
"Conover , NC",Conover ,NC,28613
"Statesville , NC",Statesville ,NC,28625
"Jonesville , NC",Jonesville ,NC,28642
"Lenoir , NC",Lenoir ,NC,28645
"Morganton , NC",Morganton ,NC,28655
"Newton , NC",Newton ,NC,28658
"North Wilkesboro, NC",North Wilkesboro,NC,28659
"Rutherford College, NC",Rutherford College,NC,28671
"West Jefferson, NC",West Jefferson,NC,28694
"Wilkesboro , NC",Wilkesboro ,NC,28697
"Brevard , NC",Brevard ,NC,28712
"Burnsville , NC",Burnsville ,NC,28714
"Canton , NC",Canton ,NC,28716
"Fletcher , NC",Fletcher ,NC,28732
"Franklin , NC",Franklin ,NC,28734
"Marion , NC",Marion ,NC,28752
"Pisgah Forest, NC",Pisgah Forest,NC,28768
"Spruce Pine, NC",Spruce Pine,NC,28777
"Sylva , NC",Sylva ,NC,28779
"Tryon , NC",Tryon ,NC,28782
"Waynesville , NC",Waynesville ,NC,28786
"Hendersonville , NC",Hendersonville ,NC,28793
"Asheville , NC",Asheville ,NC,28802
"Hayesville , NC",Hayesville ,NC,28904
"Murphy , NC",Murphy ,NC,28906
"Bamberg , SC",Bamberg ,SC,29003
"Batesburg , SC",Batesburg ,SC,29006
"West Columbia, SC",West Columbia,SC,29033
"Holly Hill, SC",Holly Hill,SC,29059
"Irmo , SC",Irmo ,SC,29063
"Lexington , SC",Lexington ,SC,29071
"Lugoff , SC",Lugoff ,SC,29078
"Manning , SC",Manning ,SC,29102
"Newberry , SC",Newberry ,SC,29108
"Orangeburg , SC",Orangeburg ,SC,29115
"Saluda , SC",Saluda ,SC,29138
"Sumter , SC",Sumter ,SC,29150
"Winnsboro , SC",Winnsboro ,SC,29180
"Spartanburg , SC",Spartanburg ,SC,29301
"Clinton , SC",Clinton ,SC,29325
"Gaffney , SC",Gaffney ,SC,29340
"Laurens , SC",Laurens ,SC,29360
"Woodruff , SC",Woodruff ,SC,29388
"North Charleston, SC",North Charleston,SC,29406
"Charleston , SC",Charleston ,SC,29407
"Moncks Corner, SC",Moncks Corner,SC,29461
"Mt Pleasant, SC",Mt Pleasant,SC,29464
"Ravenel , SC",Ravenel ,SC,29470
"St. George, SC",St. George,SC,29477
"Summerville , SC",Summerville ,SC,29483
"Summverville , SC",Summverville ,SC,29484
"Walterboro , SC",Walterboro ,SC,29488
"Florence , SC",Florence ,SC,29501
"Bennettsville , SC",Bennettsville ,SC,29512
"Cheraw , SC",Cheraw ,SC,29520
"Conway , SC",Conway ,SC,29526
"Darlington , SC",Darlington ,SC,29532
"Hartsville , SC",Hartsville ,SC,29550
"Hemingway , SC",Hemingway ,SC,29554
"Kingtree , SC",Kingtree ,SC,29556
"Little River, SC",Little River,SC,29566
"Longs , SC",Longs ,SC,29568
"Myrtle Beach, SC",Myrtle Beach,SC,29577
"Pawleys Island, SC",Pawleys Island,SC,29585
"Greenville , SC",Greenville ,SC,29606
"Anderson , SC",Anderson ,SC,29621
"Belton , SC",Belton ,SC,29627
"Easley , SC",Easley ,SC,29640
"Greenwood , SC",Greenwood ,SC,29648
"Greer , SC",Greer ,SC,29650
"Seneca , SC",Seneca ,SC,29678
"Simpsonville , SC",Simpsonville ,SC,29680
"Travelers Rest, SC",Travelers Rest,SC,29690
"Walhalla , SC",Walhalla ,SC,29691
"W Union, SC",W Union,SC,29696
"Fort Mill, SC",Fort Mill,SC,29708
"Ft. Mill, SC",Ft. Mill,SC,29708
"Clover , SC",Clover ,SC,29710
"Lancaster , SC",Lancaster ,SC,29720
"Richburg , SC",Richburg ,SC,29729
"York , SC",York ,SC,29745
"Aiken , SC",Aiken ,SC,29801
"Barnwell , SC",Barnwell ,SC,29812
"Edgefield , SC",Edgefield ,SC,29824
"Graniteville, Sc, SC","Graniteville, Sc",SC,29829
"Graniteville , SC",Graniteville ,SC,29829
"Johnston , SC",Johnston ,SC,29832
"Beech Island, SC",Beech Island,SC,29842
"Williston , SC",Williston ,SC,29853
"Beaufort , SC",Beaufort ,SC,29902
"Bluffton , SC",Bluffton ,SC,29910
"Estill , SC",Estill ,SC,29918
"Hampton , SC",Hampton ,SC,29924
"Hardeeville , SC",Hardeeville ,SC,29927
"Jasper , SC",Jasper ,SC,29927
"Alpharetta , GA",Alpharetta ,GA,30004
"Conyers , GA",Conyers ,GA,30012
"Covington , GA",Covington ,GA,30014
"Decatur , GA",Decatur ,GA,30033
"Lithonia , GA",Lithonia ,GA,30038
"Snellville , GA",Snellville ,GA,30039
"Cumming , GA",Cumming ,GA,30040
"Lawrenceville , GA",Lawrenceville ,GA,30043
"Lilburn , GA",Lilburn ,GA,30047
"Loganville , GA",Loganville ,GA,30052
"Marietta , GA",Marietta ,GA,30060
"Norcross , GA",Norcross ,GA,30071
"Roswell , GA",Roswell ,GA,30076
"Smyrna , GA",Smyrna ,GA,30080
"Stone Mountain, GA",Stone Mountain,GA,30087
"Duluth , GA",Duluth ,GA,30096
"Acworth , GA",Acworth ,GA,30101
"Bremen , GA",Bremen ,GA,30110
"Carrollton , GA",Carrollton ,GA,30112
"Canton , GA",Canton ,GA,30114
"Cartersville , GA",Cartersville ,GA,30120
"Lithia Springs, GA",Lithia Springs,GA,30122
"Cedartown , GA",Cedartown ,GA,30125
"Douglasville , GA",Douglasville ,GA,30135
"Jasper , GA",Jasper ,GA,30143
"Kennesaw , GA",Kennesaw ,GA,30144
"Dallas , GA",Dallas ,GA,30157
"Rome , GA",Rome ,GA,30161
"Villa Rica, GA",Villa Rica,GA,30180
"Woodstock , GA",Woodstock ,GA,30188
"Barnesville , GA",Barnesville ,GA,30204
"Fayetteville , GA",Fayetteville ,GA,30214
"Griffin , GA",Griffin ,GA,30223
"Jonesboro , GA",Jonesboro ,GA,30236
"Lagrange , GA",Lagrange ,GA,30240
"Mcdonough , GA",Mcdonough ,GA,30253
"Morrow , GA",Morrow ,GA,30260
"Union City, GA",Union City,GA,30263
"Newnan , GA",Newnan ,GA,30265
"New , GA",New ,GA,30269
"Riverdale , GA",Riverdale ,GA,30274
"Thomaston , GA",Thomaston ,GA,30286
"Atlanta , GA",Atlanta ,GA,30305
"Athens , GA",Athens ,GA,30306
"Chamblee , GA",Chamblee ,GA,30341
"Swainsboro , GA",Swainsboro ,GA,30401
"Claxton , GA",Claxton ,GA,30417
"Glennville , GA",Glennville ,GA,30427
"Metter , GA",Metter ,GA,30439
"Statesboro , GA",Statesboro ,GA,30458
"Vidalia , GA",Vidalia ,GA,30474
"Gainesville , GA",Gainesville ,GA,30501
"Alto , GA",Alto ,GA,30510
"Blue Ridge, GA",Blue Ridge,GA,30513
"Blairsville , GA",Blairsville ,GA,30514
"Buford , GA",Buford ,GA,30518
"Clayton , GA",Clayton ,GA,30525
"Cleveland , GA",Cleveland ,GA,30528
"Commerce , GA",Commerce ,GA,30529
"Dahlonega , GA",Dahlonega ,GA,30533
"Dawsonville , GA",Dawsonville ,GA,30534
"East Ellijay, GA",East Ellijay,GA,30540
"Jefferson , GA",Jefferson ,GA,30549
"Lavonia , GA",Lavonia ,GA,30553
"Toccoa , GA",Toccoa ,GA,30577
"Bogart , GA",Bogart ,GA,30622
"Crawford , GA",Crawford ,GA,30630
"Greensboro , GA",Greensboro ,GA,30642
"Madison , GA",Madison ,GA,30650
"Monroe , GA",Monroe ,GA,30655
"Royston , GA",Royston ,GA,30662
"Washington , GA",Washington ,GA,30673
"Winder , GA",Winder ,GA,30680
"Calhoun , GA",Calhoun ,GA,30701
"Chatsworth , GA",Chatsworth ,GA,30705
"Dalton , GA",Dalton ,GA,30720
"Lafayette , GA",Lafayette ,GA,30728
"Ringgold , GA",Ringgold ,GA,30736
"Summerville , GA",Summerville ,GA,30747
"Evans , GA",Evans ,GA,30809
"Thomson , GA",Thomson ,GA,30824
"Waynesboro , GA",Waynesboro ,GA,30830
"Wrens , GA",Wrens ,GA,30833
"Martinez , GA",Martinez ,GA,30907
"Augusta , GA",Augusta ,GA,30909
"Byron , GA",Byron ,GA,31008
"Cordele , GA",Cordele ,GA,31010
"Dublin , GA",Dublin ,GA,31021
"Forsyth , GA",Forsyth ,GA,31029
"Hawkinsville , GA",Hawkinsville ,GA,31036
"Milledgeville , GA",Milledgeville ,GA,31059
"Perry , GA",Perry ,GA,31069
"Sandersville , GA",Sandersville ,GA,31082
"Warner Robins, GA",Warner Robins,GA,31088
"Unadilla , GA",Unadilla ,GA,31091
"Warner Rboins, GA",Warner Rboins,GA,31093
"Macon , GA",Macon ,GA,31204
"Darien , GA",Darien ,GA,31305
"Hinesville , GA",Hinesville ,GA,31310
"Rincon , GA",Rincon ,GA,31326
"Springfield , GA",Springfield ,GA,31329
"Savannah , GA",Savannah ,GA,31403
"Garden City, GA",Garden City,GA,31418
"Waycross , GA",Waycross ,GA,31502
"Blackshear , GA",Blackshear ,GA,31516
"Brunswick , GA",Brunswick ,GA,31520
"Douglas , GA",Douglas ,GA,31533
"Hazlehurst , GA",Hazlehurst ,GA,31539
"Jesup , GA",Jesup ,GA,31545
"Kingsland , GA",Kingsland ,GA,31548
"Valdosta , GA",Valdosta ,GA,31601
"Adel , GA",Adel ,GA,31620
"Nashville , GA",Nashville ,GA,31639
"Quitman , GA",Quitman ,GA,31643
"Albany , GA",Albany ,GA,31701
"Americus , GA",Americus ,GA,31709
"Ashburn , GA",Ashburn ,GA,31714
"Fitzgerald , GA",Fitzgerald ,GA,31750
"Thomasville , GA",Thomasville ,GA,31757
"Moultrie , GA",Moultrie ,GA,31768
"Pelham , GA",Pelham ,GA,31779
"Sylvester , GA",Sylvester ,GA,31791
"Tifton , GA",Tifton ,GA,31793
"Manchester , GA",Manchester ,GA,31816
"Columbus , GA",Columbus ,GA,31901
"Lake City, FL",Lake City,FL,32025
"Green Cove, FL",Green Cove,FL,32043
"Live Oak, FL",Live Oak,FL,32060
"Orange Park, FL",Orange Park,FL,32065
"St. Augustine, FL",St. Augustine,FL,32080
"St Augustine, FL",St Augustine,FL,32084
"Starke , FL",Starke ,FL,32091
"Yulee , FL",Yulee ,FL,32097
"Daytona Beach, FL",Daytona Beach,FL,32114
"Palm Coast, FL",Palm Coast,FL,32135
"New Smyrna, FL",New Smyrna,FL,32168
"Palatka , FL",Palatka ,FL,32177
"Jacksonville , FL",Jacksonville ,FL,32205
"Jacksonville Beach, FL",Jacksonville Beach,FL,32250
"Tallahassee , FL",Tallahassee ,FL,32301
"Havana , FL",Havana ,FL,32333
"Perry , FL",Perry ,FL,32348
"Quincy , FL",Quincy ,FL,32351
"Panama City, FL",Panama City,FL,32401
"Defuniak Springs, FL",Defuniak Springs,FL,32435
"Graceville , FL",Graceville ,FL,32440
"Marianna , FL",Marianna ,FL,32446
"Pensacola , FL",Pensacola ,FL,32505
"Crestview , FL",Crestview ,FL,32536
"Fort Walton, FL",Fort Walton,FL,32547
"Ft Walton, FL",Ft Walton,FL,32548
"Milton , FL",Milton ,FL,32570
"Gainesville , FL",Gainesville ,FL,32606
"Alachua , FL",Alachua ,FL,32615
"Chiefland , FL",Chiefland ,FL,32626
"Apopka , FL",Apopka ,FL,32703
"Casselberry , FL",Casselberry ,FL,32707
"Sanford , FL",Sanford ,FL,32708
"Deland , FL",Deland ,FL,32720
"Eustis , FL",Eustis ,FL,32726
"Longwood , FL",Longwood ,FL,32750
"Maitland , FL",Maitland ,FL,32751
"Mount Dora, FL",Mount Dora,FL,32757
"Mt Dora, FL",Mt Dora,FL,32757
"Orange City, FL",Orange City,FL,32763
"Tavares , FL",Tavares ,FL,32778
"Titusville , FL",Titusville ,FL,32780
"Winter Park, FL",Winter Park,FL,32790
"Winter Park,, FL","Winter Park,",FL,32790
"Orlando , FL",Orlando ,FL,32804
"Melbourne , FL",Melbourne ,FL,32901
"West Melbourne, FL",West Melbourne,FL,32904
"Palm Bay, FL",Palm Bay,FL,32909
"Cocoa , FL",Cocoa ,FL,32922
"Merritt Island, FL",Merritt Island,FL,32952
"Merritt Island, FL",Merritt Island,FL,32952
"Merrirr Island, FL",Merrirr Island,FL,32953
"Vero Beach, FL",Vero Beach,FL,32960
"Hialeah , FL",Hialeah ,FL,33012
"Miami Lakes, FL",Miami Lakes,FL,33014
"Miami , FL",Miami ,FL,33014
"Memphis , TN",Memphis ,TN,33018
"Delray Beach, FL",Delray Beach,FL,33021
"Pembroke Pines, FL",Pembroke Pines,FL,33021
"Hollywood , FL",Hollywood ,FL,33021
"Pembroke Pine, FL",Pembroke Pine,FL,33024
"Pemroke Pines, FL",Pemroke Pines,FL,33027
"Homestead , FL",Homestead ,FL,33030
"Florida City, FL",Florida City,FL,33034
"Key West, FL",Key West,FL,33040
"Pompano Beach, FL",Pompano Beach,FL,33062
"Margate , FL",Margate ,FL,33063
"Lighthouse Point, FL",Lighthouse Point,FL,33064
"Coral Springs, FL",Coral Springs,FL,33071
"Coconut Creek, FL",Coconut Creek,FL,33073
"Coral Gables, FL",Coral Gables,FL,33134
"Miami Shores, FL",Miami Shores,FL,33138
"Village Of, FL",Village Of,FL,33157
"North Miami, FL",North Miami,FL,33162
"Miami Gardens, FL",Miami Gardens,FL,33169
"Doral , FL",Doral ,FL,33172
"North Miami, FL",North Miami,FL,33181
"Fort Lauderdale, FL",Fort Lauderdale,FL,33304
"Ft Lauderdale, FL",Ft Lauderdale,FL,33304
"Lauderhill , FL",Lauderhill ,FL,33313
"Ft. Lauderdale, FL",Ft. Lauderdale,FL,33314
"Plantation , FL",Plantation ,FL,33317
"Tamarac , FL",Tamarac ,FL,33321
"Sunrise , FL",Sunrise ,FL,33323
"Davie , FL",Davie ,FL,33328
"West Palm, FL",West Palm,FL,33401
"Lake Park, FL",Lake Park,FL,33403
"Riviera Beach, FL",Riviera Beach,FL,33404
"Royal Palm, FL",Royal Palm,FL,33411
"Belle Glade, FL",Belle Glade,FL,33430
"Clewiston , FL",Clewiston ,FL,33440
"Deerfield Beach, FL",Deerfield Beach,FL,33441
"Jupiter , FL",Jupiter ,FL,33458
"Lake Worth, FL",Lake Worth,FL,33461
"Greenacres , FL",Greenacres ,FL,33463
"Brandon , FL",Brandon ,FL,33511
"Dade City, FL",Dade City,FL,33523
"Zephyrhills , FL",Zephyrhills ,FL,33541
"Wesley Chapel, FL",Wesley Chapel,FL,33543
"Lutz , FL",Lutz ,FL,33559
"Plant City, FL",Plant City,FL,33563
"Tampa , FL",Tampa ,FL,33607
"St. Petersburg, FL",St. Petersburg,FL,33710
"St Petersburg, FL",St Petersburg,FL,33713
"Saint Petersburg, FL",Saint Petersburg,FL,33714
"Clearwater , FL",Clearwater ,FL,33761
"Seminole , FL",Seminole ,FL,33777
"Pinellas Park, FL",Pinellas Park,FL,33781
"Lakeland , FL",Lakeland ,FL,33801
"Avon Park, FL",Avon Park,FL,33825
"Bartow , FL",Bartow ,FL,33830
"Fort Meade, FL",Fort Meade,FL,33841
"Ft Meade, FL",Ft Meade,FL,33841
"Haines City, FL",Haines City,FL,33844
"Lake Wales, FL",Lake Wales,FL,33853
"Sebring , FL",Sebring ,FL,33870
"Wauchula , FL",Wauchula ,FL,33873
"Winter Haven, FL",Winter Haven,FL,33880
"Davenport , FL",Davenport ,FL,33897
"Fort Myers, FL",Fort Myers,FL,33901
"Ft Myers, FL",Ft Myers,FL,33907
"Cape Coral, FL",Cape Coral,FL,33909
"Ft.myers , FL",Ft.myers ,FL,33912
"Estero , FL",Estero ,FL,33928
"Labelle , FL",Labelle ,FL,33935
"Punta Gorda, FL",Punta Gorda,FL,33950
"Port Charlotte, FL",Port Charlotte,FL,33952
"Pt. Charlotte, FL",Pt. Charlotte,FL,33953
"Naples , FL",Naples ,FL,34101
"Bradenton , FL",Bradenton ,FL,34205
"Englewood , FL",Englewood ,FL,34223
"Sarasota , FL",Sarasota ,FL,34231
"Arcadia , FL",Arcadia ,FL,34266
"Arcadiua , FL",Arcadiua ,FL,34266
"Nokomis , FL",Nokomis ,FL,34275
"Venice , FL",Venice ,FL,34285
"Crystal River, FL",Crystal River,FL,34423
"Cyrstal River, FL",Cyrstal River,FL,34429
"Homosassa , FL",Homosassa ,FL,34448
"Inverness , FL",Inverness ,FL,34453
"Ocala , FL",Ocala ,FL,34471
"Brooksville , FL",Brooksville ,FL,34601
"Spring Hill, FL",Spring Hill,FL,34606
"New Port, FL",New Port,FL,34652
"Hudson , FL",Hudson ,FL,34667
"Port Richey, FL",Port Richey,FL,34668
"Palm Harbor, FL",Palm Harbor,FL,34684
"Tarpon Springs, FL",Tarpon Springs,FL,34689
"Holiday , FL",Holiday ,FL,34691
"Clermont , FL",Clermont ,FL,34711
"Fruitland Park, FL",Fruitland Park,FL,34731
"Kissimmee , FL",Kissimmee ,FL,34744
"St Cloud, FL",St Cloud,FL,34769
"Wildwood , FL",Wildwood ,FL,34785
"Leesburg , FL",Leesburg ,FL,34788
"Okeechobee , FL",Okeechobee ,FL,34974
"Fort Pierce, FL",Fort Pierce,FL,34982
"Stuart , FL",Stuart ,FL,34994
"Birmingham , AL",Birmingham ,AL,35007
"Alexander City, AL",Alexander City,AL,35010
"Arab , AL",Arab ,AL,35016
"Bessemer , AL",Bessemer ,AL,35022
"Calera , AL",Calera ,AL,35040
"Clanton , AL",Clanton ,AL,35045
"Cullman , AL",Cullman ,AL,35055
"Gardendale , AL",Gardendale ,AL,35071
"Oneonta , AL",Oneonta ,AL,35121
"Pelham , AL",Pelham ,AL,35124
"Pell City, AL",Pell City,AL,35125
"Sylacauga , AL",Sylacauga ,AL,35150
"Talladega , AL",Talladega ,AL,35160
"Warrior , AL",Warrior ,AL,35180
"Birningham , AL",Birningham ,AL,35203
"Irondale , AL",Irondale ,AL,35210
"Hoover , AL",Hoover ,AL,35216
"Tuscaloosa , AL",Tuscaloosa ,AL,35401
"Cottondale , AL",Cottondale ,AL,35453
"Jasper , AL",Jasper ,AL,35501
"Fayette , AL",Fayette ,AL,35555
"Hamilton , AL",Hamilton ,AL,35570
"Sulligent , AL",Sulligent ,AL,35586
"Vernon , AL",Vernon ,AL,35592
"Decatur , AL",Decatur ,AL,35601
"Athens , AL",Athens ,AL,35611
"Florence , AL",Florence ,AL,35630
"Hartselle , AL",Hartselle ,AL,35640
"Moulton , AL",Moulton ,AL,35650
"Muscle Shoals, AL",Muscle Shoals,AL,35661
"Tuscumbia , AL",Tuscumbia ,AL,35674
"Scottsboro , AL",Scottsboro ,AL,35768
"Stevenson , AL",Stevenson ,AL,35772
"Huntsville , AL",Huntsville ,AL,35805
"Gadsden , AL",Gadsden ,AL,35901
"Rainbow City, AL",Rainbow City,AL,35906
"Albertville , AL",Albertville ,AL,35950
"Boaz , AL",Boaz ,AL,35957
"Centre , AL",Centre ,AL,35960
"Fort Payne, AL",Fort Payne,AL,35967
"Ft Payne, AL",Ft Payne,AL,35967
"Guntersville , AL",Guntersville ,AL,35976
"Brundidge , AL",Brundidge ,AL,36010
"Eufaula , AL",Eufaula ,AL,36027
"Greenville , AL",Greenville ,AL,36037
"Prattville , AL",Prattville ,AL,36068
"Tallassee , AL",Tallassee ,AL,36078
"Troy , AL",Troy ,AL,36081
"Wetumpka , AL",Wetumpka ,AL,36092
"Montgomery , AL",Montgomery ,AL,36116
"Anniston , AL",Anniston ,AL,36201
"Oxford , AL",Oxford ,AL,36203
"Ashland , AL",Ashland ,AL,36251
"Heflin , AL",Heflin ,AL,36264
"Dothan , AL",Dothan ,AL,36301
"Abbeville , AL",Abbeville ,AL,36310
"Elba , AL",Elba ,AL,36323
"Enterprise , AL",Enterprise ,AL,36330
"Geneva , AL",Geneva ,AL,36340
"Ozark , AL",Ozark ,AL,36360
"Andalusia , AL",Andalusia ,AL,36420
"Brewton , AL",Brewton ,AL,36426
"Monroeville , AL",Monroeville ,AL,36461
"Opp , AL",Opp ,AL,36467
"Atmore , AL",Atmore ,AL,36502
"Bay Minette, AL",Bay Minette,AL,36507
"Chatom , AL",Chatom ,AL,36518
"Daphne , AL",Daphne ,AL,36526
"Foley , AL",Foley ,AL,36535
"Mobile , AL",Mobile ,AL,36606
"Selma , AL",Selma ,AL,36701
"Camden , AL",Camden ,AL,36726
"Demopolis , AL",Demopolis ,AL,36732
"Thomasville , AL",Thomasville ,AL,36784
"Opelika , AL",Opelika ,AL,36801
"Auburn , AL",Auburn ,AL,36830
"Dadeville , AL",Dadeville ,AL,36853
"Valley , AL",Valley ,AL,36854
"Lanett , AL",Lanett ,AL,36863
"Antioch , TN",Antioch ,TN,37013
"Brentwood , TN",Brentwood ,TN,37027
"Carthage , TN",Carthage ,TN,37030
"Clarksville , TN",Clarksville ,TN,37040
"Dickson , TN",Dickson ,TN,37055
"Gallatin , TN",Gallatin ,TN,37066
"Nashville , TN",Nashville ,TN,37067
"Franklin , TN",Franklin ,TN,37068
"Madison , TN",Madison ,TN,37075
"Lebanon , TN",Lebanon ,TN,37087
"Lewisburg , TN",Lewisburg ,TN,37091
"Mount Juliet, TN",Mount Juliet,TN,37122
"Murfreesboro , TN",Murfreesboro ,TN,37127
"Shelbyville , TN",Shelbyville ,TN,37160
"Smithville , TN",Smithville ,TN,37166
"Springfield , TN",Springfield ,TN,37172
"Athens , TN",Athens ,TN,37303
"Cleveland , TN",Cleveland ,TN,37311
"Clevland , TN",Clevland ,TN,37311
"Dunlap , TN",Dunlap ,TN,37327
"Fayetteville , TN",Fayetteville ,TN,37334
"Chattanooga , TN",Chattanooga ,TN,37343
"Mc Donald, TN",Mc Donald,TN,37353
"Manchester , TN",Manchester ,TN,37355
"Morrison , TN",Morrison ,TN,37357
"South Pittsburg, TN",South Pittsburg,TN,37380
"Tullahoma , TN",Tullahoma ,TN,37388
"Winchester , TN",Winchester ,TN,37398
"Johnson City, TN",Johnson City,TN,37601
"Bristol , TN",Bristol ,TN,37620
"Elizabethton , TN",Elizabethton ,TN,37643
"Erwin , TN",Erwin ,TN,37650
"Kingsport , TN",Kingsport ,TN,37660
"Alcoa , TN",Alcoa ,TN,37701
"Clinton , TN",Clinton ,TN,37716
"Greeneville , TN",Greeneville ,TN,37745
"Harriman , TN",Harriman ,TN,37748
"Jefferson City, TN",Jefferson City,TN,37760
"Kodak , TN",Kodak ,TN,37764
"Lafollette , TN",Lafollette ,TN,37766
"Lenoir City, TN",Lenoir City,TN,37771
"Louisville , TN",Louisville ,TN,37777
"Morristown Ford, TN",Morristown Ford,TN,37813
"Morristown , TN",Morristown ,TN,37813
"Newport , TN",Newport ,TN,37821
"Oak Ridge, TN",Oak Ridge,TN,37830
"Rockwood , TN",Rockwood ,TN,37854
"Rogersville , TN",Rogersville ,TN,37857
"Rutledge , TN",Rutledge ,TN,37861
"Sevierville , TN",Sevierville ,TN,37862
"Sweetwater , TN",Sweetwater ,TN,37874
"Talbott , TN",Talbott ,TN,37877
"Wartburg , TN",Wartburg ,TN,37887
"Knoxville , TN",Knoxville ,TN,37912
"Bolivar , TN",Bolivar ,TN,38008
"Brownsville , TN",Brownsville ,TN,38012
"Collierville , TN",Collierville ,TN,38017
"Cordova , TN",Cordova ,TN,38018
"Covington , TN",Covington ,TN,38019
"Dyersburg , TN",Dyersburg ,TN,38024
"Millington , TN",Millington ,TN,38053
"Bartlett , TN",Bartlett ,TN,38133
"Mckenzie , TN",Mckenzie ,TN,38201
"Kenton , TN",Kenton ,TN,38233
"Martin , TN",Martin ,TN,38237
"Paris , TN",Paris ,TN,38242
"Union City, TN",Union City,TN,38261
"Jackson , TN",Jackson ,TN,38305
"Camden , TN",Camden ,TN,38320
"Henderson , TN",Henderson ,TN,38340
"Humboldt , TN",Humboldt ,TN,38343
"Lexington , TN",Lexington ,TN,38351
"Milan , TN",Milan ,TN,38358
"Parsons , TN",Parsons ,TN,38363
"Savannah , TN",Savannah ,TN,38372
"Columbia , TN",Columbia ,TN,38401
"Lawrenceburg , TN",Lawrenceburg ,TN,38464
"Pulaski , TN",Pulaski ,TN,38478
"Cookeville , TN",Cookeville ,TN,38501
"Crossville , TN",Crossville ,TN,38555
"Livingston , TN",Livingston ,TN,38570
"Sparta , TN",Sparta ,TN,38583
"Batesville , MS",Batesville ,MS,38606
"Clarksdale , MS",Clarksdale ,MS,38614
"New Albany, MS",New Albany,MS,38652
"Olive Branch, MS",Olive Branch,MS,38654
"Oxford , MS",Oxford ,MS,38655
"Senatobia , MS",Senatobia ,MS,38668
"Southaven , MS",Southaven ,MS,38671
"Greenville , MS",Greenville ,MS,38701
"Cleveland , MS",Cleveland ,MS,38732
"Tupelo , MS",Tupelo ,MS,38801
"Amory , MS",Amory ,MS,38821
"Corinth , MS",Corinth ,MS,38834
"Fulton , MS",Fulton ,MS,38843
"Houston Ms, MS",Houston Ms,MS,38851
"Houston , MS",Houston ,MS,38851
"Saltillo , MS",Saltillo ,MS,38866
"Grenada , MS",Grenada ,MS,38901
"Greenwood , MS",Greenwood ,MS,38930
"Brandon , MS",Brandon ,MS,39042
"Canton , MS",Canton ,MS,39046
"Carthage , MS",Carthage ,MS,39051
"Flowood , MS",Flowood ,MS,39059
"Durant , MS",Durant ,MS,39063
"Forest , MS",Forest ,MS,39074
"Natchez , MS",Natchez ,MS,39120
"Natcchez , MS",Natcchez ,MS,39121
"Ridgeland , MS",Ridgeland ,MS,39157
"Terry , MS",Terry ,MS,39170
"Vicksburg , MI",Vicksburg ,MI,39180
"Vicksburg , MS",Vicksburg ,MS,39180
"Jackson , MS",Jackson ,MS,39202
"Pearl , MS",Pearl ,MS,39208
"Meridian , MS",Meridian ,MS,39301
"Dekalb , MS",Dekalb ,MS,39328
"Louisville , MS",Louisville ,MS,39339
"Philadelphia , MS",Philadelphia ,MS,39350
"Union , MS",Union ,MS,39365
"Waynesboro , MS",Waynesboro ,MS,39367
"Hattiesburg , MI",Hattiesburg ,MI,39401
"Hattiesburg , MS",Hattiesburg ,MS,39403
"Collins , MS",Collins ,MS,39428
"Columbia , MS",Columbia ,MS,39429
"Laurel , MS",Laurel ,MS,39440
"Luarel , MS",Luarel ,MS,39440
"Lucedale , MS",Lucedale ,MS,39452
"Picayune , MS",Picayune ,MS,39466
"Poplarville , MS",Poplarville ,MS,39470
"Gulfport , MS",Gulfport ,MS,39502
"Biloxi , MS",Biloxi ,MS,39532
"Diberville , MS",Diberville ,MS,39540
"D'iberville , MS",D'iberville ,MS,39540
"Gautier , MS",Gautier ,MS,39553
"Pascagoula , MS",Pascagoula ,MS,39567
"Waveland , MS",Waveland ,MS,39576
"Wiggins , MS",Wiggins ,MS,39577
"Brookhaven , MS",Brookhaven ,MS,39601
"Mccomb , MS",Mccomb ,MS,39648
"Tylertown , MS",Tylertown ,MS,39667
"Columbus , MS",Columbus ,MS,39702
"Starkville , MS",Starkville ,MS,39759
"West Point, MS",West Point,MS,39773
"West Pont, MS",West Pont,MS,39773
"Bainbridge , GA",Bainbridge ,GA,39817
"Blakely , GA",Blakely ,GA,39823
"Cairo , GA",Cairo ,GA,39828
"Dawson , GA",Dawson ,GA,39842
"Donalsonville , GA",Donalsonville ,GA,39845
"Bardstown , KY",Bardstown ,KY,40004
"Buckner , KY",Buckner ,KY,40010
"Crestwood , KY",Crestwood ,KY,40014
"Eminence , KY",Eminence ,KY,40019
"Lagrange , KY",Lagrange ,KY,40031
"Lebanon , KY",Lebanon ,KY,40033
"Mt Washnington, KY",Mt Washnington,KY,40047
"Shelbyville , KY",Shelbyville ,KY,40065
"Brandenburg , KY",Brandenburg ,KY,40108
"Hardinsburg , KY",Hardinsburg ,KY,40143
"Radcliff , KY",Radcliff ,KY,40160
"Louisville , KY",Louisville ,KY,40202
"Louisville/shively , KY",Louisville/shively ,KY,40216
"Louisvulle , KY",Louisvulle ,KY,40216
"Lousiville , KY",Lousiville ,KY,40218
"Georgetown , KY",Georgetown ,KY,40324
"Harrodsburg , KY",Harrodsburg ,KY,40330
"Irvine , KY",Irvine ,KY,40336
"Lawrenceburg , KY",Lawrenceburg ,KY,40342
"Morehead , KY",Morehead ,KY,40351
"Mount Sterling, KY",Mount Sterling,KY,40353
"Mt. Sterling, KY",Mt. Sterling,KY,40353
"Nicholasville , KY",Nicholasville ,KY,40354
"Paris , KY",Paris ,KY,40361
"Salt Lick, KY",Salt Lick,KY,40371
"Stanton , KY",Stanton ,KY,40380
"Versailles , KY",Versailles ,KY,40383
"Winchester , KY",Winchester ,KY,40391
"Somerset , KY",Somerset ,KY,40403
"Danville , KY",Danville ,KY,40422
"Richmond , KY",Richmond ,KY,40475
"Lexington , KY",Lexington ,KY,40502
"Frankfort , KY",Frankfort ,KY,40601
"Corbin , KY",Corbin ,KY,40701
"London , KY",London ,KY,40743
"Williamsburg , KY",Williamsburg ,KY,40769
"Harlan , KY",Harlan ,KY,40831
"Manchester , KY",Manchester ,KY,40962
"Middlesboro , KY",Middlesboro ,KY,40965
"Alexandria , KY",Alexandria ,KY,41001
"Carrollton , KY",Carrollton ,KY,41008
"Covington , KY",Covington ,KY,41011
"Ft. Wright, KY",Ft. Wright,KY,41017
"Critenden , KY",Critenden ,KY,41030
"Flemingsburg , KY",Flemingsburg ,KY,41041
"Dry Ridge, KY",Dry Ridge,KY,41042
"Florence , KY",Florence ,KY,41042
"Maysville , KY",Maysville ,KY,41056
"Ft Thomas, KY",Ft Thomas,KY,41075
"Williamstown , KY",Williamstown ,KY,41097
"Ashland , KY",Ashland ,KY,41101
"Grayson , KY",Grayson ,KY,41143
"Paintsville , KY",Paintsville ,KY,41240
"Campton , KY",Campton ,KY,41301
"West Liberty, KY",West Liberty,KY,41472
"Pikeville , KY",Pikeville ,KY,41501
"South Williamson, KY",South Williamson,KY,41503
"Prestonsburg , KY",Prestonsburg ,KY,41653
"Hazard , KY",Hazard ,KY,41701
"Paducah , KY",Paducah ,KY,42001
"Benton , KY",Benton ,KY,42025
"Mayfield , KY",Mayfield ,KY,42066
"Murray , KY",Murray ,KY,42071
"Bowling Green, KY",Bowling Green,KY,42101
"Cave City, KY",Cave City,KY,42127
"Franklin , KY",Franklin ,KY,42134
"Glasgow , KY",Glasgow ,KY,42141
"Cadiz , KY",Cadiz ,KY,42211
"Hopkinsville Ky, KY",Hopkinsville Ky,KY,42240
"Hopkinsville , KY",Hopkinsville ,KY,42240
"Russellville , KY",Russellville ,KY,42276
"Owensboro , KY",Owensboro ,KY,42301
"Central City, KY",Central City,KY,42330
"Greenville , KY",Greenville ,KY,42345
"Hartford , KY",Hartford ,KY,42347
"Livermore , KY",Livermore ,KY,42352
"Henderson , KY",Henderson ,KY,42420
"Madisonville , KY",Madisonville ,KY,42431
"Princeton , KY",Princeton ,KY,42445
"Sturgis , KY",Sturgis ,KY,42459
"Liberty , KY",Liberty ,KY,42539
"Monticello , KY",Monticello ,KY,42633
"Elizabethtown , KY",Elizabethtown ,KY,42701
"Burkesville , KY",Burkesville ,KY,42717
"Campbellsville , KY",Campbellsville ,KY,42718
"Columbia , KY",Columbia ,KY,42728
"Munfordville , KY",Munfordville ,KY,42765
"Delaware , OH",Delaware ,OH,43015
"Dublin , OH",Dublin ,OH,43017
"Fredericktown , OH",Fredericktown ,OH,43019
"Hilliard , OH",Hilliard ,OH,43026
"Johnstown , OH",Johnstown ,OH,43031
"Lewis Center, OH",Lewis Center,OH,43035
"Marysville , OH",Marysville ,OH,43040
"Mechanicsburg , OH",Mechanicsburg ,OH,43044
"Mt Vernon, OH",Mt Vernon,OH,43050
"New Albany, OH",New Albany,OH,43054
"Newark , OH",Newark ,OH,43055
"Heath , OH",Heath ,OH,43056
"Hebron , OH",Hebron ,OH,43056
"Pataskala , OH",Pataskala ,OH,43062
"Urbana , OH",Urbana ,OH,43078
"Westerville , OH",Westerville ,OH,43081
"Columbus , OH",Columbus ,OH,43085
"Worthington , OH",Worthington ,OH,43085
"Canal Winchester, OH",Canal Winchester,OH,43110
"Carroll , OH",Carroll ,OH,43112
"Circleville , OH",Circleville ,OH,43113
"Groveport , OH",Groveport ,OH,43125
"Lancaster , OH",Lancaster ,OH,43130
"Logan , OH",Logan ,OH,43138
"London , OH",London ,OH,43140
"Mt Sterling, OH",Mt Sterling,OH,43143
"Washington Court, OH",Washington Court,OH,43160
"Marion , OH",Marion ,OH,43302
"Bellefontaine , OH",Bellefontaine ,OH,43311
"Carey , OH",Carey ,OH,43316
"Upper Sandusky, OH",Upper Sandusky,OH,43351
"Bowling Green, OH",Bowling Green,OH,43402
"Clyde , OH",Clyde ,OH,43410
"Fremont , OH",Fremont ,OH,43420
"Genoa , OH",Genoa ,OH,43430
"Gibsonburg , OH",Gibsonburg ,OH,43431
"Oak Harbor, OH",Oak Harbor,OH,43449
"Pemberville , OH",Pemberville ,OH,43450
"Port Clinton, OH",Port Clinton,OH,43452
"Woodville , OH",Woodville ,OH,43469
"Archbold , OH",Archbold ,OH,43502
"Bryan , OH",Bryan ,OH,43506
"Defiance , OH",Defiance ,OH,43512
"Hamler , OH",Hamler ,OH,43524
"Hicksville , OH",Hicksville ,OH,43526
"Millersburg , OH",Millersburg ,OH,43528
"Maumee , OH",Maumee ,OH,43537
"Perrysburg , OH",Perrysburg ,OH,43537
"Montpelier , OH",Montpelier ,OH,43543
"Napoleon , OH",Napoleon ,OH,43545
"Swanton , OH",Swanton ,OH,43558
"Sylvania , OH",Sylvania ,OH,43560
"Waterville , OH",Waterville ,OH,43566
"Wauseon , OH",Wauseon ,OH,43567
"Whitehouse , OH",Whitehouse ,OH,43571
"Toledo , OH",Toledo ,OH,43612
"Oregon , OH",Oregon ,OH,43616
"Zanesville , OH",Zanesville ,OH,43701
"Barnesville , OH",Barnesville ,OH,43713
"Belmont , OH",Belmont ,OH,43718
"Caldwell , OH",Caldwell ,OH,43724
"Cambridge , OH",Cambridge ,OH,43725
"Mcconnelsville , OH",Mcconnelsville ,OH,43756
"New Lexington, OH",New Lexington,OH,43764
"Coshocton , OH",Coshocton ,OH,43812
"Bellaire , OH",Bellaire ,OH,43906
"Cadiz , OH",Cadiz ,OH,43907
"Brilliant , OH",Brilliant ,OH,43913
"East Liverpool, OH",East Liverpool,OH,43920
"Martins Ferry, OH",Martins Ferry,OH,43935
"St. Clairsville, OH",St. Clairsville,OH,43950
"St.clairsville , OH",St.clairsville ,OH,43950
"Steubenville , OH",Steubenville ,OH,43952
"Amherst , OH",Amherst ,OH,44001
"Westlake , OH",Westlake ,OH,44001
"Andover , OH",Andover ,OH,44003
"Ashtabula , OH",Ashtabula ,OH,44004
"Jefferson , OH",Jefferson ,OH,44004
"Avon Lake, OH",Avon Lake,OH,44012
"Burton , OH",Burton ,OH,44021
"Chardon , OH",Chardon ,OH,44024
"Conneaut , OH",Conneaut ,OH,44030
"Sheffield Village, OH",Sheffield Village,OH,44035
"Elyria , OH",Elyria ,OH,44035
"North Ridgeville, OH",North Ridgeville,OH,44039
"Kingsville , OH",Kingsville ,OH,44048
"Lorain , OH",Lorain ,OH,44052
"Sheffield , OH",Sheffield ,OH,44054
"North Olmsted, OH",North Olmsted,OH,44057
"Madison , OH",Madison ,OH,44057
"Willoughby Hills, OH",Willoughby Hills,OH,44060
"Mentor , OH",Mentor ,OH,44060
"Painesville , OH",Painesville ,OH,44060
"Willoughby , OH",Willoughby ,OH,44060
"Northfield , OH",Northfield ,OH,44067
"N Kingsville, OH",N Kingsville,OH,44068
"Orwell , OH",Orwell ,OH,44076
"Painseville , OH",Painseville ,OH,44077
"Vermilion , OH",Vermilion ,OH,44089
"Wellington , OH",Wellington ,OH,44090
"Wickliffe , OH",Wickliffe ,OH,44092
"Lakewood , OH",Lakewood ,OH,44107
"Cleveland , OH",Cleveland ,OH,44109
"Cleveland Heights, OH",Cleveland Heights,OH,44118
"Euclid , OH",Euclid ,OH,44119
"Shaker Hts, OH",Shaker Hts,OH,44120
"Orange Village, OH",Orange Village,OH,44122
"Mayfield Hts, OH",Mayfield Hts,OH,44124
"Brookpark , OH",Brookpark ,OH,44124
"Lyndhurst , OH",Lyndhurst ,OH,44124
"Parma , OH",Parma ,OH,44129
"Middleburg Heights, OH",Middleburg Heights,OH,44130
"Middleburg Hts, OH",Middleburg Hts,OH,44130
"Parma Hts, OH",Parma Hts,OH,44130
"Middleburg Hts., OH",Middleburg Hts.,OH,44130
"Canfield , OH",Canfield ,OH,44133
"Strongsville , OH",Strongsville ,OH,44136
"Maple Hts, OH",Maple Hts,OH,44137
"Solon , OH",Solon ,OH,44139
"Bedford , OH",Bedford ,OH,44146
"Aurora , OH",Aurora ,OH,44202
"Barberton , OH",Barberton ,OH,44203
"Norton , OH",Norton ,OH,44203
"Brunswick , OH",Brunswick ,OH,44212
"Cuyahogafalls , OH",Cuyahogafalls ,OH,44221
"Cuyahoga Falls, OH",Cuyahoga Falls,OH,44223
"Garrettsville , OH",Garrettsville ,OH,44231
"Kent , OH",Kent ,OH,44240
"Streetsboro , OH",Streetsboro ,OH,44241
"Medina , OH",Medina ,OH,44256
"Orrville , OH",Orrville ,OH,44256
"Randolph , OH",Randolph ,OH,44265
"Ravenna , OH",Ravenna ,OH,44266
"Rittman , OH",Rittman ,OH,44270
"Tallmadge , OH",Tallmadge ,OH,44278
"Wadsworth , OH",Wadsworth ,OH,44281
"Akron , OH",Akron ,OH,44302
"Columbiana , OH",Columbiana ,OH,44408
"Cortland , OH",Cortland ,OH,44410
"East Palestine, OH",East Palestine,OH,44413
"Hubbard , OH",Hubbard ,OH,44425
"Kinsman , OH",Kinsman ,OH,44428
"New Springfield, OH",New Springfield,OH,44443
"Newton Falls, OH",Newton Falls,OH,44444
"New Waterford, OH",New Waterford,OH,44445
"Niles , OH",Niles ,OH,44446
"Salem , OH",Salem ,OH,44460
"Warren , OH",Warren ,OH,44482
"Boardman , OH",Boardman ,OH,44512
"Youngstown , OH",Youngstown ,OH,44512
"Alliance , OH",Alliance ,OH,44601
"Beloit , OH",Beloit ,OH,44609
"Canal Fulton, OH",Canal Fulton,OH,44614
"Carrollton , OH",Carrollton ,OH,44615
"Dalton , OH",Dalton ,OH,44618
"Dover , OH",Dover ,OH,44622
"Hartville , OH",Hartville ,OH,44632
"Louisville , OH",Louisville ,OH,44641
"Malvern , OH",Malvern ,OH,44644
"Massillon , OH",Massillon ,OH,44646
"Minerva , OH",Minerva ,OH,44657
"Navarre , OH",Navarre ,OH,44662
"New Philadelphia, OH",New Philadelphia,OH,44663
"Sugarcreek , OH",Sugarcreek ,OH,44681
"Waynesburg , OH",Waynesburg ,OH,44688
"Wooster , OH",Wooster ,OH,44691
"Canton , OH",Canton ,OH,44702
"North Canton, OH",North Canton,OH,44720
"Ashland , OH",Ashland ,OH,44805
"Bellevue , OH",Bellevue ,OH,44811
"Bucyrus , OH",Bucyrus ,OH,44820
"Butler , OH",Butler ,OH,44822
"Fostoria , OH",Fostoria ,OH,44830
"Galion , OH",Galion ,OH,44833
"Huron , OH",Huron ,OH,44839
"Loudonville , OH",Loudonville ,OH,44842
"Milan , OH",Milan ,OH,44846
"Norwalk , OH",Norwalk ,OH,44857
"Sandusky , OH",Sandusky ,OH,44870
"Shelby , OH",Shelby ,OH,44875
"Tiffin , OH",Tiffin ,OH,44883
"Willard , OH",Willard ,OH,44890
"Mansfield , OH",Mansfield ,OH,44904
"Hamilton , OH",Hamilton ,OH,45011
"Ross , OH",Ross ,OH,45013
"Fairfield , OH",Fairfield ,OH,45014
"Farifield , OH",Farifield ,OH,45014
"Harrison , OH",Harrison ,OH,45030
"Lebanon , OH",Lebanon ,OH,45036
"Middletown , OH",Middletown ,OH,45042
"West Chester, OH",West Chester,OH,45069
"Batavia , OH",Batavia ,OH,45103
"Hillsboro , OH",Hillsboro ,OH,45133
"Loveland , OH",Loveland ,OH,45140
"Milford , OH",Milford ,OH,45150
"Mt Orab, OH",Mt Orab,OH,45154
"Wilmington , OH",Wilmington ,OH,45177
"Cincinanti , OH",Cincinanti ,OH,45215
"Cincinnati , OH",Cincinnati ,OH,45242
"Arcanum , OH",Arcanum ,OH,45304
"Brookville , OH",Brookville ,OH,45309
"Eaton , OH",Eaton ,OH,45320
"Fairborn , OH",Fairborn ,OH,45324
"Greenville , OH",Greenville ,OH,45331
"Miamisburg , OH",Miamisburg ,OH,45342
"New Carlisle, OH",New Carlisle,OH,45344
"Piqua , OH",Piqua ,OH,45356
"Sidney , OH",Sidney ,OH,45365
"Troh , OH",Troh ,OH,45373
"Troy , OH",Troy ,OH,45373
"Vandalia , OH",Vandalia ,OH,45377
"Xenia , OH",Xenia ,OH,45385
"Dayton , OH",Dayton ,OH,45405
"Huger Heights, OH",Huger Heights,OH,45424
"Beavercreek , OH",Beavercreek ,OH,45434
"Centerville , OH",Centerville ,OH,45458
"Springfield , OH",Springfield ,OH,45459
"Springfielf , OH",Springfielf ,OH,45504
"Chillicothe , OH",Chillicothe ,OH,45601
"Gallipolis , OH",Gallipolis ,OH,45631
"Ironton , OH",Ironton ,OH,45638
"Jackson , OH",Jackson ,OH,45640
"Peebles , OH",Peebles ,OH,45660
"Portsmouth , OH",Portsmouth ,OH,45662
"Portsmouty , OH",Portsmouty ,OH,45662
"South Point, OH",South Point,OH,45680
"South Webster, OH",South Webster,OH,45682
"Waverly , OH",Waverly ,OH,45690
"West Union, OH",West Union,OH,45693
"Athens , OH",Athens ,OH,45701
"Marietta , OH",Marietta ,OH,45750
"Pomeroy , OH",Pomeroy ,OH,45769
"Lima , OH",Lima ,OH,45805
"Ada , OH",Ada ,OH,45810
"Celina , OH",Celina ,OH,45822
"Continental , OH",Continental ,OH,45831
"Delphos , OH",Delphos ,OH,45833
"Findlay , OH",Findlay ,OH,45840
"Fort Recovery, OH",Fort Recovery,OH,45846
"Kalida , OH",Kalida ,OH,45853
"New Knoxville, OH",New Knoxville,OH,45871
"North Baltimore, OH",North Baltimore,OH,45872
"Ottawa , OH",Ottawa ,OH,45875
"Paulding , OH",Paulding ,OH,45879
"Saint Marys, OH",Saint Marys,OH,45885
"St Marys, OH",St Marys,OH,45885
"Van Wert, OH",Van Wert,OH,45891
"Wapakoneta , OH",Wapakoneta ,OH,45895
"Woaoakoneta , OH",Woaoakoneta ,OH,45895
"Alexandria , IN",Alexandria ,IN,46001
"Anderson , IN",Anderson ,IN,46012
"Carmel , IN",Carmel ,IN,46032
"Elwood , IN",Elwood ,IN,46036
"Fishers , IN",Fishers ,IN,46038
"Frankfort , IN",Frankfort ,IN,46041
"Lebanon , IN",Lebanon ,IN,46052
"Noblesville , IN",Noblesville ,IN,46060
"Tipton , IN",Tipton ,IN,46072
"Westfield , IN",Westfield ,IN,46074
"Zionsville , IN",Zionsville ,IN,46077
"Platte City, MO",Platte City,MO,46079
"Brownsburg , IN",Brownsburg ,IN,46112
"Camby , IN",Camby ,IN,46113
"Danville , IN",Danville ,IN,46122
"Avon , IN",Avon ,IN,46123
"Franklin , IN",Franklin ,IN,46131
"Greencastle , IN",Greencastle ,IN,46135
"Greenfield , IN",Greenfield ,IN,46140
"Greenwood , IN",Greenwood ,IN,46142
"Martinsville , IN",Martinsville ,IN,46151
"Morgantown , IN",Morgantown ,IN,46160
"Plainfield , IN",Plainfield ,IN,46168
"Rushville , IN",Rushville ,IN,46173
"Shelbyville , IN",Shelbyville ,IN,46176
"Indianapolis , IN",Indianapolis ,IN,46219
"Indianapolis , ID",Indianapolis ,ID,46240
"Indianapolis/ , IN",Indianapolis/ ,IN,46240
"Indpls , IN",Indpls ,IN,46254
"Cedar Lake, IN",Cedar Lake,IN,46303
"Burns Harbor, IN",Burns Harbor,IN,46304
"Chesterton , IN",Chesterton ,IN,46304
"Crown Point, IN",Crown Point,IN,46307
"Demotte , IN",Demotte ,IN,46310
"Hammond , IN",Hammond ,IN,46320
"Highland , IN",Highland ,IN,46322
"Hobart , IN",Hobart ,IN,46342
"La Porte, IN",La Porte,IN,46350
"Laporte , IN",Laporte ,IN,46350
"Lowell , IN",Lowell ,IN,46356
"Michigan City, IN",Michigan City,IN,46360
"Portage , IN",Portage ,IN,46360
"Schererville , IN",Schererville ,IN,46375
"Valparaiso , IN",Valparaiso ,IN,46383
"Merillville , IN",Merillville ,IN,46410
"Merrillville , IN",Merrillville ,IN,46410
"Bremen , IN",Bremen ,IN,46506
"Elkhart , IN",Elkhart ,IN,46514
"Goshen , IN",Goshen ,IN,46526
"Knox , IN",Knox ,IN,46534
"Middlebury , IN",Middlebury ,IN,46540
"Mishawaka , IN",Mishawaka ,IN,46545
"Nappanee , IN",Nappanee ,IN,46550
"Plymouth , IN",Plymouth ,IN,46563
"Warsaw , IN",Warsaw ,IN,46580
"South Bend, IN",South Bend,IN,46614
"Angola , IN",Angola ,IN,46703
"Auburn , IN",Auburn ,IN,46706
"Berne , IN",Berne ,IN,46711
"Bluffton , IN",Bluffton ,IN,46714
"Columbia City, IN",Columbia City,IN,46725
"Decatur , IN",Decatur ,IN,46733
"Garrett , IN",Garrett ,IN,46738
"Grabill , IN",Grabill ,IN,46741
"Huntington , IN",Huntington ,IN,46750
"Kendallville , IN",Kendallville ,IN,46755
"Lagrange , IN",Lagrange ,IN,46761
"Ligonier , IN",Ligonier ,IN,46767
"New Haven, IN",New Haven,IN,46774
"Ossian , IN",Ossian ,IN,46777
"Fort Wayne, IN",Fort Wayne,IN,46801
"Ft. Wayne, IN",Ft. Wayne,IN,46804
"Kokomo , IN",Kokomo ,IN,46902
"Bunker Hill, IN",Bunker Hill,IN,46914
"Delphi , IN",Delphi ,IN,46923
"Flora , IN",Flora ,IN,46929
"Gas City, IN",Gas City,IN,46933
"Greentown , IN",Greentown ,IN,46936
"Logansport , IN",Logansport ,IN,46947
"Marion , IN",Marion ,IN,46952
"North Manchester, IN",North Manchester,IN,46962
"Peru , IN",Peru ,IN,46970
"Rochester , IN",Rochester ,IN,46975
"Silver Lake, IN",Silver Lake,IN,46982
"Wabash , IN",Wabash ,IN,46992
"Winamac , IN",Winamac ,IN,46996
"Batesville , IN",Batesville ,IN,47006
"Brookville , IN",Brookville ,IN,47012
"Greendale , IN",Greendale ,IN,47025
"Lawrenceburg , IN",Lawrenceburg ,IN,47025
"Milan , IN",Milan ,IN,47031
"West Harrison, IN",West Harrison,IN,47060
"Corydon , IN",Corydon ,IN,47112
"Clarksville , IN",Clarksville ,IN,47129
"Jeffersonville , IN",Jeffersonville ,IN,47130
"Salem , IN",Salem ,IN,47167
"Scottsburg , IN",Scottsburg ,IN,47170
"Sellersburg , IN",Sellersburg ,IN,47172
"Columbus , IN",Columbus ,IN,47201
"Greensburg , IN",Greensburg ,IN,47240
"Madison , IN",Madison ,IN,47250
"North Vernon, IN",North Vernon,IN,47265
"Seymour , IN",Seymour ,IN,47274
"Taylorsville , IN",Taylorsville ,IN,47280
"Muncie , IN",Muncie ,IN,47303
"Connersville , IN",Connersville ,IN,47331
"Daleville , IN",Daleville ,IN,47334
"Hartford City, IN",Hartford City,IN,47348
"Middletown , IN",Middletown ,IN,47356
"New Castle, IN",New Castle,IN,47362
"Portland , IN",Portland ,IN,47371
"Richmond , IN",Richmond ,IN,47374
"Bloomington , IN",Bloomington ,IN,47401
"Bedford , IN",Bedford ,IN,47421
"Linton , IN",Linton ,IN,47441
"Orleans , IN",Orleans ,IN,47452
"Washington , IN",Washington ,IN,47501
"Dale , IN",Dale ,IN,47523
"Jasper , IN",Jasper ,IN,47546
"St. Anthony, IN",St. Anthony,IN,47575
"Vincennes , IN",Vincennes ,IN,47591
"Boonville , IN",Boonville ,IN,47601
"Mount Vernon, IN",Mount Vernon,IN,47620
"Mt Vernon, IN",Mt Vernon,IN,47620
"Mt. Vernon, IN",Mt. Vernon,IN,47620
"Rockport , IN",Rockport ,IN,47635
"Princeton , IN",Princeton ,IN,47670
"Evansville , IN",Evansville ,IN,47708
"Terre Haute, IN",Terre Haute,IN,47801
"Brazil , IN",Brazil ,IN,47834
"Clay City, IN",Clay City,IN,47841
"Clinton , IN",Clinton ,IN,47842
"Rockville , IN",Rockville ,IN,47872
"Sullivan , IN",Sullivan ,IN,47882
"Lafayette , IN",Lafayette ,IN,47903
"Attica , IN",Attica ,IN,47918
"Brookston , IN",Brookston ,IN,47923
"Cayuga , IN",Cayuga ,IN,47928
"Covington , IN",Covington ,IN,47932
"Crawfordsville , IN",Crawfordsville ,IN,47933
"Kentland , IN",Kentland ,IN,47951
"Ladoga , IN",Ladoga ,IN,47954
"Monon , IN",Monon ,IN,47959
"Monticello , IN",Monticello ,IN,47960
"Rensselaer , IN",Rensselaer ,IN,47978
"Center Line, MI",Center Line,MI,48015
"Eastpointe , MI",Eastpointe ,MI,48021
"Southfield , MI",Southfield ,MI,48033
"Clinton Township, MI",Clinton Township,MI,48035
"Mt Clemens, MI",Mt Clemens,MI,48036
"Clinton Twp, MI",Clinton Twp,MI,48038
"Macomb , MI",Macomb ,MI,48042
"China Twp, MI",China Twp,MI,48054
"Fort Gratiot, MI",Fort Gratiot,MI,48059
"Port Huron, MI",Port Huron,MI,48060
"Richmond , MI",Richmond ,MI,48062
"Casco , MI",Casco ,MI,48064
"Roseville , MI",Roseville ,MI,48066
"Royal Oak, MI",Royal Oak,MI,48067
"Ferndale , MI",Ferndale ,MI,48067
"Madison Heights, MI",Madison Heights,MI,48071
"Saint Clair, MI",Saint Clair,MI,48079
"St Clair, MI",St Clair,MI,48079
"St Clair, MI",St Clair,MI,48080
"Troy , MI",Troy ,MI,48083
"Warren , MI",Warren ,MI,48092
"Imlay City, MI",Imlay City,MI,48094
"Washington Twp., MI",Washington Twp.,MI,48095
"Romeo , MI",Romeo ,MI,48095
"Washington , MI",Washington ,MI,48095
"Ann Arbor, MI",Ann Arbor,MI,48103
"Belleville , MI",Belleville ,MI,48111
"Brighton , MI",Brighton ,MI,48114
"Lansing , MI",Lansing ,MI,48116
"Monroe , MI",Monroe ,MI,48116
"Chelsea , MI",Chelsea ,MI,48118
"Dearborn , MI",Dearborn ,MI,48120
"Dexter , MI",Dexter ,MI,48130
"Dundee , MI",Dundee ,MI,48131
"Flat Rock, MI",Flat Rock,MI,48134
"Garden City, MI",Garden City,MI,48135
"Livonia , MI",Livonia ,MI,48150
"Milan , MI",Milan ,MI,48160
"New Hudson, MI",New Hudson,MI,48165
"Pinckney , MI",Pinckney ,MI,48169
"Plymouth , MI",Plymouth ,MI,48170
"Romulus , MI",Romulus ,MI,48174
"Saline , MI",Saline ,MI,48176
"Taylor , MI",Taylor ,MI,48180
"Temperance , MI",Temperance ,MI,48182
"Woodhaven , MI",Woodhaven ,MI,48183
"Wayne , MI",Wayne ,MI,48184
"Westland , MI",Westland ,MI,48185
"Canton , MI",Canton ,MI,48188
"Southgate , MI",Southgate ,MI,48195
"Ypsilanti , MI",Ypsilanti ,MI,48197
"Detroit , MI",Detroit ,MI,48202
"Highland Park, MI",Highland Park,MI,48203
"Frndale , MI",Frndale ,MI,48220
"Oak Park, MI",Oak Park,MI,48237
"Redford , MI",Redford ,MI,48239
"Bloomfield Hills, MI",Bloomfield Hills,MI,48301
"Bloomfiled Hills, MI",Bloomfiled Hills,MI,48302
"Rochester Hills, MI",Rochester Hills,MI,48307
"Sterling Heights, MI",Sterling Heights,MI,48310
"Sterling Hts, MI",Sterling Hts,MI,48312
"Utica , MI",Utica ,MI,48315
"Shelby Township, MI",Shelby Township,MI,48317
"West Bloomfield, MI",West Bloomfield,MI,48324
"Waterford , MI",Waterford ,MI,48327
"Farmington Hills, MI",Farmington Hills,MI,48335
"Novi , MI",Novi ,MI,48335
"Pontiac , MI",Pontiac ,MI,48341
"Clarkston , MI",Clarkston ,MI,48346
"Highland , MI",Highland ,MI,48356
"Lake Orion, MI",Lake Orion,MI,48359
"White Lake, MI",White Lake,MI,48383
"Commerce Township, MI",Commerce Township,MI,48390
"Commerce Twp, MI",Commerce Twp,MI,48390
"Commerce Twp., MI",Commerce Twp.,MI,48390
"Bad Axe, MI",Bad Axe,MI,48413
"Birch Run, MI",Birch Run,MI,48415
"Clio , MI",Clio ,MI,48420
"Davison , MI",Davison ,MI,48423
"Durand , MI",Durand ,MI,48429
"Fenton , MI",Fenton ,MI,48430
"Flushing , MI",Flushing ,MI,48433
"Grand Blanc, MI",Grand Blanc,MI,48439
"Holly , MI",Holly ,MI,48442
"Lapeer , MI",Lapeer ,MI,48446
"Marlette , MI",Marlette ,MI,48453
"Ortonville , MI",Ortonville ,MI,48462
"Sandusky , MI",Sandusky ,MI,48471
"Ubly , MI",Ubly ,MI,48475
"Flint , MI",Flint ,MI,48503
"Saginaw , MI",Saginaw ,MI,48603
"Standish , MI",Standish ,MI,48612
"Chesaning , MI",Chesaning ,MI,48616
"Clare , MI",Clare ,MI,48617
"Coleman , MI",Coleman ,MI,48618
"Freeland , MI",Freeland ,MI,48623
"Gladwin , MI",Gladwin ,MI,48624
"Hemlock , MI",Hemlock ,MI,48626
"Houghton Lake, MI",Houghton Lake,MI,48629
"Linwood , MI",Linwood ,MI,48634
"Midland , MI",Midland ,MI,48640
"Pinconning , MI",Pinconning ,MI,48650
"Roscommon , MI",Roscommon ,MI,48653
"Rose City, MI",Rose City,MI,48654
"West Branch, MI",West Branch,MI,48661
"Bay City, MI",Bay City,MI,48706
"Caro , MI",Caro ,MI,48723
"Cass City, MI",Cass City,MI,48726
"East Tawas, MI",East Tawas,MI,48730
"Frankenmuth , MI",Frankenmuth ,MI,48734
"Lincoln , MI",Lincoln ,MI,48742
"Millington , MI",Millington ,MI,48746
"Oscoda , MI",Oscoda ,MI,48750
"Pigeon , MI",Pigeon ,MI,48755
"Reese , MI",Reese ,MI,48757
"Tawas City, MI",Tawas City,MI,48763
"Tawas Cotu, MI",Tawas Cotu,MI,48763
"Vassar , MI",Vassar ,MI,48768
"Alma , MI",Alma ,MI,48801
"Okemos , MI",Okemos ,MI,48805
"Charlotte , MI",Charlotte ,MI,48813
"Corunna , MI",Corunna ,MI,48817
"Dewitt , MI",Dewitt ,MI,48820
"Eaton Rapids, MI",Eaton Rapids,MI,48827
"Fowlerville , MI",Fowlerville ,MI,48836
"Grand Ledge, MI",Grand Ledge,MI,48837
"Greenville , MI",Greenville ,MI,48838
"Howell , MI",Howell ,MI,48843
"Ionia , MI",Ionia ,MI,48846
"Ithaca , MI",Ithaca ,MI,48847
"Mason , MI",Mason ,MI,48854
"Mt Pleasant, MI",Mt Pleasant,MI,48858
"Mt.pleasant , MI",Mt.pleasant ,MI,48858
"Owosso , MI",Owosso ,MI,48867
"Perry , MI",Perry ,MI,48872
"Portland , MI",Portland ,MI,48875
"Saint Johns, MI",Saint Johns,MI,48879
"St Johns, MI",St Johns,MI,48879
"Stanton , MI",Stanton ,MI,48888
"Portage , MI",Portage ,MI,49002
"Kalamazoo , MI",Kalamazoo ,MI,49007
"Allegan , MI",Allegan ,MI,49010
"Battle Creek, MI",Battle Creek,MI,49015
"Springfield , MI",Springfield ,MI,49015
"Benton Harbor, MI",Benton Harbor,MI,49022
"Coldwater , MI",Coldwater ,MI,49036
"Delton , MI",Delton ,MI,49046
"Dowagiac , MI",Dowagiac ,MI,49047
"Galesburg , MI",Galesburg ,MI,49053
"Marshall , MI",Marshall ,MI,49068
"Paw Paw, MI",Paw Paw,MI,49079
"Plainwell , MI",Plainwell ,MI,49080
"Colon , MI",Colon ,MI,49083
"St Joseph, MI",St Joseph,MI,49085
"South Haven, MI",South Haven,MI,49090
"Sturgis , MI",Sturgis ,MI,49091
"Three Rivers, MI",Three Rivers,MI,49093
"Watervliet , MI",Watervliet ,MI,49098
"Berrien Springs, MI",Berrien Springs,MI,49103
"Bridgman , MI",Bridgman ,MI,49106
"Buchanan , MI",Buchanan ,MI,49107
"Niles , MI",Niles ,MI,49120
"Three Oaks, MI",Three Oaks,MI,49128
"Jackson , MI",Jackson ,MI,49201
"Adrian , MI",Adrian ,MI,49221
"Albion , MI",Albion ,MI,49224
"Blissfield , MI",Blissfield ,MI,49228
"Brooklyn , MI",Brooklyn ,MI,49230
"Clinton , MI",Clinton ,MI,49236
"Grass Lake, MI",Grass Lake,MI,49240
"Hillsdale , MI",Hillsdale ,MI,49242
"Hudson , MI",Hudson ,MI,49247
"Big Rapids, MI",Big Rapids,MI,49307
"Caledonia , MI",Caledonia ,MI,49316
"Cedar Springs, MI",Cedar Springs,MI,49319
"Comstock Park, MI",Comstock Park,MI,49321
"Kent City, MI",Kent City,MI,49330
"Lowell , MI",Lowell ,MI,49331
"Rockford , MI",Rockford ,MI,49341
"Sparta , MI",Sparta ,MI,49345
"Wayland , MI",Wayland ,MI,49348
"Coopersville , MI",Coopersville ,MI,49404
"Fremont , MI",Fremont ,MI,49412
"Grand Haven, MI",Grand Haven,MI,49417
"Grandville , MI",Grandville ,MI,49418
"Holland , MI",Holland ,MI,49423
"Hudsonville , MI",Hudsonville ,MI,49426
"Ludington , MI",Ludington ,MI,49431
"Montague , MI",Montague ,MI,49437
"Muskegon , MI",Muskegon ,MI,49441
"New Era, MI",New Era,MI,49446
"Whitehall , MI",Whitehall ,MI,49461
"Grand Rapids, MI",Grand Rapids,MI,49508
"Wyoming , MI",Wyoming ,MI,49509
"Kentwood , MI",Kentwood ,MI,49512
"Cadillac , MI",Cadillac ,MI,49601
"Benzonia , MI",Benzonia ,MI,49616
"Traverse City, MI",Traverse City,MI,49621
"Kalkaska , MI",Kalkaska ,MI,49646
"Lakecity , MI",Lakecity ,MI,49651
"Manistee , MI",Manistee ,MI,49660
"Reed City, MI",Reed City,MI,49677
"Alpena , MI",Alpena ,MI,49707
"Bayshore , MI",Bayshore ,MI,49711
"Boyne City, MI",Boyne City,MI,49712
"Charlevoix , MI",Charlevoix ,MI,49720
"Cheboygan , MI",Cheboygan ,MI,49721
"Gaylord , MI",Gaylord ,MI,49734
"Grayling , MI",Grayling ,MI,49738
"Petoskey , MI",Petoskey ,MI,49770
"Pickford , MI",Pickford ,MI,49774
"Rogers City, MI",Rogers City,MI,49779
"St Ignace, MI",St Ignace,MI,49781
"Sault Sainte, MI",Sault Sainte,MI,49783
"Sault Ste, MI",Sault Ste,MI,49783
"Sault Ste., MI",Sault Ste.,MI,49783
"Iron Mountain, MI",Iron Mountain,MI,49801
"Escanaba , MI",Escanaba ,MI,49829
"Manistique , MI",Manistique ,MI,49854
"Marquette , MI",Marquette ,MI,49855
"Negaunee , MI",Negaunee ,MI,49866
"Newberry , MI",Newberry ,MI,49868
"Norway , MI",Norway ,MI,49870
"Quinnesec , MI",Quinnesec ,MI,49876
"Calumet , MI",Calumet ,MI,49913
"Crystal Falls, MI",Crystal Falls,MI,49920
"Ewen , MI",Ewen ,MI,49925
"Hancock , MI",Hancock ,MI,49930
"Houghton , MI",Houghton ,MI,49931
"Iron River, MI",Iron River,MI,49935
"Ironwood , MI",Ironwood ,MI,49938
"Lanse , MI",Lanse ,MI,49946
"Adel , IA",Adel ,IA,50003
"Ames , IA",Ames ,IA,50010
"Ankeny , IA",Ankeny ,IA,50021
"Atlantic , IA",Atlantic ,IA,50022
"Audubon , IA",Audubon ,IA,50025
"Boone , IA",Boone ,IA,50036
"Coon Rapids, IA",Coon Rapids,IA,50058
"Granger , IA",Granger ,IA,50109
"Grimes , IA",Grimes ,IA,50111
"Grinnell , IA",Grinnell ,IA,50112
"Indianola , IA",Indianola ,IA,50125
"Iowa Falls, IA",Iowa Falls,IA,50126
"Johnston , IA",Johnston ,IA,50131
"Knoxville , IA",Knoxville ,IA,50138
"Marshalltown , IA",Marshalltown ,IA,50158
"Montezuma , IA",Montezuma ,IA,50171
"Nevada , IA",Nevada ,IA,50201
"Newton , IA",Newton ,IA,50208
"Norwalk , IA",Norwalk ,IA,50211
"Osceola , IA",Osceola ,IA,50213
"Pella , IA",Pella ,IA,50219
"Perry , IA",Perry ,IA,50220
"Story City, IA",Story City,IA,50248
"Union , IA",Union ,IA,50258
"Waukee , IA",Waukee ,IA,50263
"Des Moines, IA",Des Moines,IA,50310
"Urbandale , IA",Urbandale ,IA,50322
"Clive , IA",Clive ,IA,50325
"Pleasant Hill, IA",Pleasant Hill,IA,50327
"Mason City, IA",Mason City,IA,50401
"Belmond , IA",Belmond ,IA,50421
"Britt , IA",Britt ,IA,50423
"Clear Lake, IA",Clear Lake,IA,50428
"Forest City, IA",Forest City,IA,50436
"Garner , IA",Garner ,IA,50438
"Northwood , IA",Northwood ,IA,50459
"Osage , IA",Osage ,IA,50461
"Rockford , IA",Rockford ,IA,50468
"Fort Dodge, IA",Fort Dodge,IA,50501
"Algona , IA",Algona ,IA,50511
"Clarion , IA",Clarion ,IA,50525
"Humboldt , IA",Humboldt ,IA,50548
"Manson , IA",Manson ,IA,50563
"Pocahontas , IA",Pocahontas ,IA,50574
"Rockwell City, IA",Rockwell City,IA,50579
"Sac City, IA",Sac City,IA,50583
"Storm Lake, IA",Storm Lake,IA,50588
"Swea City, IA",Swea City,IA,50590
"Webster City, IA",Webster City,IA,50595
"West Bend, IA",West Bend,IA,50597
"Allison , IA",Allison ,IA,50602
"Cedar Falls, IA",Cedar Falls,IA,50613
"Charles City, IA",Charles City,IA,50616
"Grundy Center, IA",Grundy Center,IA,50638
"Hudson , IA",Hudson ,IA,50643
"Independence , IA",Independence ,IA,50644
"Jesup , IA",Jesup ,IA,50648
"Laporte City, IA",Laporte City,IA,50651
"New Hampton, IA",New Hampton,IA,50659
"Oelwein , IA",Oelwein ,IA,50662
"Shell Rock, IA",Shell Rock,IA,50670
"Waverly , IA",Waverly ,IA,50677
"Waterloo , IA",Waterloo ,IA,50701
"Creston , IA",Creston ,IA,50801
"Mount Ayr, IA",Mount Ayr,IA,50854
"Akron , IA",Akron ,IA,51001
"Cherokee , IA",Cherokee ,IA,51012
"Danbury , IA",Danbury ,IA,51019
"Hawarden , IA",Hawarden ,IA,51023
"Holstein , IA",Holstein ,IA,51025
"Le Mars, IA",Le Mars,IA,51031
"Lemars , IA",Lemars ,IA,51031
"Mapleton , IA",Mapleton ,IA,51034
"Orange City, IA",Orange City,IA,51041
"Sioux City, IA",Sioux City,IA,51101
"Sheldon , IA",Sheldon ,IA,51201
"Rock Rapids, IA",Rock Rapids,IA,51246
"Rock Valley, IA",Rock Valley,IA,51247
"Sibley , IA",Sibley ,IA,51249
"Sioux Center, IA",Sioux Center,IA,51250
"Spencer , IA",Spencer ,IA,51301
"Estherville , IA",Estherville ,IA,51334
"Spirit Lake, IA",Spirit Lake,IA,51360
"Carroll , IA",Carroll ,IA,51401
"Ida Grove, IA",Ida Grove,IA,51431
"Denison , IA",Denison ,IA,51442
"Lake City, IA",Lake City,IA,51449
"Manning , IA",Manning ,IA,51455
"Odebolt , IA",Odebolt ,IA,51458
"Council Bluffs, IA",Council Bluffs,IA,51501
"Avoca , IA",Avoca ,IA,51521
"Harlan , IA",Harlan ,IA,51537
"Missouri Valley, IA",Missouri Valley,IA,51555
"Oakland , IA",Oakland ,IA,51560
"Red Oak, IA",Red Oak,IA,51566
"Shenandoah , IA",Shenandoah ,IA,51601
"Clarinda , IA",Clarinda ,IA,51632
"Dubuque , IA",Dubuque ,IA,52001
"Bellevue , IA",Bellevue ,IA,52031
"Cascade , IA",Cascade ,IA,52033
"Dyersville , IA",Dyersville ,IA,52040
"Edgewood , IA",Edgewood ,IA,52042
"Elkader , IA",Elkader ,IA,52043
"Guttenberg , IA",Guttenberg ,IA,52052
"Manchester , IA",Manchester ,IA,52057
"Maquoketa , IA",Maquoketa ,IA,52060
"Strawberry Point, IA",Strawberry Point,IA,52076
"Decorah , IA",Decorah ,IA,52101
"Calmar , IA",Calmar ,IA,52132
"Cresco , IA",Cresco ,IA,52136
"Elgin , IA",Elgin ,IA,52141
"Monona , IA",Monona ,IA,52159
"Waukon , IA",Waukon ,IA,52172
"West Union, IA",West Union,IA,52175
"Belle Plaine, IA",Belle Plaine,IA,52208
"Blairstown , IA",Blairstown ,IA,52209
"Center Point, IA",Center Point,IA,52213
"Hiawatha , IA",Hiawatha ,IA,52233
"Iowa City, IA",Iowa City,IA,52240
"Marengo , IA",Marengo ,IA,52301
"Marion , IA",Marion ,IA,52302
"Monticello , IA",Monticello ,IA,52310
"Mount Vernon, IA",Mount Vernon,IA,52314
"Mt Vernon, IA",Mt Vernon,IA,52314
"Newhall , IA",Newhall ,IA,52315
"Toledo , IA",Toledo ,IA,52342
"Van Horne, IA",Van Horne,IA,52346
"Vinton , IA",Vinton ,IA,52349
"Washington , IA",Washington ,IA,52353
"West Branch, IA",West Branch,IA,52358
"Williamsburg , IA",Williamsburg ,IA,52361
"Cedar Rapids, IA",Cedar Rapids,IA,52402
"Ottumwa , IA",Ottumwa ,IA,52501
"Albia , IA",Albia ,IA,52531
"Bloomfield , IA",Bloomfield ,IA,52537
"Centerville , IA",Centerville ,IA,52544
"Fairfield , IA",Fairfield ,IA,52556
"Oskaloosa , IA",Oskaloosa ,IA,52577
"Sigourney , IA",Sigourney ,IA,52591
"Fort Madison, IA",Fort Madison,IA,52627
"Ft Madison, IA",Ft Madison,IA,52627
"Mount Pleasant, IA",Mount Pleasant,IA,52641
"Wapello , IA",Wapello ,IA,52653
"West Burlington, IA",West Burlington,IA,52655
"Bettendorf , IA",Bettendorf ,IA,52722
"Clinton , IA",Clinton ,IA,52732
"Columbus Junction, IA",Columbus Junction,IA,52738
"Dewitt , IA",Dewitt ,IA,52742
"Durant , IA",Durant ,IA,52747
"Muscatine , IA",Muscatine ,IA,52761
"Tipton , IA",Tipton ,IA,52772
"West Liberty, IA",West Liberty,IA,52776
"Davenport , IA",Davenport ,IA,52802
"Campbellsport , WI",Campbellsport ,WI,53010
"Cedarburg , WI",Cedarburg ,WI,53012
"Chilton , WI",Chilton ,WI,53014
"Hartford , WI",Hartford ,WI,53027
"Juneau , WI",Juneau ,WI,53039
"Kiel , WI",Kiel ,WI,53042
"Brookfield , WI",Brookfield ,WI,53045
"Lomira , WI",Lomira ,WI,53048
"Mayville , WI",Mayville ,WI,53050
"Menomonee Falls, WI",Menomonee Falls,WI,53051
"Mount Calvary, WI",Mount Calvary,WI,53057
"Newburg , WI",Newburg ,WI,53060
"Oconomowoc , WI",Oconomowoc ,WI,53066
"Plymouth , WI",Plymouth ,WI,53073
"Poer Washington, WI",Poer Washington,WI,53074
"Random Lake, WI",Random Lake,WI,53075
"St Cloud, WI",St Cloud,WI,53079
"Saukville , WI",Saukville ,WI,53080
"Sheboygan , WI",Sheboygan ,WI,53082
"Sheboygan Falls, WI",Sheboygan Falls,WI,53085
"Slinger , WI",Slinger ,WI,53086
"Mequon , WI",Mequon ,WI,53092
"Thiensville , WI",Thiensville ,WI,53092
"Watertown , WI",Watertown ,WI,53094
"West Bend, WI",West Bend,WI,53095
"Burlington , WI",Burlington ,WI,53105
"Cudahy , WI",Cudahy ,WI,53110
"Delavan , WI",Delavan ,WI,53115
"East Troy, WI",East Troy,WI,53120
"Elkhorn , WI",Elkhorn ,WI,53121
"Hales Corners, WI",Hales Corners,WI,53130
"Franklin , WI",Franklin ,WI,53132
"Kenosha , WI",Kenosha ,WI,53142
"Lake Geneva, WI",Lake Geneva,WI,53147
"Mukwonago , WI",Mukwonago ,WI,53149
"Muskego , WI",Muskego ,WI,53150
"Salem , WI",Salem ,WI,53168
"Union Grove, WI",Union Grove,WI,53182
"Waukesha , WI",Waukesha ,WI,53186
"Whitewater , WI",Whitewater ,WI,53190
"Glendale , WI",Glendale ,WI,53209
"Milwaukee , WI",Milwaukee ,WI,53209
"Greenfield , WI",Greenfield ,WI,53220
"Brown Deer, WI",Brown Deer,WI,53223
"Wauwatosa , WI",Wauwatosa ,WI,53226
"West Allis, WI",West Allis,WI,53227
"Racine , WI",Racine ,WI,53402
"Barneveld , WI",Barneveld ,WI,53507
"Belleville , WI",Belleville ,WI,53508
"Brodhead , WI",Brodhead ,WI,53520
"Clinton , WI",Clinton ,WI,53525
"Darlington , WI",Darlington ,WI,53530
"Dodgeville , WI",Dodgeville ,WI,53533
"Evansville , WI",Evansville ,WI,53536
"Fort Atkinson, WI",Fort Atkinson,WI,53538
"Highland , WI",Highland ,WI,53543
"Janesville , WI",Janesville ,WI,53545
"Jefferson , WI",Jefferson ,WI,53549
"Sauk City, WI",Sauk City,WI,53555
"Lodi , WI",Lodi ,WI,53555
"Beloit , WI",Beloit ,WI,53561
"Middleton , WI",Middleton ,WI,53562
"Monroe , WI",Monroe ,WI,53566
"Monticello , WI",Monticello ,WI,53570
"Mount Horeb, WI",Mount Horeb,WI,53572
"New Glarus, WI",New Glarus,WI,53574
"Orfordville , WI",Orfordville ,WI,53576
"Richland Center, WI",Richland Center,WI,53581
"Stoughton , WI",Stoughton ,WI,53589
"Stougthon , WI",Stougthon ,WI,53589
"Sun Prairie, WI",Sun Prairie,WI,53590
"Madison , WI",Madison ,WI,53701
"Boscobel , WI",Boscobel ,WI,53805
"Cuba City, WI",Cuba City,WI,53807
"Hazel Green, WI",Hazel Green,WI,53811
"Lancaster , WI",Lancaster ,WI,53813
"Platteville , WI",Platteville ,WI,53818
"Prairie Du, WI",Prairie Du,WI,53821
"Portage , WI",Portage ,WI,53901
"Adams , WI",Adams ,WI,53910
"Baraboo , WI",Baraboo ,WI,53913
"Beaver Dam, WI",Beaver Dam,WI,53916
"Columbus , WI",Columbus ,WI,53925
"Mauston , WI",Mauston ,WI,53948
"Montello , WI",Montello ,WI,53949
"New Lisbon, WI",New Lisbon,WI,53950
"Reedsburg , WI",Reedsburg ,WI,53959
"Waupun , WI",Waupun ,WI,53963
"Amery , WI",Amery ,WI,54001
"Baldwin , WI",Baldwin ,WI,54002
"Ellsworth , WI",Ellsworth ,WI,54011
"Hudson , WI",Hudson ,WI,54016
"New Richmond, WI",New Richmond,WI,54017
"Prescott , WI",Prescott ,WI,54021
"River Falls, WI",River Falls,WI,54022
"St Croix, WI",St Croix,WI,54024
"Abrams , WI",Abrams ,WI,54101
"Bonduel , WI",Bonduel ,WI,54107
"Brillion , WI",Brillion ,WI,54110
"Crivitz , WI",Crivitz ,WI,54114
"Florence , WI",Florence ,WI,54121
"Kaukauna , WI",Kaukauna ,WI,54130
"Marinette , WI",Marinette ,WI,54143
"Oconto , WI",Oconto ,WI,54153
"Oconto Falls, WI",Oconto Falls,WI,54154
"Pulaski , WI",Pulaski ,WI,54162
"Seymour , WI",Seymour ,WI,54165
"Shawano , WI",Shawano ,WI,54166
"Algoma , WI",Algoma ,WI,54201
"Kewaunee , WI",Kewaunee ,WI,54216
"Manitowoc , WI",Manitowoc ,WI,54220
"Sturgeon Bay, WI",Sturgeon Bay,WI,54235
"Two Rivers, WI",Two Rivers,WI,54241
"Green Bay, WI",Green Bay,WI,54301
"Wausau , WI",Wausau ,WI,54401
"Abbotsford , WI",Abbotsford ,WI,54405
"Antigo , WI",Antigo ,WI,54409
"Colby , WI",Colby ,WI,54421
"Loyal , WI",Loyal ,WI,54446
"Marathon , WI",Marathon ,WI,54448
"Marshfield , WI",Marshfield ,WI,54449
"Medford , WI",Medford ,WI,54451
"Merrill , WI",Merrill ,WI,54452
"Milladore , WI",Milladore ,WI,54454
"Neillsville , WI",Neillsville ,WI,54456
"Owen , WI",Owen ,WI,54460
"Plover , WI",Plover ,WI,54467
"Schofield , WI",Schofield ,WI,54476
"Spencer , WI",Spencer ,WI,54479
"Stevens Poing, WI",Stevens Poing,WI,54481
"Stevens Point, WI",Stevens Point,WI,54481
"Stratford , WI",Stratford ,WI,54484
"Tomahawk , WI",Tomahawk ,WI,54487
"Wisconsin Rapids, WI",Wisconsin Rapids,WI,54494
"Wittenberg , WI",Wittenberg ,WI,54499
"Rhinelander , WI",Rhinelander ,WI,54501
"Eagle River, WI",Eagle River,WI,54521
"Fifield , WI",Fifield ,WI,54522
"Minocqua , WI",Minocqua ,WI,54548
"Phillips , WI",Phillips ,WI,54555
"La Crosse, WI",La Crosse,WI,54601
"West Salem, WI",West Salem,WI,54601
"Lacrosse , WI",Lacrosse ,WI,54601
"Arcadia , WI",Arcadia ,WI,54612
"Black River, WI",Black River,WI,54615
"Fountain City, WI",Fountain City,WI,54629
"Onalaska , WI",Onalaska ,WI,54650
"Sparta , WI",Sparta ,WI,54656
"Tomah , WI",Tomah ,WI,54660
"Viroqua , WI",Viroqua ,WI,54665
"Eau Claire, WI",Eau Claire,WI,54701
"Bloomer , WI",Bloomer ,WI,54724
"Cadott , WI",Cadott ,WI,54727
"Chippewa Falls, WI",Chippewa Falls,WI,54729
"Colfax , WI",Colfax ,WI,54730
"Cornell , WI",Cornell ,WI,54732
"Durand , WI",Durand ,WI,54736
"Menomonie , WI",Menomonie ,WI,54751
"Osseo , WI",Osseo ,WI,54758
"Sand Creek, WI",Sand Creek,WI,54765
"Elmwood , WI",Elmwood ,WI,54767
"Thorp , WI",Thorp ,WI,54771
"Spooner , WI",Spooner ,WI,54801
"Ashland , WI",Ashland ,WI,54806
"Barron , WI",Barron ,WI,54812
"Cumberland , WI",Cumberland ,WI,54829
"Frederic , WI",Frederic ,WI,54837
"Grantsburg , WI",Grantsburg ,WI,54840
"Hayward , WI",Hayward ,WI,54843
"Ladysmith , WI",Ladysmith ,WI,54848
"Minong , WI",Minong ,WI,54859
"Rice Lake, WI",Rice Lake,WI,54868
"Superior , WI",Superior ,WI,54880
"Oshkosh , WI",Oshkosh ,WI,54901
"Neenah , WI",Neenah ,WI,54904
"Appleton , WI",Appleton ,WI,54912
"Grand Chute, WI",Grand Chute,WI,54914
"Berlin , WI",Berlin ,WI,54923
"Clintonville , WI",Clintonville ,WI,54929
"Coloma , WI",Coloma ,WI,54930
"Fond Du, WI",Fond Du,WI,54935
"Hortonville , WI",Hortonville ,WI,54944
"Manawa , WI",Manawa ,WI,54949
"New London, WI",New London,WI,54961
"Princeton , WI",Princeton ,WI,54968
"Ripon , WI",Ripon ,WI,54971
"Waupaca , WI",Waupaca ,WI,54981
"Wautoma/city , WI",Wautoma/city ,WI,54982
"Winneconne , WI",Winneconne ,WI,54986
"Cambridge , MN",Cambridge ,MN,55008
"Faribault , MN",Faribault ,MN,55021
"Forest Lake, MN",Forest Lake,MN,55025
"Hastings , MN",Hastings ,MN,55033
"Isanti , MN",Isanti ,MN,55040
"Lake City, MN",Lake City,MN,55041
"Lakeville , MN",Lakeville ,MN,55044
"Mora , MN",Mora ,MN,55051
"Morristown , MN",Morristown ,MN,55052
"North Branch, MN",North Branch,MN,55056
"Northfield , MN",Northfield ,MN,55057
"Owatonna , MN",Owatonna ,MN,55060
"Pine City, MN",Pine City,MN,55063
"Red Wing, MN",Red Wing,MN,55066
"Sandstone , MN",Sandstone ,MN,55072
"South St, MN",South St,MN,55075
"Inver Grove, MN",Inver Grove,MN,55077
"Inver Grove, MN",Inver Grove,MN,55077
"Invergrove Heights, MN",Invergrove Heights,MN,55077
"Stillwater , MN",Stillwater ,MN,55082
"Maplewood , MN",Maplewood ,MN,55109
"White Bear, MN",White Bear,MN,55110
"Vadnais Heights, MN",Vadnais Heights,MN,55110
"Saint Paul, MN",Saint Paul,MN,55110
"New Brighton, MN",New Brighton,MN,55112
"Roseville , MN",Roseville ,MN,55113
"Apple Valley, MN",Apple Valley,MN,55124
"Annandale , MN",Annandale ,MN,55302
"Anoka , MN",Anoka ,MN,55303
"Minnetonka , MN",Minnetonka ,MN,55305
"Burnsville , MN",Burnsville ,MN,55306
"Arlington , MN",Arlington ,MN,55307
"Buffalo , MN",Buffalo ,MN,55313
"Chaska , MN",Chaska ,MN,55318
"Cokato , MN",Cokato ,MN,55321
"Delano , MN",Delano ,MN,55328
"Elk River, MN",Elk River,MN,55330
"Glencoe , MN",Glencoe ,MN,55336
"Hector , MN",Hector ,MN,55342
"Hopkins , MN",Hopkins ,MN,55343
"Hopkinsa , MN",Hopkinsa ,MN,55343
"Eden Prairie, MN",Eden Prairie,MN,55344
"Hutchinson , MN",Hutchinson ,MN,55350
"Jordan , MN",Jordan ,MN,55352
"Kimball , MN",Kimball ,MN,55353
"Litchfield , MN",Litchfield ,MN,55355
"Monticello , MN",Monticello ,MN,55362
"Princeton , MN",Princeton ,MN,55371
"Rogers , MN",Rogers ,MN,55374
"St Bonifacius, MN",St Bonifacius,MN,55375
"Shakopee , MN",Shakopee ,MN,55379
"Waconia , MN",Waconia ,MN,55387
"Wayzata , MN",Wayzata ,MN,55391
"Minneapolis , MN",Minneapolis ,MN,55413
"Saint Louis, MN",Saint Louis,MN,55416
"Bloomington , MN",Bloomington ,MN,55420
"Richfield , MN",Richfield ,MN,55423
"St Louis, MN",St Louis,MN,55426
"Golden Valley, MN",Golden Valley,MN,55426
"Brooklyn Center, MN",Brooklyn Center,MN,55429
"Fridley , MN",Fridley ,MN,55432
"Coon Rapids, MN",Coon Rapids,MN,55433
"Blaine , MN",Blaine ,MN,55434
"Plymouth , MN",Plymouth ,MN,55442
"Brooklyn Park, MN",Brooklyn Park,MN,55443
"Grand Marais, MN",Grand Marais,MN,55604
"Two Harbors, MN",Two Harbors,MN,55616
"Askov , MN",Askov ,MN,55704
"Cloquet , MN",Cloquet ,MN,55720
"Scanlon , MN",Scanlon ,MN,55720
"Cook , MN",Cook ,MN,55723
"Ely , MN",Ely ,MN,55731
"Eveleth , MN",Eveleth ,MN,55734
"Grand Rapids, MN",Grand Rapids,MN,55744
"Hibbing , MN",Hibbing ,MN,55746
"Virginia , MN",Virginia ,MN,55792
"Duluth , MN",Duluth ,MN,55806
"Hermantown , MN",Hermantown ,MN,55811
"Rochester , MN",Rochester ,MN,55901
"Austin , MN",Austin ,MN,55912
"Blooming Prairie, MN",Blooming Prairie,MN,55917
"Caledonia , MN",Caledonia ,MN,55921
"Kenyon , MN",Kenyon ,MN,55946
"Lewiston , MN",Lewiston ,MN,55952
"Spring Valley, MN",Spring Valley,MN,55975
"Stewartville , MN",Stewartville ,MN,55976
"Wabasha , MN",Wabasha ,MN,55981
"Winona, Mn, MN","Winona, Mn",MN,55987
"Winona , MN",Winona ,MN,55987
"Zumbrota , MN",Zumbrota ,MN,55992
"Mankato , MN",Mankato ,MN,56001
"Albert Lea, MN",Albert Lea,MN,56007
"Belle Plaine, MN",Belle Plaine,MN,56011
"Fairmont , MN",Fairmont ,MN,56031
"Madelia , MN",Madelia ,MN,56062
"New Prague, MN",New Prague,MN,56071
"New Ulm, MN",New Ulm,MN,56073
"St Peter, MN",St Peter,MN,56082
"St. Peter, MN",St. Peter,MN,56082
"Springfield , MN",Springfield ,MN,56087
"Truman , MN",Truman ,MN,56088
"Waseca , MN",Waseca ,MN,56093
"Wells , MN",Wells ,MN,56097
"Windom , MN",Windom ,MN,56101
"Edgerton , MN",Edgerton ,MN,56128
"Jackson , MN",Jackson ,MN,56143
"Luverne , MN",Luverne ,MN,56156
"Mountain Lake, MN",Mountain Lake,MN,56159
"Pipestone , MN",Pipestone ,MN,56164
"Tracy , MN",Tracy ,MN,56175
"Tyler , MN",Tyler ,MN,56178
"Worthington , MN",Worthington ,MN,56187
"Willmar , MN",Willmar ,MN,56201
"Atwater , MN",Atwater ,MN,56209
"Benson , MN",Benson ,MN,56215
"Canby , MN",Canby ,MN,56220
"Dawson , MN",Dawson ,MN,56232
"Kerkhoven , MN",Kerkhoven ,MN,56252
"Marshall , MN",Marshall ,MN,56258
"Montevideo , MN",Montevideo ,MN,56265
"Morris , MN",Morris ,MN,56267
"Olivia , MN",Olivia ,MN,56277
"Redwood Falls, MN",Redwood Falls,MN,56283
"Renville , MN",Renville ,MN,56284
"Saint Cloud, MN",Saint Cloud,MN,56301
"St Cloud, MN",St Cloud,MN,56301
"St. Cloud, MN",St. Cloud,MN,56301
"Alexandria , MN",Alexandria ,MN,56308
"Cold Spring, MN",Cold Spring,MN,56320
"Foley , MN",Foley ,MN,56329
"Glenwood , MN",Glenwood ,MN,56334
"Little Falls, MN",Little Falls,MN,56345
"Long Prairie, MN",Long Prairie,MN,56347
"Albany , MN",Albany ,MN,56352
"Paynesville , MN",Paynesville ,MN,56362
"Sauk Centre, MN",Sauk Centre,MN,56378
"Waite Park, MN",Waite Park,MN,56387
"Brainerd , MN",Brainerd ,MN,56401
"Baxter , MN",Baxter ,MN,56425
"Aitkin , MN",Aitkin ,MN,56431
"Park Rapids, MN",Park Rapids,MN,56470
"Pine River, MN",Pine River,MN,56474
"Staples , MN",Staples ,MN,56479
"Walker , MN",Walker ,MN,56484
"Detroit Lakes, MN",Detroit Lakes,MN,56501
"Ada , MN",Ada ,MN,56510
"Fergus Falls, MN",Fergus Falls,MN,56537
"Fertile , MN",Fertile ,MN,56540
"Hawley , MN",Hawley ,MN,56549
"Moorhead , MN",Moorhead ,MN,56560
"Bemidji , MN",Bemidji ,MN,56601
"International Falls, MN",International Falls,MN,56649
"Thief River, MN",Thief River,MN,56701
"Crookston , MN",Crookston ,MN,56716
"Hallock , MN",Hallock ,MN,56728
"Oslo , MN",Oslo ,MN,56744
"Red Lake, MN",Red Lake,MN,56750
"Roseau , MN",Roseau ,MN,56751
"Warroad , MN",Warroad ,MN,56763
"Beresford , SD",Beresford ,SD,57004
"Brookings , SD",Brookings ,SD,57006
"Dell Rapids, SD",Dell Rapids,SD,57022
"Madison , SD",Madison ,SD,57042
"Parker , SD",Parker ,SD,57053
"Salem , SD",Salem ,SD,57058
"Tyndall , SD",Tyndall ,SD,57066
"Vermillion , SD",Vermillion ,SD,57069
"Worthing , SD",Worthing ,SD,57077
"Yankotn , SD",Yankotn ,SD,57078
"Yankton , SD",Yankton ,SD,57078
"Sioux Falls, SD",Sioux Falls,SD,57104
"Watertown , SD",Watertown ,SD,57201
"Clear Lake, SD",Clear Lake,SD,57226
"De Smet, SD",De Smet,SD,57231
"Milbank , SD",Milbank ,SD,57252
"Sisseton , SD",Sisseton ,SD,57262
"Webster , SD",Webster ,SD,57274
"Mitchell , SD",Mitchell ,SD,57301
"Chamberlain , SD",Chamberlain ,SD,57325
"Highmore , SD",Highmore ,SD,57345
"Huron , SD",Huron ,SD,57350
"Miller , SD",Miller ,SD,57362
"Platte , SD",Platte ,SD,57369
"Wessington Springs, SD",Wessington Springs,SD,57382
"Aberdeen , SD",Aberdeen ,SD,57401
"Bowdle , SD",Bowdle ,SD,57428
"Groton , SD",Groton ,SD,57445
"Grpton , SD",Grpton ,SD,57445
"Redfield , SD",Redfield ,SD,57469
"Pierre , SD",Pierre ,SD,57501
"Martin , SD",Martin ,SD,57551
"Onida , SD",Onida ,SD,57564
"Philip , SD",Philip ,SD,57567
"Winner , SD",Winner ,SD,57580
"Mobridge , SD",Mobridge ,SD,57601
"Rapid City, SD",Rapid City,SD,57701
"Belle Fourche, SD",Belle Fourche,SD,57717
"Spearfish , SD",Spearfish ,SD,57783
"Sturgis , SD",Sturgis ,SD,57785
"Lidgerwood , ND",Lidgerwood ,ND,58053
"Valley City, ND",Valley City,ND,58072
"Wahpeton , ND",Wahpeton ,ND,58074
"Fargo , ND",Fargo ,ND,58103
"Grand Forks, ND",Grand Forks,ND,58201
"Cavalier , ND",Cavalier ,ND,58220
"Finley , ND",Finley ,ND,58230
"Grafton , ND",Grafton ,ND,58237
"Hatton , ND",Hatton ,ND,58240
"Langdon , ND",Langdon ,ND,58249
"Walhalla , ND",Walhalla ,ND,58282
"Devils Lake, ND",Devils Lake,ND,58301
"Bottineau , ND",Bottineau ,ND,58318
"Harvey , ND",Harvey ,ND,58341
"Rolla , ND",Rolla ,ND,58367
"Rugby , ND",Rugby ,ND,58368
"Jamestown , ND",Jamestown ,ND,58401
"Carrington , ND",Carrington ,ND,58421
"Cooperstown , ND",Cooperstown ,ND,58425
"Wishek , ND",Wishek ,ND,58495
"Bismarck , ND",Bismarck ,ND,58502
"Mandan , ND",Mandan ,ND,58502
"Hazen , ND",Hazen ,ND,58545
"Dickinson , ND",Dickinson ,ND,58601
"Hettinger , ND",Hettinger ,ND,58639
"Killdeer , ND",Killdeer ,ND,58640
"Minot , ND",Minot ,ND,58701
"New Town, ND",New Town,ND,58763
"Williston , ND",Williston ,ND,58801
"Columbus , MT",Columbus ,MT,59019
"Hardin , MT",Hardin ,MT,59034
"Laurel , MT",Laurel ,MT,59044
"Livingston , MT",Livingston ,MT,59047
"Roundup , MT",Roundup ,MT,59072
"Billings , MT",Billings ,MT,59101
"Wolf Point, MT",Wolf Point,MT,59201
"Glasgow , MT",Glasgow ,MT,59230
"Scobey , MT",Scobey ,MT,59263
"Sidney , MT",Sidney ,MT,59270
"Miles City, MT",Miles City,MT,59301
"Forsyth , MT",Forsyth ,MT,59327
"Glendive , MT",Glendive ,MT,59330
"Great Falls, MT",Great Falls,MT,59401
"Choteau , MT",Choteau ,MT,59422
"Conrad , MT",Conrad ,MT,59425
"Cut Bank, MT",Cut Bank,MT,59427
"Fairfield , MT",Fairfield ,MT,59436
"Fort Benton, MT",Fort Benton,MT,59442
"Lewistown , MT",Lewistown ,MT,59457
"Havre , MT",Havre ,MT,59501
"Helena , MT",Helena ,MT,59601
"Butte , MT",Butte ,MT,59701
"Anaconda , MT",Anaconda ,MT,59711
"Bozeman , MT",Bozeman ,MT,59715
"Dillon , MT",Dillon ,MT,59725
"Manhattan , MT",Manhattan ,MT,59741
"Missoula , MT",Missoula ,MT,59801
"Hamilton , MT",Hamilton ,MT,59840
"Plains , MT",Plains ,MT,59859
"Ronan , MT",Ronan ,MT,59864
"Kalispell , MT",Kalispell ,MT,59901
"Libby , MT",Libby ,MT,59923
"Whitefish , MT",Whitefish ,MT,59937
"Fox Lake, IL",Fox Lake,IL,60002
"Antioch , IL",Antioch ,IL,60002
"Gurnee , IL",Gurnee ,IL,60002
"Arlington Heights, IL",Arlington Heights,IL,60004
"Elk Grove, IL",Elk Grove,IL,60007
"Barrington , IL",Barrington ,IL,60010
"Schaumburg , IL",Schaumburg ,IL,60010
"Crystal Lake, IL",Crystal Lake,IL,60012
"Des Plaines, IL",Des Plaines,IL,60016
"Glenview , IL",Glenview ,IL,60025
"Grayslake , IL",Grayslake ,IL,60030
"Harvard , IL",Harvard ,IL,60033
"Highland Park, IL",Highland Park,IL,60035
"Lake Bluff, IL",Lake Bluff,IL,60044
"Lake Villa, IL",Lake Villa,IL,60046
"Libertyville , IL",Libertyville ,IL,60048
"Mchenry , IL",Mchenry ,IL,60050
"Morton Grove, IL",Morton Grove,IL,60053
"Mount Prospect, IL",Mount Prospect,IL,60056
"Northbrook , IL",Northbrook ,IL,60062
"Park Ridge, IL",Park Ridge,IL,60068
"Palatine , IL",Palatine ,IL,60074
"Skokie , IL",Skokie ,IL,60076
"Wauconda , IL",Wauconda ,IL,60084
"Waukegan , IL",Waukegan ,IL,60085
"Buffalo Grove, IL",Buffalo Grove,IL,60089
"Wheeling , IL",Wheeling ,IL,60090
"Northfield , IL",Northfield ,IL,60093
"Woodstock , IL",Woodstock ,IL,60098
"Algonquin , IL",Algonquin ,IL,60102
"Bensenville , IL",Bensenville ,IL,60106
"Dekalb , IL",Dekalb ,IL,60115
"Sycamore , IL",Sycamore ,IL,60115
"East Dundee, IL",East Dundee,IL,60118
"Elburn , IL",Elburn ,IL,60119
"Hinckley , IL",Hinckley ,IL,60119
"Elgin , IL",Elgin ,IL,60120
"Elmhurst , IL",Elmhurst ,IL,60126
"Forest Park, IL",Forest Park,IL,60130
"Franklin Park, IL",Franklin Park,IL,60131
"Genoa , IL",Genoa ,IL,60135
"Glen Ellyn, IL",Glen Ellyn,IL,60137
"Glendale Heights, IL",Glendale Heights,IL,60139
"Hampshire , IL",Hampshire ,IL,60140
"Huntley , IL",Huntley ,IL,60142
"Lombard , IL",Lombard ,IL,60148
"Melrose Park, IL",Melrose Park,IL,60160
"Northlake , IL",Northlake ,IL,60164
"Hoffman Estates, IL",Hoffman Estates,IL,60169
"Roselle , IL",Roselle ,IL,60172
"Schaubmurg , IL",Schaubmurg ,IL,60173
"Saint Charles, IL",Saint Charles,IL,60174
"St Charles, IL",St Charles,IL,60174
"St. Charles, IL",St. Charles,IL,60174
"Villa Park, IL",Villa Park,IL,60181
"West Chicago, IL",West Chicago,IL,60185
"Wheaton , IL",Wheaton ,IL,60187
"Carol Stream, IL",Carol Stream,IL,60188
"Evanston , IL",Evanston ,IL,60202
"Oak Park, IL",Oak Park,IL,60304
"Beecher , IL",Beecher ,IL,60401
"Shorewood , IL",Shorewood ,IL,60404
"Blue Island, IL",Blue Island,IL,60406
"Calumet City, IL",Calumet City,IL,60409
"Coal City, IL",Coal City,IL,60416
"Dwight , IL",Dwight ,IL,60420
"Frankfort , IL",Frankfort ,IL,60423
"Gardner , IL",Gardner ,IL,60424
"Homewood , IL",Homewood ,IL,60430
"Joliet , IL",Joliet ,IL,60435
"Lansing , IL",Lansing ,IL,60438
"Bolingbrook , IL",Bolingbrook ,IL,60440
"Matteson , IL",Matteson ,IL,60443
"Mattseon , IL",Mattseon ,IL,60443
"Midlothian , IL",Midlothian ,IL,60445
"Naperville , IL",Naperville ,IL,60448
"Monee , IL",Monee ,IL,60449
"Orland Park, IL",Orland Park,IL,60451
"Oak Forest, IL",Oak Forest,IL,60452
"Oak Lawm, IL",Oak Lawm,IL,60453
"Oak Lawn, IL",Oak Lawn,IL,60453
"Bridgeview , IL",Bridgeview ,IL,60455
"Morris , IL",Morris ,IL,60455
"Peotone , IL",Peotone ,IL,60468
"South Holland, IL",South Holland,IL,60473
"Tinley Park, IL",Tinley Park,IL,60477
"Wilmington , IL",Wilmington ,IL,60481
"Aurora , IL",Aurora ,IL,60503
"Batavia , IL",Batavia ,IL,60510
"Downers Grove, IL",Downers Grove,IL,60515
"La Grange, IL",La Grange,IL,60525
"Countryside , IL",Countryside ,IL,60525
"Hodgkins , IL",Hodgkins ,IL,60525
"Willowbrook , IL",Willowbrook ,IL,60527
"Lisle , IL",Lisle ,IL,60532
"Lyons , IL",Lyons ,IL,60534
"North Aurora, IL",North Aurora,IL,60542
"Oswego , IL",Oswego ,IL,60543
"Plainfield , IL",Plainfield ,IL,60544
"Plano, Il., IL","Plano, Il.",IL,60545
"North Riverside, IL",North Riverside,IL,60546
"Sandwich , IL",Sandwich ,IL,60548
"Westmont , IL",Westmont ,IL,60559
"Chicago , IL",Chicago ,IL,60610
"Lincolnwood , IL",Lincolnwood ,IL,60712
"Niles , IL",Niles ,IL,60714
"Kankakee , IL",Kankakee ,IL,60901
"Bourbonnais , IL",Bourbonnais ,IL,60914
"Bradley , IL",Bradley ,IL,60915
"Gibson City, IL",Gibson City,IL,60936
"Herscher , IL",Herscher ,IL,60941
"Hoopeston , IL",Hoopeston ,IL,60942
"Manteno , IL",Manteno ,IL,60950
"Momence , IL",Momence ,IL,60954
"Paxton , IL",Paxton ,IL,60957
"Watseka , IL",Watseka ,IL,60970
"Belvidere , IL",Belvidere ,IL,61008
"Dixon , IL",Dixon ,IL,61021
"Durand , IL",Durand ,IL,61024
"East Dubuque, IL",East Dubuque,IL,61025
"Elizabeth , IL",Elizabeth ,IL,61028
"Freeport , IL",Freeport ,IL,61032
"Mount Carroll, IL",Mount Carroll,IL,61053
"Oregon , IL",Oregon ,IL,61061
"Rochelle , IL",Rochelle ,IL,61068
"Savanna , IL",Savanna ,IL,61074
"Sterling , IL",Sterling ,IL,61081
"Stockton , IL",Stockton ,IL,61085
"Rockford , IL",Rockford ,IL,61107
"Loves Park, IL",Loves Park,IL,61111
"Rock Island, IL",Rock Island,IL,61201
"Aledo , IL",Aledo ,IL,61231
"East Moline, IL",East Moline,IL,61244
"Geneseo , IL",Geneseo ,IL,61254
"Mian , IL",Mian ,IL,61264
"Moline , IL",Moline ,IL,61265
"Morrison , IL",Morrison ,IL,61270
"Granville , IL",Granville ,IL,61326
"Mendota , IL",Mendota ,IL,61342
"Ottawa , IL",Ottawa ,IL,61350
"Peru , IL",Peru ,IL,61354
"Princeton , IL",Princeton ,IL,61356
"Spring Valley, IL",Spring Valley,IL,61362
"Streator , IL",Streator ,IL,61364
"Sublette , IL",Sublette ,IL,61367
"Galesburg , IL",Galesburg ,IL,61401
"Galva , IL",Galva ,IL,61434
"Kewanee , IL",Kewanee ,IL,61443
"Macomb , IL",Macomb ,IL,61455
"Monmouth , IL",Monmouth ,IL,61462
"Williamsfield , IL",Williamsfield ,IL,61489
"Canton , IL",Canton ,IL,61520
"Chillicothe , IL",Chillicothe ,IL,61523
"Eureka , IL",Eureka ,IL,61530
"Henry , IL",Henry ,IL,61537
"Morton , IL",Morton ,IL,61550
"North Pekin, IL",North Pekin,IL,61554
"Pekin , IL",Pekin ,IL,61554
"Roanoke , IL",Roanoke ,IL,61561
"Washburn , IL",Washburn ,IL,61570
"Peoria , IL",Peoria ,IL,61604
"East Peoria, IL",East Peoria,IL,61611
"Bloomington , IL",Bloomington ,IL,61701
"Chenoa , IL",Chenoa ,IL,61726
"Clinton , IL",Clinton ,IL,61727
"Delavan , IL",Delavan ,IL,61734
"El Paso, IL",El Paso,IL,61738
"Fairbruy , IL",Fairbruy ,IL,61739
"Fairbury , IL",Fairbury ,IL,61739
"Lexington , IL",Lexington ,IL,61753
"Normal , IL",Normal ,IL,61761
"Pontiac , IL",Pontiac ,IL,61764
"Urbana , IL",Urbana ,IL,61801
"Champaign , IL",Champaign ,IL,61820
"Danville , IL",Danville ,IL,61832
"Tilton , IL",Tilton ,IL,61833
"Monticello , IL",Monticello ,IL,61856
"Rantoul , IL",Rantoul ,IL,61866
"Savoy , IL",Savoy ,IL,61874
"Charleston , IL",Charleston ,IL,61920
"Chrisman , IL",Chrisman ,IL,61924
"Mattoon , IL",Mattoon ,IL,61938
"Paris , IL",Paris ,IL,61944
"Sullivan , IL",Sullivan ,IL,61951
"Tuscola , IL",Tuscola ,IL,61953
"Alton , IL",Alton ,IL,62002
"Carrollton , IL",Carrollton ,IL,62016
"Edwardsville , IL",Edwardsville ,IL,62025
"Gillespie , IL",Gillespie ,IL,62033
"Glen Carbom, IL",Glen Carbom,IL,62034
"Granite City, IL",Granite City,IL,62040
"Hardin , IL",Hardin ,IL,62047
"Hillsboro , IL",Hillsboro ,IL,62049
"Jerseyville , IL",Jerseyville ,IL,62052
"Litchfield , IL",Litchfield ,IL,62056
"Staunton , IL",Staunton ,IL,62088
"Wood River, IL",Wood River,IL,62095
"Cahokia , IL",Cahokia ,IL,62206
"Fairview Heights, IL",Fairview Heights,IL,62208
"Belleville , IL",Belleville ,IL,62220
"Breese , IL",Breese ,IL,62230
"Carlyle , IL",Carlyle ,IL,62231
"Chester , IL",Chester ,IL,62233
"Collinsville , IL",Collinsville ,IL,62234
"Columbia , IL",Columbia ,IL,62236
"Germantown , IL",Germantown ,IL,62245
"Highland , IL",Highland ,IL,62249
"Marissa , IL",Marissa ,IL,62257
"Mascoutah , IL",Mascoutah ,IL,62258
"Millstadt , IL",Millstadt ,IL,62260
"Nashville , IL",Nashville ,IL,62263
"New Baden, IL",New Baden,IL,62265
"Ofallon , IL",Ofallon ,IL,62269
"O'fallon , IL",O'fallon ,IL,62269
"Okawville , IL",Okawville ,IL,62271
"Red Bud, IL",Red Bud,IL,62278
"Ruma , IL",Ruma ,IL,62278
"Saint Libory, IL",Saint Libory,IL,62282
"Sparta , IL",Sparta ,IL,62286
"Trenton , IL",Trenton ,IL,62293
"Waterloo , IL",Waterloo ,IL,62298
"Quincy , IL",Quincy ,IL,62301
"Pittsfield , IL",Pittsfield ,IL,62312
"Carthage , IL",Carthage ,IL,62321
"Effingham , IL",Effingham ,IL,62401
"Vandalia , IL",Vandalia ,IL,62418
"Casey , IL",Casey ,IL,62420
"Lawrenceville , IL",Lawrenceville ,IL,62439
"Newton , IL",Newton ,IL,62448
"Olney , IL",Olney ,IL,62450
"Robinson , IL",Robinson ,IL,62454
"Decatur , IL",Decatur ,IL,62521
"Forsyth , IL",Forsyth ,IL,62535
"Pana , IL",Pana ,IL,62557
"Shelbyville , IL",Shelbyville ,IL,62565
"Taylorville , IL",Taylorville ,IL,62568
"Carlinville , IL",Carlinville ,IL,62626
"Havana , IL",Havana ,IL,62644
"Jacksonville , IL",Jacksonville ,IL,62650
"Lincoln , IL",Lincoln ,IL,62656
"Mason City, IL",Mason City,IL,62664
"Palmyra , IL",Palmyra ,IL,62674
"Virden , IL",Virden ,IL,62690
"Winchester , IL",Winchester ,IL,62694
"Springfield , IL",Springfield ,IL,62791
"Centralia , IL",Centralia ,IL,62801
"Benton , IL",Benton ,IL,62812
"Carmi , IL",Carmi ,IL,62821
"Duquoin , IL",Duquoin ,IL,62832
"Fairfield , IL",Fairfield ,IL,62837
"Farina , IL",Farina ,IL,62838
"Mcleansboro , IL",Mcleansboro ,IL,62859
"Mt Carmel, IL",Mt Carmel,IL,62863
"Mt. Carmel, IL",Mt. Carmel,IL,62863
"Mount Vernon, IL",Mount Vernon,IL,62864
"Salem , IL",Salem ,IL,62881
"West Frankfort, IL",West Frankfort,IL,62896
"Carbondale , IL",Carbondale ,IL,62901
"Anna , IL",Anna ,IL,62906
"Cairo , IL",Cairo ,IL,62914
"Harrisburg , IL",Harrisburg ,IL,62946
"Herrin , IL",Herrin ,IL,62948
"Marion , IL",Marion ,IL,62959
"Metropolis , IL",Metropolis ,IL,62960
"Ullin , IL",Ullin ,IL,62992
"Vienna , IL",Vienna ,IL,62995
"Chesterfield , MO",Chesterfield ,MO,63005
"Arnold , MO",Arnold ,MO,63010
"Ballwin , MO",Ballwin ,MO,63011
"Ellisville , MO",Ellisville ,MO,63011
"Manchester , MO",Manchester ,MO,63011
"Desoto , MO",Desoto ,MO,63020
"Eureka , MO",Eureka ,MO,63025
"Fenton , MO",Fenton ,MO,63026
"Festus , MO",Festus ,MO,63028
"Florissant , MO",Florissant ,MO,63031
"Hazelwood , MO",Hazelwood ,MO,63042
"Bridgeton , MO",Bridgeton ,MO,63044
"Herculaneum , MO",Herculaneum ,MO,63048
"Pacific , MO",Pacific ,MO,63069
"Sullivan , MO",Sullivan ,MO,63080
"Union , MO",Union ,MO,63084
"Washington , MO",Washington ,MO,63090
"St. Louis, IL",St. Louis,IL,63104
"St Louis, MO",St Louis,MO,63109
"Webster Groves, MO",Webster Groves,MO,63119
"Clayton , MO",Clayton ,MO,63119
"Glendale , MO",Glendale ,MO,63122
"Kirkwood , MO",Kirkwood ,MO,63122
"St. Louis, MO",St. Louis,MO,63123
"Saint Louis, MO",Saint Louis,MO,63128
"Creve Coeur, MO",Creve Coeur,MO,63141
"St Charles, MO",St Charles,MO,63301
"Bowling Green, MO",Bowling Green,MO,63334
"Moscow Mills, MO",Moscow Mills,MO,63362
"O'fallon , MO",O'fallon ,MO,63366
"Ofallon , MO",Ofallon ,MO,63368
"St Peters, MO",St Peters,MO,63376
"St. Peters, MO",St. Peters,MO,63376
"Troy , MO",Troy ,MO,63379
"Warrenton , MO",Warrenton ,MO,63383
"Wentzville , MO",Wentzville ,MO,63385
"Hannibal , MO",Hannibal ,MO,63401
"Kahoka , MO",Kahoka ,MO,63445
"Palmyra , MO",Palmyra ,MO,63461
"Kirksville , MO",Kirksville ,MO,63501
"Park Hills, MO",Park Hills,MO,63601
"Farmington , MO",Farmington ,MO,63640
"Fredericktown , MO",Fredericktown ,MO,63645
"Ste Genevieve, MO",Ste Genevieve,MO,63670
"Ste. Genevieve, MO",Ste. Genevieve,MO,63670
"Cape Girardeau, MO",Cape Girardeau,MO,63701
"Jackson , MO",Jackson ,MO,63755
"Marble Hill, MO",Marble Hill,MO,63764
"Perryville , MO",Perryville ,MO,63775
"Sikeston , MO",Sikeston ,MO,63801
"Dexter , MO",Dexter ,MO,63841
"Kennett , MO",Kennett ,MO,63857
"Malden , MO",Malden ,MO,63863
"New Madrid, MO",New Madrid,MO,63869
"Portageville , MO",Portageville ,MO,63873
"Poplar Bluff, MO",Poplar Bluff,MO,63901
"Doniphan , MO",Doniphan ,MO,63935
"Belton , MO",Belton ,MO,64012
"Blue Springs, MO",Blue Springs,MO,64014
"Buckner , MO",Buckner ,MO,64016
"Concordia , MO",Concordia ,MO,64020
"Excelsior Springs, MO",Excelsior Springs,MO,64024
"Higginsville , MO",Higginsville ,MO,64037
"Independence , MO",Independence ,MO,64055
"Lees Summit, MO",Lees Summit,MO,64063
"Lee's Summit, MO",Lee's Summit,MO,64063
"Liberty , MO",Liberty ,MO,64068
"Odessa , MO",Odessa ,MO,64076
"Richmond , MO",Richmond ,MO,64085
"Smithville , MO",Smithville ,MO,64089
"Warrensburg , MO",Warrensburg ,MO,64093
"Kansas City, MO",Kansas City,MO,64114
"North Kansas, MO",North Kansas,MO,64116
"Gladstone , MO",Gladstone ,MO,64118
"Raytown , MO",Raytown ,MO,64133
"Bethany , MO",Bethany ,MO,64424
"Cameron , MO",Cameron ,MO,64429
"Maryville , MO",Maryville ,MO,64468
"Maysville , MO",Maysville ,MO,64469
"Mound City, MO",Mound City,MO,64470
"Savannah , MO",Savannah ,MO,64485
"St Joseph, MO",St Joseph,MO,64503
"Saint Joseph, MO",Saint Joseph,MO,64506
"St. Joseph, MO",St. Joseph,MO,64507
"Chillicothe , MO",Chillicothe ,MO,64601
"Brookfield , MO",Brookfield ,MO,64628
"Marceline , MO",Marceline ,MO,64658
"Trenton , MO",Trenton ,MO,64683
"Harrisonville , MO",Harrisonville ,MO,64701
"Appleton City, MO",Appleton City,MO,64724
"Butler , MO",Butler ,MO,64730
"Clinton , MO",Clinton ,MO,64735
"El Dorado, MO",El Dorado,MO,64744
"Nevada , MO",Nevada ,MO,64772
"Joplin , MO",Joplin ,MO,64801
"Carthage , MO",Carthage ,MO,64836
"Neosho , MO",Neosho ,MO,64850
"Pineville , MO",Pineville ,MO,64856
"California , MO",California ,MO,65018
"Camdenton , MO",Camdenton ,MO,65020
"Freeburg , MO",Freeburg ,MO,65035
"Hermann , MO",Hermann ,MO,65041
"Boonville , MO",Boonville ,MO,65051
"Linn , MO",Linn ,MO,65051
"Tipton , MO",Tipton ,MO,65081
"Versailles , MO",Versailles ,MO,65084
"Jefferson City, MO",Jefferson City,MO,65101
"Columbia , MO",Columbia ,MO,65202
"Coumbia , MO",Coumbia ,MO,65202
"Cenralia , MO",Cenralia ,MO,65240
"Fulton , MO",Fulton ,MO,65251
"Mexico , MO",Mexico ,MO,65265
"Moberly , MO",Moberly ,MO,65270
"Sedalia , MO",Sedalia ,MO,65301
"Marshall , MO",Marshall ,MO,65340
"Warsaw , MO",Warsaw ,MO,65355
"Rolla , MO",Rolla ,MO,65401
"Houston , MO",Houston ,MO,65483
"Lebanon , MO",Lebanon ,MO,65536
"Licking , MO",Licking ,MO,65542
"St James, MO",St James,MO,65559
"Vienna , MO",Vienna ,MO,65582
"Waynesville , MO",Waynesville ,MO,65583
"Saint Robert, MO",Saint Robert,MO,65584
"St Robert, MO",St Robert,MO,65584
"Auroa , MO",Auroa ,MO,65605
"Aurora , MO",Aurora ,MO,65605
"Bolivar , MO",Bolivar ,MO,65613
"Branson , MO",Branson ,MO,65616
"Cassville , MO",Cassville ,MO,65625
"Crane , MO",Crane ,MO,65633
"Marshfield , MO",Marshfield ,MO,65706
"Mountain Grove, MO",Mountain Grove,MO,65711
"Ozark , MO",Ozark ,MO,65721
"Republic , MO",Republic ,MO,65738
"Urbana , MO",Urbana ,MO,65767
"West Plains, MO",West Plains,MO,65775
"Thayer , MO",Thayer ,MO,65791
"Willow Springs, MO",Willow Springs,MO,65793
"Springfield , MO",Springfield ,MO,65802
"Atchison , KS",Atchison ,KS,66002
"Bonner Springs, KS",Bonner Springs,KS,66012
"Garnett , KS",Garnett ,KS,66032
"Lansing , KS",Lansing ,KS,66043
"Lawrence , KS",Lawrence ,KS,66046
"Leavenworth , KS",Leavenworth ,KS,66048
"Louisburg , KS",Louisburg ,KS,66053
"Olathe , KS",Olathe ,KS,66061
"Ottawa , KS",Ottawa ,KS,66067
"Paola , KS",Paola ,KS,66071
"Pleasanton , KS",Pleasanton ,KS,66075
"Kansas City, KS",Kansas City,KS,66102
"Overland Park, KS",Overland Park,KS,66202
"Merriam , KS",Merriam ,KS,66202
"Mission , KS",Mission ,KS,66202
"Shawnee , KS",Shawnee ,KS,66203
"Leawood , KS",Leawood ,KS,66211
"Holton , KS",Holton ,KS,66436
"Junction City, KS",Junction City,KS,66441
"Manhattan , KS",Manhattan ,KS,66502
"Marysville , KS",Marysville ,KS,66508
"Osage City, KS",Osage City,KS,66523
"Sabetha , KS",Sabetha ,KS,66534
"Seneca , KS",Seneca ,KS,66538
"Wamego , KS",Wamego ,KS,66547
"Topeka , KS",Topeka ,KS,66604
"Fort Scott, KS",Fort Scott,KS,66701
"Chanute , KS",Chanute ,KS,66720
"Columbus , KS",Columbus ,KS,66725
"Iola , KS",Iola ,KS,66749
"Pittsburg , KS",Pittsburg ,KS,66762
"Emporia , KS",Emporia ,KS,66801
"Burlington , KS",Burlington ,KS,66839
"Council Grove, KS",Council Grove,KS,66846
"Concordia , KS",Concordia ,KS,66901
"Belleville , KS",Belleville ,KS,66935
"Arkansas City, KS",Arkansas City,KS,67005
"Augusta , KS",Augusta ,KS,67010
"Cheney , KS",Cheney ,KS,67025
"El Dorado, KS",El Dorado,KS,67042
"Greensburg , KS",Greensburg ,KS,67054
"Harper , KS",Harper ,KS,67058
"Hillsboro , KS",Hillsboro ,KS,67063
"Kingman , KS",Kingman ,KS,67068
"Kiowa , KS",Kiowa ,KS,67070
"Mulvane , KS",Mulvane ,KS,67110
"Newton , KS",Newton ,KS,67114
"Pratt , KS",Pratt ,KS,67124
"Wellington , KS",Wellington ,KS,67152
"Winfield , KS",Winfield ,KS,67156
"Wichita , KS",Wichita ,KS,67206
"Independence , KS",Independence ,KS,67301
"Coffeyville , KS",Coffeyville ,KS,67337
"Parsons , KS",Parsons ,KS,67357
"Salina , KS",Salina ,KS,67401
"Abilene , KS",Abilene ,KS,67410
"Beloit , KS",Beloit ,KS,67420
"Clay Center, KS",Clay Center,KS,67432
"Mcpherson , KS",Mcpherson ,KS,67460
"Osborne , KS",Osborne ,KS,67473
"Hutchinson , KS",Hutchinson ,KS,67502
"Great Bend, KS",Great Bend,KS,67530
"Haven , KS",Haven ,KS,67543
"Hoisington , KS",Hoisington ,KS,67544
"Larned , KS",Larned ,KS,67550
"Lyons , KS",Lyons ,KS,67554
"Hays , KS",Hays ,KS,67601
"Phillipsburg , KS",Phillipsburg ,KS,67661
"Colby , KS",Colby ,KS,67701
"Goodland , KS",Goodland ,KS,67735
"Oakley , KS",Oakley ,KS,67748
"Dodge City, KS",Dodge City,KS,67801
"Garden City, KS",Garden City,KS,67846
"Meade , KS",Meade ,KS,67864
"Scott City, KS",Scott City,KS,67871
"Ulysses , KS",Ulysses ,KS,67880
"Liberal , KS",Liberal ,KS,67901
"Hugoton , KS",Hugoton ,KS,67951
"Ashland , NE",Ashland ,NE,68003
"Bellevue , NE",Bellevue ,NE,68005
"Blair , NE",Blair ,NE,68008
"Elkhorn , NE",Elkhorn ,NE,68022
"Fremont , NE",Fremont ,NE,68025
"Louisville , NE",Louisville ,NE,68037
"Pender , NE",Pender ,NE,68047
"Plattsmouth , NE",Plattsmouth ,NE,68048
"Tekamah , NE",Tekamah ,NE,68061
"Wahoo , NE",Wahoo ,NE,68066
"Omaha , NE",Omaha ,NE,68114
"La Vista, NE",La Vista,NE,68128
"Lavista , NE",Lavista ,NE,68128
"Omha , NE",Omha ,NE,68154
"Auburn , NE",Auburn ,NE,68305
"Beatrice , NE",Beatrice ,NE,68310
"Crete , NE",Crete ,NE,68333
"Exeter , NE",Exeter ,NE,68351
"Fairbury , NE",Fairbury ,NE,68352
"Falls City, NE",Falls City,NE,68355
"Nebraska City, NE",Nebraska City,NE,68410
"Seward , NE",Seward ,NE,68434
"Tecumseh , NE",Tecumseh ,NE,68450
"York , NE",York ,NE,68467
"Lincoln , NE",Lincoln ,NE,68501
"Columbus , NE",Columbus ,NE,68601
"Howells , NE",Howells ,NE,68641
"Osceola , NE",Osceola ,NE,68651
"Schuyler , NE",Schuyler ,NE,68661
"Norfolk , NE",Norfolk ,NE,68701
"Madison , NE",Madison ,NE,68748
"Neligh , NE",Neligh ,NE,68756
"Niobrara , NE",Niobrara ,NE,68760
"Oneill , NE",Oneill ,NE,68763
"Plainview , NE",Plainview ,NE,68769
"Wayne , NE",Wayne ,NE,68787
"West Point, NE",West Point,NE,68788
"Grand Island, NE",Grand Island,NE,68801
"Aurora , NE",Aurora ,NE,68818
"Broken Bow, NE",Broken Bow,NE,68822
"Central City, NE",Central City,NE,68826
"Kearney , NE",Kearney ,NE,68847
"Lexington , NE",Lexington ,NE,68850
"Hastings , NE",Hastings ,NE,68901
"Alma , NE",Alma ,NE,68920
"Holdrege , NE",Holdrege ,NE,68949
"Kenesaw , NE",Kenesaw ,NE,68956
"Minden , NE",Minden ,NE,68959
"Sutton , NE",Sutton ,NE,68979
"Mccooj , NE",Mccooj ,NE,69001
"Mccook , NE",Mccook ,NE,69001
"Cambridge , NE",Cambridge ,NE,69022
"Imperial , NE",Imperial ,NE,69033
"Wauneta , NE",Wauneta ,NE,69045
"North Platte, NE",North Platte,NE,69101
"Gothenburg , NE",Gothenburg ,NE,69138
"Kimball , NE",Kimball ,NE,69145
"Ogallala , NE",Ogallala ,NE,69153
"Ainsworth , NE",Ainsworth ,NE,69210
"Alliance , NE",Alliance ,NE,69301
"Chadron , NE",Chadron ,NE,69337
"Morrill , NE",Morrill ,NE,69358
"Rushville , NE",Rushville ,NE,69360
"Scottsbluff , NE",Scottsbluff ,NE,69361
"Metairie , LA",Metairie ,LA,70001
"Harvey , LA",Harvey ,LA,70058
"Kenner , LA",Kenner ,LA,70062
"La Place, LA",La Place,LA,70068
"Laplace , LA",Laplace ,LA,70068
"Vacherie , LA",Vacherie ,LA,70090
"New Orleans, LA",New Orleans,LA,70119
"Harahan , LA",Harahan ,LA,70123
"Thibodaux , LA",Thibodaux ,LA,70302
"Berwick , LA",Berwick ,LA,70342
"Cut Off, LA",Cut Off,LA,70345
"Houma , LA",Houma ,LA,70360
"Morgan City, LA",Morgan City,LA,70380
"Napoleonville , LA",Napoleonville ,LA,70390
"Hammond , LA",Hammond ,LA,70401
"Amite , LA",Amite ,LA,70422
"Covington , LA",Covington ,LA,70433
"Kentwood , LA",Kentwood ,LA,70444
"Ponchatoula , LA",Ponchatoula ,LA,70454
"Slidell , LA",Slidell ,LA,70458
"Mandeville , LA",Mandeville ,LA,70471
"Lafayette , LA",Lafayette ,LA,70503
"Abbeville , LA",Abbeville ,LA,70510
"Breaux Bridge, LA",Breaux Bridge,LA,70517
"Crowley , LA",Crowley ,LA,70526
"Eunice , LA",Eunice ,LA,70535
"Franklin , LA",Franklin ,LA,70538
"Jeanerette , LA",Jeanerette ,LA,70544
"Jennings , LA",Jennings ,LA,70546
"New Iberia, LA",New Iberia,LA,70560
"Opelousas , LA",Opelousas ,LA,70570
"St. Martinville, LA",St. Martinville,LA,70582
"Ville Platte, LA",Ville Platte,LA,70586
"Lake Charles, LA",Lake Charles,LA,70601
"Deridder , LA",Deridder ,LA,70634
"Sulphur , LA",Sulphur ,LA,70663
"Baker , LA",Baker ,LA,70714
"Denham Springs, LA",Denham Springs,LA,70726
"Gonzales , LA",Gonzales ,LA,70737
"New Roads, LA",New Roads,LA,70760
"Plaquemine , LA",Plaquemine ,LA,70764
"Baton Rouge, LA",Baton Rouge,LA,70769
"Prairieville , LA",Prairieville ,LA,70769
"Saint Francisville, LA",Saint Francisville,LA,70775
"St Francisville, LA",St Francisville,LA,70775
"Zachary , LA",Zachary ,LA,70791
"Homer , LA",Homer ,LA,71040
"Mansfield , LA",Mansfield ,LA,71052
"Springhill , LA",Springhill ,LA,71075
"Stonewall , LA",Stonewall ,LA,71078
"Vivian , LA",Vivian ,LA,71082
"Shreveport , LA",Shreveport ,LA,71105
"Bossier City, LA",Bossier City,LA,71111
"Monroe , LA",Monroe ,LA,71201
"Bastrop , LA",Bastrop ,LA,71220
"Farmerville , LA",Farmerville ,LA,71241
"Jonesboro , LA",Jonesboro ,LA,71251
"Rayville , LA",Rayville ,LA,71269
"Ruston , LA",Ruston ,LA,71270
"West Monroe, LA",West Monroe,LA,71292
"Winnsboro , LA",Winnsboro ,LA,71295
"Alexandria , LA",Alexandria ,LA,71301
"Alexndria , LA",Alexndria ,LA,71301
"Bunkie , LA",Bunkie ,LA,71322
"Ferriday , LA",Ferriday ,LA,71334
"Jena , LA",Jena ,LA,71342
"Dry Prong, LA",Dry Prong,LA,71423
"Leesville , LA",Leesville ,LA,71446
"Natchitoches , LA",Natchitoches ,LA,71457
"Oakdale , LA",Oakdale ,LA,71463
"Manheim , PA",Manheim ,PA,71545
"Pine Bluff, AR",Pine Bluff,AR,71601
"Crossett , AR",Crossett ,AR,71635
"Mcgehee , AR",Mcgehee ,AR,71654
"Monticello , AR",Monticello ,AR,71655
"Camden , AR",Camden ,AR,71701
"El Dorado, AR",El Dorado,AR,71730
"Eldorado , AR",Eldorado ,AR,71730
"Fordyce , AR",Fordyce ,AR,71742
"Magnolia , AR",Magnolia ,AR,71753
"Magonlia , AR",Magonlia ,AR,71754
"Smackover , AR",Smackover ,AR,71762
"Hope , AR",Hope ,AR,71801
"Dequeen , AR",Dequeen ,AR,71832
"Foreman , AR",Foreman ,AR,71836
"Nashville , AR",Nashville ,AR,71852
"Arkadelphia , AR",Arkadelphia ,AR,71923
"Mena , AR",Mena ,AR,71953
"Benton , AR",Benton ,AR,72018
"Bryant , AR",Bryant ,AR,72022
"Cabot , AR",Cabot ,AR,72023
"Clinton , AR",Clinton ,AR,72031
"Conway , AR",Conway ,AR,72032
"England , AR",England ,AR,72046
"Jacksonville , AR",Jacksonville ,AR,72076
"Lonoke , AR",Lonoke ,AR,72086
"Malvern , AR",Malvern ,AR,72104
"Morrilton , AR",Morrilton ,AR,72110
"Newport , AR",Newport ,AR,72112
"North Little, AR",North Little,AR,72117
"Sherwood , AR",Sherwood ,AR,72117
"Searcy , AR",Searcy ,AR,72143
"Sheridan , AR",Sheridan ,AR,72150
"Stuttgart , AR",Stuttgart ,AR,72160
"Little Rock, AR",Little Rock,AR,72204
"West Memphis, AR",West Memphis,AR,72301
"Blytheville , AR",Blytheville ,AR,72315
"Helena , AR",Helena ,AR,72342
"Hughes , AR",Hughes ,AR,72348
"Marion , AR",Marion ,AR,72364
"Wynne , AR",Wynne ,AR,72396
"Jonesboro , AR",Jonesboro ,AR,72401
"Corning , AR",Corning ,AR,72422
"Paragould , AR",Paragould ,AR,72450
"Pocahontas , AR",Pocahontas ,AR,72455
"Rector , AR",Rector ,AR,72461
"Walnut Ridge, AR",Walnut Ridge,AR,72476
"Batesville , AR",Batesville ,AR,72501
"Heber Springs, AR",Heber Springs,AR,72543
"Melbourne , AR",Melbourne ,AR,72556
"Mountain View, AR",Mountain View,AR,72560
"Mtn View, AR",Mtn View,AR,72560
"Harrison , AR",Harrison ,AR,72601
"Berryville , AR",Berryville ,AR,72616
"Mountain Home, AR",Mountain Home,AR,72653
"Fayetteville , AR",Fayetteville ,AR,72701
"Bentonville , AR",Bentonville ,AR,72712
"Centerton , AR",Centerton ,AR,72719
"Rogers , AR",Rogers ,AR,72756
"Siloam Springs, AR",Siloam Springs,AR,72761
"Springdale , AR",Springdale ,AR,72762
"Russellville , AR",Russellville ,AR,72802
"Clarksville , AR",Clarksville ,AR,72830
"Danville , AR",Danville ,AR,72833
"Paris , AR",Paris ,AR,72855
"Fort Smith, AR",Fort Smith,AR,72901
"Ft Smith, AR",Ft Smith,AR,72916
"Booneville , AR",Booneville ,AR,72927
"Charleston , AR",Charleston ,AR,72933
"Ozark , AR",Ozark ,AR,72949
"Van Buren, AR",Van Buren,AR,72956
"Blanchard , OK",Blanchard ,OK,73010
"Edmond , OK",Edmond ,OK,73013
"Chickasha , OK",Chickasha ,OK,73023
"Guthrie , OK",Guthrie ,OK,73025
"Davis , OK",Davis ,OK,73030
"El Reno, OK",El Reno,OK,73036
"Hinton , OK",Hinton ,OK,73047
"Jones , OK",Jones ,OK,73049
"Norman , OK",Norman ,OK,73069
"Pauls Valley, OK",Pauls Valley,OK,73075
"Perry , OK",Perry ,OK,73077
"Purcell , OK",Purcell ,OK,73080
"Yukon , OK",Yukon ,OK,73085
"Sulphur , OK",Sulphur ,OK,73086
"Weatherford , OK",Weatherford ,OK,73096
"Oklahoma City, OK",Oklahoma City,OK,73101
"Midwest City, OK",Midwest City,OK,73110
"Del City, OK",Del City,OK,73115
"Okc , OK",Okc ,OK,73127
"Ardmore , OK",Ardmore ,OK,73401
"Madill , OK",Madill ,OK,73446
"Tishomingo , OK",Tishomingo ,OK,73460
"Lawton , OK",Lawton ,OK,73501
"Altus , OK",Altus ,OK,73521
"Duncan , OK",Duncan ,OK,73534
"Waurika , OK",Waurika ,OK,73573
"Clinton , OK",Clinton ,OK,73601
"Cordell , OK",Cordell ,OK,73632
"Elk City, OK",Elk City,OK,73644
"Burkburnett , TX",Burkburnett ,TX,73654
"Sayre , OK",Sayre ,OK,73662
"Enid , OK",Enid ,OK,73701
"Alva , OK",Alva ,OK,73717
"Cherokee , OK",Cherokee ,OK,73728
"Fairview , OK",Fairview ,OK,73737
"Kingfisher , OK",Kingfisher ,OK,73750
"Okarche , OK",Okarche ,OK,73762
"Okeene , OK",Okeene ,OK,73763
"Woodward , OK",Woodward ,OK,73801
"Shattuck , OK",Shattuck ,OK,73858
"Guymon , OK",Guymon ,OK,73942
"Bartlesville , OK",Bartlesville ,OK,74006
"Bristow , OK",Bristow ,OK,74010
"Broken Arrow, OK",Broken Arrow,OK,74012
"Claremore , OK",Claremore ,OK,74017
"Owasso , OK",Owasso ,OK,74055
"Sand Springs, OK",Sand Springs,OK,74063
"Stillwater , OK",Stillwater ,OK,74074
"Tulsa , OK",Tulsa ,OK,74157
"Vinita , OK",Vinita ,OK,74301
"Grove , OK",Grove ,OK,74345
"Miami , OK",Miami ,OK,74354
"Pryor , OK",Pryor ,OK,74361
"Muskogee , OK",Muskogee ,OK,74401
"Checotah , OK",Checotah ,OK,74426
"Eufaula , OK",Eufaula ,OK,74432
"Henryetta , OK",Henryetta ,OK,74437
"Okmulgee , OK",Okmulgee ,OK,74447
"Stigler , OK",Stigler ,OK,74462
"Tahlequah , OK",Tahlequah ,OK,74464
"Mcalester , OK",Mcalester ,OK,74501
"Atoka , OK",Atoka ,OK,74525
"Ponca City, OK",Ponca City,OK,74601
"Durant , OK",Durant ,OK,74701
"Broken Bow, OK",Broken Bow,OK,74728
"Hugo , OK",Hugo ,OK,74743
"Idabel , OK",Idabel ,OK,74745
"Shawnee , OK",Shawnee ,OK,74801
"Ada , OK",Ada ,OK,74820
"Chandler , OK",Chandler ,OK,74834
"Holdenville , OK",Holdenville ,OK,74848
"Okemah , OK",Okemah ,OK,74859
"Seminole , OK",Seminole ,OK,74868
"Poteau , OK",Poteau ,OK,74953
"Sallisaw , OK",Sallisaw ,OK,74955
"Stilwell , OK",Stilwell ,OK,74960
"Carrollton , TX",Carrollton ,TX,75006
"Celina , TX",Celina ,TX,75009
"Denison , TX",Denison ,TX,75020
"Plano , TX",Plano ,TX,75023
"Frisco , TX",Frisco ,TX,75034
"Garland , TX",Garland ,TX,75041
"Grand Prairie, TX",Grand Prairie,TX,75050
"Lewisville , TX",Lewisville ,TX,75057
"Irving , TX",Irving ,TX,75062
"Mckinney , TX",Mckinney ,TX,75069
"Richardson , TX",Richardson ,TX,75080
"Rockwall , TX",Rockwall ,TX,75087
"Sherman , TX",Sherman ,TX,75090
"Canton , TX",Canton ,TX,75103
"Corsicana , TX",Corsicana ,TX,75110
"Desoto , TX",Desoto ,TX,75115
"Duncanville , TX",Duncanville ,TX,75116
"Ennis , TX",Ennis ,TX,75119
"Fate , TX",Fate ,TX,75132
"Kaufman , TX",Kaufman ,TX,75142
"Mabank , TX",Mabank ,TX,75147
"Mesquite , TX",Mesquite ,TX,75150
"Terrell , TX",Terrell ,TX,75160
"Waxahachie , TX",Waxahachie ,TX,75167
"Wills Point, TX",Wills Point,TX,75169
"Dallas , TX",Dallas ,TX,75207
"Greenville , TX",Greenville ,TX,75401
"Corpus Christi, TX",Corpus Christi,TX,75415
"Bonham , TX",Bonham ,TX,75418
"Commerce , TX",Commerce ,TX,75428
"Farmersville , TX",Farmersville ,TX,75442
"Mount Pleasant, TX",Mount Pleasant,TX,75455
"Mt Pleasant, TX",Mt Pleasant,TX,75455
"Paris , TX",Paris ,TX,75460
"Sulphur Springs, TX",Sulphur Springs,TX,75482
"Texarkana , TX",Texarkana ,TX,75501
"New Boston, TX",New Boston,TX,75570
"Longview , TX",Longview ,TX,75601
"Carthage , TX",Carthage ,TX,75633
"Gilmer , TX",Gilmer ,TX,75644
"Gladewater , TX",Gladewater ,TX,75647
"Henderson , TX",Henderson ,TX,75652
"Hughes Springs, TX",Hughes Springs,TX,75656
"Jefferson , TX",Jefferson ,TX,75657
"Kilgore , TX",Kilgore ,TX,75662
"Marshall , TX",Marshall ,TX,75672
"Pittsburg , TX",Pittsburg ,TX,75686
"Tyler , TX",Tyler ,TX,75701
"Athens , TX",Athens ,TX,75751
"Frankston , TX",Frankston ,TX,75763
"Jacksonville , TX",Jacksonville ,TX,75766
"Mineola , TX",Mineola ,TX,75773
"Quitman , TX",Quitman ,TX,75783
"Palestine , TX",Palestine ,TX,75802
"Fairfield , TX",Fairfield ,TX,75840
"Grapeland , TX",Grapeland ,TX,75844
"Lufkin , TX",Lufkin ,TX,75901
"Alto , TX",Alto ,TX,75925
"Center , TX",Center ,TX,75935
"Corrigan , TX",Corrigan ,TX,75939
"Jasper , TX",Jasper ,TX,75951
"Kirbyville , TX",Kirbyville ,TX,75956
"Nacogdoches , TX",Nacogdoches ,TX,75963
"San Augustine, TX",San Augustine,TX,75972
"Arlington , TX",Arlington ,TX,76011
"Burleson , TX",Burleson ,TX,76028
"Cleburne , TX",Cleburne ,TX,76031
"Euless , TX",Euless ,TX,76040
"Granbury , TX",Granbury ,TX,76049
"Grapevine , TX",Grapevine ,TX,76051
"Grpaevine , TX",Grpaevine ,TX,76051
"Hurst , TX",Hurst ,TX,76053
"Itasca , TX",Itasca ,TX,76055
"Weatherford , TX",Weatherford ,TX,76086
"Bedford , TX",Bedford ,TX,76095
"Fort Worth, TX",Fort Worth,TX,76108
"Fordt Worth, TX",Fordt Worth,TX,76119
"Ft. Worth, TX",Ft. Worth,TX,76132
"N Richland, TX",N Richland,TX,76180
"North Richland, TX",North Richland,TX,76180
"Ft Worth, TX",Ft Worth,TX,76180
"Denton , TX",Denton ,TX,76206
"Corinth , TX",Corinth ,TX,76210
"Bowie , TX",Bowie ,TX,76230
"Decatur , TX",Decatur ,TX,76234
"Gainesville , TX",Gainesville ,TX,76240
"Muenster , TX",Muenster ,TX,76252
"Pilot Point, TX",Pilot Point,TX,76258
"Whitesboro , TX",Whitesboro ,TX,76273
"Wichita Falls, TX",Wichita Falls,TX,76301
"Curburnett , TX",Curburnett ,TX,76354
"Henrietta , TX",Henrietta ,TX,76365
"Vernon , TX",Vernon ,TX,76384
"Stephenville , TX",Stephenville ,TX,76401
"Breckenridge , TX",Breckenridge ,TX,76424
"Comanche , TX",Comanche ,TX,76442
"Eastland , TX",Eastland ,TX,76448
"Graham , TX",Graham ,TX,76450
"Gordon , TX",Gordon ,TX,76453
"Temple , TX",Temple ,TX,76501
"Waco , TX",Waco ,TX,76502
"Belton , TX",Belton ,TX,76513
"Cameron , TX",Cameron ,TX,76520
"Copperas Cove, TX",Copperas Cove,TX,76522
"Gatesville , TX",Gatesville ,TX,76528
"Killeen , TX",Killeen ,TX,76541
"Lampasas , TX",Lampasas ,TX,76550
"Rockdale , TX",Rockdale ,TX,76567
"Clifton , TX",Clifton ,TX,76634
"Hillsboro , TX",Hillsboro ,TX,76645
"Mcgregor , TX",Mcgregor ,TX,76657
"Marlin , TX",Marlin ,TX,76661
"Mexia , TX",Mexia ,TX,76667
"West , TX",West ,TX,76691
"Brownwood , TX",Brownwood ,TX,76801
"Ballinger , TX",Ballinger ,TX,76821
"Brady , TX",Brady ,TX,76825
"Eden , TX",Eden ,TX,76837
"Goldthwaite , TX",Goldthwaite ,TX,76844
"San Angelo, TX",San Angelo,TX,76901
"Big Lake, TX",Big Lake,TX,76932
"Robert Lee, TX",Robert Lee,TX,76945
"Houston , TX",Houston ,TX,77002
"Houston/tx , TX",Houston/tx ,TX,77074
"Hot Springs, AR",Hot Springs,AR,77191
"Conroe , TX",Conroe ,TX,77301
"Huntsville , TX",Huntsville ,TX,77320
"Cleveland , TX",Cleveland ,TX,77327
"Humble , TX",Humble ,TX,77338
"Humble/tx/77338 , TX",Humble/tx/77338 ,TX,77338
"Kingwood , TX",Kingwood ,TX,77339
"Livingston , TX",Livingston ,TX,77351
"Spring , TX",Spring ,TX,77373
"Tomball , TX",Tomball ,TX,77375
"The Woodlands, TX",The Woodlands,TX,77384
"Bay City, TX",Bay City,TX,77414
"East Bernard, TX",East Bernard,TX,77435
"El Campo, TX",El Campo,TX,77437
"Katy , TX",Katy ,TX,77450
"Richmond , TX",Richmond ,TX,77469
"Rosenberg , TX",Rosenberg ,TX,77471
"Sealy , TX",Sealy ,TX,77474
"Stafford , TX",Stafford ,TX,77477
"Sugar Land, TX",Sugar Land,TX,77478
"Wharton , TX",Wharton ,TX,77488
"Pasadena , TX",Pasadena ,TX,77503
"Alvin , TX",Alvin ,TX,77511
"Angleton , TX",Angleton ,TX,77515
"Baytown , TX",Baytown ,TX,77521
"Richwood , TX",Richwood ,TX,77531
"Crosby , TX",Crosby ,TX,77532
"Dickinson , TX",Dickinson ,TX,77539
"Friendswood , TX",Friendswood ,TX,77546
"Galveston , TX",Galveston ,TX,77554
"Lake Jackson, TX",Lake Jackson,TX,77566
"La Porte, TX",La Porte,TX,77571
"League City, TX",League City,TX,77573
"Liberty , TX",Liberty ,TX,77575
"Manvel , TX",Manvel ,TX,77578
"Pearland , TX",Pearland ,TX,77581
"Texas City, TX",Texas City,TX,77590
"Wallisville , TX",Wallisville ,TX,77597
"Webster , TX",Webster ,TX,77598
"Silsbee , TX",Silsbee ,TX,77625
"Nederland , TX",Nederland ,TX,77627
"Orange , TX",Orange ,TX,77630
"Port Arthur, TX",Port Arthur,TX,77640
"Sour Lake, TX",Sour Lake,TX,77659
"Winnie , TX",Winnie ,TX,77665
"Beaumont , TX",Beaumont ,TX,77701
"Bryan , TX",Bryan ,TX,77802
"Brenham , TX",Brenham ,TX,77833
"Caldwell , TX",Caldwell ,TX,77836
"College Station, TX",College Station,TX,77840
"Hearne , TX",Hearne ,TX,77859
"Madisonville , TX",Madisonville ,TX,77864
"Navasota , TX",Navasota ,TX,77868
"Victoria , TX",Victoria ,TX,77901
"Cuero , TX",Cuero ,TX,77954
"Edna , TX",Edna ,TX,77957
"Hallettsville , TX",Hallettsville ,TX,77964
"Port Lavaca, TX",Port Lavaca,TX,77979
"Boerne , TX",Boerne ,TX,78006
"Castroville , TX",Castroville ,TX,78009
"Devine , TX",Devine ,TX,78016
"Kerrvile , TX",Kerrvile ,TX,78028
"Kerrville , TX",Kerrville ,TX,78028
"Laredo , TX",Laredo ,TX,78041
"Pleasanton , TX",Pleasanton ,TX,78064
"Three Rivers, TX",Three Rivers,TX,78071
"Beeville , TX",Beeville ,TX,78102
"Floresville , TX",Floresville ,TX,78114
"Kenedy , TX",Kenedy ,TX,78119
"L Avernia, TX",L Avernia,TX,78121
"New Braunfels, TX",New Braunfels,TX,78130
"San Antonio, TX",San Antonio,TX,78154
"Schertz , TX",Schertz ,TX,78154
"Seguin , TX",Seguin ,TX,78155
"Alice , TX",Alice ,TX,78332
"Aransas Pass, TX",Aransas Pass,TX,78336
"Hebbronville , TX",Hebbronville ,TX,78361
"Kingsville , TX",Kingsville ,TX,78363
"Portland , TX",Portland ,TX,78374
"Robstown , TX",Robstown ,TX,78380
"Mcallen , TX",Mcallen ,TX,78501
"Brownsville , TX",Brownsville ,TX,78520
"Edinburg , TX",Edinburg ,TX,78539
"Harlingen , TX",Harlingen ,TX,78550
"Mercedes , TX",Mercedes ,TX,78550
"Mission , TX",Mission ,TX,78572
"Pharr , TX",Pharr ,TX,78577
"Raymondville , TX",Raymondville ,TX,78580
"Rio Grande, TX",Rio Grande,TX,78582
"San Benito, TX",San Benito,TX,78586
"Weslaco , TX",Weslaco ,TX,78596
"Bastrop , TX",Bastrop ,TX,78602
"Buda , TX",Buda ,TX,78610
"Burnet , TX",Burnet ,TX,78611
"Cedar Park, TX",Cedar Park,TX,78613
"Fredericksburg , TX",Fredericksburg ,TX,78624
"Georgetown , TX",Georgetown ,TX,78626
"Hutto , TX",Hutto ,TX,78634
"Kyle , TX",Kyle ,TX,78640
"Llano , TX",Llano ,TX,78643
"Lockhart , TX",Lockhart ,TX,78644
"Luling , TX",Luling ,TX,78648
"Manor , TX",Manor ,TX,78653
"Marble Falls, TX",Marble Falls,TX,78654
"San Marcos, TX",San Marcos,TX,78666
"Round Rock, TX",Round Rock,TX,78680
"Austin , TX",Austin ,TX,78723
"Uvalde , TX",Uvalde ,TX,78801
"Del Rio, TX",Del Rio,TX,78840
"Eagle Pass, TX",Eagle Pass,TX,78852
"Hondo , TX",Hondo ,TX,78861
"Columbus , TX",Columbus ,TX,78934
"Industry , TX",Industry ,TX,78944
"La Grange, TX",La Grange,TX,78945
"Schulenburg , TX",Schulenburg ,TX,78956
"Weimar , TX",Weimar ,TX,78962
"Borger , TX",Borger ,TX,79007
"Canyon , TX",Canyon ,TX,79015
"Dalhart , TX",Dalhart ,TX,79022
"Hereford , TX",Hereford ,TX,79045
"Pampa , TX",Pampa ,TX,79065
"Perryton , TX",Perryton ,TX,79070
"Plainview , TX",Plainview ,TX,79072
"Spearman , TX",Spearman ,TX,79081
"Tulia , TX",Tulia ,TX,79088
"Wheeler , TX",Wheeler ,TX,79096
"Amarillo , TX",Amarillo ,TX,79103
"Floydada , TX",Floydada ,TX,79235
"Brownfield , TX",Brownfield ,TX,79316
"Denver City, TX",Denver City,TX,79323
"Lamesa , TX",Lamesa ,TX,79331
"Levelland , TX",Levelland ,TX,79336
"Littlefield , TX",Littlefield ,TX,79339
"Slaton , TX",Slaton ,TX,79364
"Lubbock , TX",Lubbock ,TX,79407
"Anson , TX",Anson ,TX,79501
"Baird , TX",Baird ,TX,79504
"Clyde , TX",Clyde ,TX,79510
"Haskell , TX",Haskell ,TX,79521
"Jayton , TX",Jayton ,TX,79528
"Snyder , TX",Snyder ,TX,79549
"Sweetwater , TX",Sweetwater ,TX,79556
"Winters , TX",Winters ,TX,79567
"Abilene , TX",Abilene ,TX,79601
"Midland , TX",Midland ,TX,79702
"Andrews , TX",Andrews ,TX,79714
"Big Spring, TX",Big Spring,TX,79720
"Crane , TX",Crane ,TX,79731
"Fort Stockton, TX",Fort Stockton,TX,79735
"Monahans , TX",Monahans ,TX,79756
"Odessa , TX",Odessa ,TX,79760
"Stanton , TX",Stanton ,TX,79782
"El Paso, TX",El Paso,TX,79993
"Aurora , CO",Aurora ,CO,80010
"Centennial , CO",Centennial ,CO,80012
"Denver , CO",Denver ,CO,80014
"Broomfield , CO",Broomfield ,CO,80020
"Westminster , CO",Westminster ,CO,80020
"Wheat Ridge, CO",Wheat Ridge,CO,80033
"Wheatridge , CO",Wheatridge ,CO,80033
"Castle Rock, CO",Castle Rock,CO,80104
"Greenwood Village, CO",Greenwood Village,CO,80111
"Englewood , CO",Englewood ,CO,80113
"Littleton , CO",Littleton ,CO,80113
"Lone Tree, CO",Lone Tree,CO,80124
"Highlands Ranch, CO",Highlands Ranch,CO,80130
"Parker , CO",Parker ,CO,80138
"Lakewood , CO",Lakewood ,CO,80214
"Federal Heights, CO",Federal Heights,CO,80234
"Northglenn , CO",Northglenn ,CO,80234
"Thornton , CO",Thornton ,CO,80234
"Boulder , CO",Boulder ,CO,80301
"Golden , CO",Golden ,CO,80401
"Steamboat Springs, CO",Steamboat Springs,CO,80487
"Silverthorne , CO",Silverthorne ,CO,80498
"Longmont , CO",Longmont ,CO,80501
"Frederick , CO",Frederick ,CO,80504
"Dacono , CO",Dacono ,CO,80514
"Fort Collins, CO",Fort Collins,CO,80525
"Ft Collins, CO",Ft Collins,CO,80525
"Loveland , CO",Loveland ,CO,80537
"Brighton , CO",Brighton ,CO,80601
"Fort Lupton, CO",Fort Lupton,CO,80621
"Greeley , CO",Greeley ,CO,80631
"Henderson , CO",Henderson ,CO,80640
"Fort Morgan, CO",Fort Morgan,CO,80701
"Julesburg , CO",Julesburg ,CO,80737
"Sterling , CO",Sterling ,CO,80751
"Yuma , CO",Yuma ,CO,80759
"Burlington , CO",Burlington ,CO,80807
"Limon , CO",Limon ,CO,80828
"Colorado Springs, CO",Colorado Springs,CO,80905
"Pueblo , CO",Pueblo ,CO,81003
"Lajunta , CO",Lajunta ,CO,81050
"Lamar , CO",Lamar ,CO,81052
"Trinidad , CO",Trinidad ,CO,81082
"Alamosa , CO",Alamosa ,CO,81101
"Monte Vista, CO",Monte Vista,CO,81144
"Salida , CO",Salida ,CO,81201
"Canon City, CO",Canon City,CO,81212
"Gunnison , CO",Gunnison ,CO,81230
"Durango , CO",Durango ,CO,81301
"Cortez , CO",Cortez ,CO,81321
"Montrose , CO",Montrose ,CO,81401
"Delta , CO",Delta ,CO,81416
"Grand Junction, CO",Grand Junction,CO,81501
"Glenwood Springs, CO",Glenwood Springs,CO,81601
"Craig , CO",Craig ,CO,81626
"Rifle , CO",Rifle ,CO,81650
"Cheyenne , WY",Cheyenne ,WY,82001
"Laramie , WY",Laramie ,WY,82070
"Wheatland , WY",Wheatland ,WY,82201
"Torrington , WY",Torrington ,WY,82240
"Worland , WY",Worland ,WY,82401
"Cody , WY",Cody ,WY,82414
"Powell , WY",Powell ,WY,82435
"Riverton , WY",Riverton ,WY,82501
"Lander , WY",Lander ,WY,82520
"Casper , WY",Casper ,WY,82601
"Douglas , WY",Douglas ,WY,82633
"Gillette , WY",Gillette ,WY,82716
"Sheridan , WY",Sheridan ,WY,82801
"Rock Springs, WY",Rock Springs,WY,82901
"Evanston , WY",Evanston ,WY,82930
"Pinedale , WY",Pinedale ,WY,82941
"Jackson , WY",Jackson ,WY,83001
"Afton , WY",Afton ,WY,83110
"Diamondville , WY",Diamondville ,WY,83116
"Pocatello , ID",Pocatello ,ID,83201
"Pocatello , IA",Pocatello ,IA,83205
"Blackfoot , ID",Blackfoot ,ID,83221
"Montpelier , ID",Montpelier ,ID,83254
"Preston , ID",Preston ,ID,83263
"Soda Springs, ID",Soda Springs,ID,83276
"Twin Falls, ID",Twin Falls,ID,83301
"Twin Falls, IA",Twin Falls,IA,83303
"Burley , ID",Burley ,ID,83318
"Hailey , ID",Hailey ,ID,83333
"Jerome , ID",Jerome ,ID,83338
"Idaho Falls, ID",Idaho Falls,ID,83401
"Rexburg , ID",Rexburg ,ID,83440
"Rigby , ID",Rigby ,ID,83442
"St. Anthony, ID",St. Anthony,ID,83445
"Salmon , ID",Salmon ,ID,83467
"Lewiston , ID",Lewiston ,ID,83501
"Grangeville , ID",Grangeville ,ID,83530
"Caldwell , ID",Caldwell ,ID,83605
"Weiser , ID",Weiser ,ID,83617
"Mountain Home, ID",Mountain Home,ID,83647
"Payette , ID",Payette ,ID,83661
"Meridian , ID",Meridian ,ID,83680
"Nampa , ID",Nampa ,ID,83687
"Boise , ID",Boise ,ID,83704
"Boise , IA",Boise ,IA,83709
"Bonners Ferry, ID",Bonners Ferry,ID,83805
"Coeur D, ID",Coeur D,ID,83814
"Coeur D'alene, ID",Coeur D'alene,ID,83815
"Kellogg , ID",Kellogg ,ID,83837
"Moscow , ID",Moscow ,ID,83843
"Ponderay , ID",Ponderay ,ID,83852
"Post Falls, ID",Post Falls,ID,83854
"Sandpoint , ID",Sandpoint ,ID,83864
"American Fork, UT",American Fork,UT,84003
"West Bountiful, UT",West Bountiful,UT,84010
"Bountiful , UT",Bountiful ,UT,84010
"Draper , UT",Draper ,UT,84020
"Heber City, UT",Heber City,UT,84032
"Heber , UT",Heber ,UT,84032
"Kaysville , UT",Kaysville ,UT,84037
"Layton , UT",Layton ,UT,84041
"Lindon , UT",Lindon ,UT,84042
"Morgan , UT",Morgan ,UT,84050
"North Salt, UT",North Salt,UT,84054
"Orem , UT",Orem ,UT,84058
"Roosevelt , UT",Roosevelt ,UT,84066
"Sandy , UT",Sandy ,UT,84070
"Tooele , UT",Tooele ,UT,84074
"Vernal , UT",Vernal ,UT,84078
"Woods Cross, UT",Woods Cross,UT,84087
"South Jordan, UT",South Jordan,UT,84095
"Park City, UT",Park City,UT,84098
"Salt Lake, UT",Salt Lake,UT,84101
"Murray City, UT",Murray City,UT,84107
"Murray , UT",Murray ,UT,84107
"Salt Lake, UT",Salt Lake,UT,84119
"West Valley, UT",West Valley,UT,84119
"West Valley, UT",West Valley,UT,84120
"Brigham City, UT",Brigham City,UT,84302
"Logan , UT",Logan ,UT,84321
"Tremonton , UT",Tremonton ,UT,84337
"N Logan, UT",N Logan,UT,84341
"Ogden , UT",Ogden ,UT,84401
"Riverdale , UT",Riverdale ,UT,84405
"Price , UT",Price ,UT,84501
"Moab , UT",Moab ,UT,84532
"Provo , UT",Provo ,UT,84601
"Delta , UT",Delta ,UT,84624
"Ephraim , UT",Ephraim ,UT,84627
"Gunnison , UT",Gunnison ,UT,84634
"Santaquin , UT",Santaquin ,UT,84655
"Spanish Fork, UT",Spanish Fork,UT,84660
"Richfield , UT",Richfield ,UT,84701
"Cedar City, UT",Cedar City,UT,84720
"St George, UT",St George,UT,84770
"St. George, UT",St. George,UT,84790
"Scottsdale , AZ",Scottsdale ,AZ,85012
"Phoenix , AR",Phoenix ,AR,85014
"Phoenix , AZ",Phoenix ,AZ,85014
"Chandler , AZ",Chandler ,AZ,85045
"Apache Junction, AZ",Apache Junction,AZ,85119
"Coolidge , AZ",Coolidge ,AZ,85128
"Mesa , AZ",Mesa ,AZ,85201
"Casa Grande, AZ",Casa Grande,AZ,85222
"Gilbert , AZ",Gilbert ,AZ,85233
"Tempe , AZ",Tempe ,AZ,85283
"Glendale , AZ",Glendale ,AZ,85301
"Avondale , AZ",Avondale ,AZ,85323
"Buckeye , AZ",Buckeye ,AZ,85326
"Goodyear , AZ",Goodyear ,AZ,85338
"Parker , AZ",Parker ,AZ,85344
"Yuma , AZ",Yuma ,AZ,85364
"Peoria , AZ",Peoria ,AZ,85382
"Surprise , AZ",Surprise ,AZ,85388
"Wickenburg , AZ",Wickenburg ,AZ,85390
"Globe , AZ",Globe ,AZ,85501
"Payson , AZ",Payson ,AZ,85541
"Safford , AZ",Safford ,AZ,85546
"Thatcher , AZ",Thatcher ,AZ,85552
"Douglas , AZ",Douglas ,AZ,85607
"Green Valley, AZ",Green Valley,AZ,85614
"Nogales , AZ",Nogales ,AZ,85621
"Oracle , AZ",Oracle ,AZ,85623
"Sierra Vista, AZ",Sierra Vista,AZ,85635
"Tucson , AZ",Tucson ,AZ,85705
"Show Low, AZ",Show Low,AZ,85901
"Snowflake , AZ",Snowflake ,AZ,85937
"Flagstaff , AZ",Flagstaff ,AZ,86001
"Holbrook , AZ",Holbrook ,AZ,86025
"Page , AZ",Page ,AZ,86040
"Winslow , AZ",Winslow ,AZ,86047
"Prescott , AZ",Prescott ,AZ,86301
"Prescott Valley, AZ",Prescott Valley,AZ,86314
"Camp Verde, AZ",Camp Verde,AZ,86322
"Cottonwood , AZ",Cottonwood ,AZ,86326
"Kingman , AZ",Kingman ,AZ,86401
"Lake Havasu, AZ",Lake Havasu,AZ,86403
"Bullhead City, AZ",Bullhead City,AZ,86429
"Grants , NM",Grants ,NM,87020
"Los Lunas, NM",Los Lunas,NM,87031
"Moriarty , NM",Moriarty ,NM,87035
"Albuquerque , NM",Albuquerque ,NM,87102
"Albuqurque , NM",Albuqurque ,NM,87114
"Rio Rancho, NM",Rio Rancho,NM,87124
"Albquerque , NM",Albquerque ,NM,87176
"Gallup , NM",Gallup ,NM,87301
"Farmington , NM",Farmington ,NM,87401
"Aztec , NM",Aztec ,NM,87410
"Point Pleasant, NJ",Point Pleasant,NJ,87422
"Santa Fe, NM",Santa Fe,NM,87505
"Taos , NM",Taos ,NM,87571
"Las Vegas, NM",Las Vegas,NM,87701
"Raton , NM",Raton ,NM,87740
"Socorro , NM",Socorro ,NM,87801
"Truth Or, NM",Truth Or,NM,87901
"Las Cruces, NM",Las Cruces,NM,88001
"Deming , NM",Deming ,NM,88030
"Lordsburg , NM",Lordsburg ,NM,88045
"Silver City, NM",Silver City,NM,88061
"Clovis , NM",Clovis ,NM,88101
"Portales , NM",Portales ,NM,88130
"Roswell , NM",Roswell ,NM,88201
"Artesia , NM",Artesia ,NM,88210
"Carlsbad , NM",Carlsbad ,NM,88220
"Hobbs , NM",Hobbs ,NM,88240
"Alamogordo , NM",Alamogordo ,NM,88310
"Ruidoso , NM",Ruidoso ,NM,88345
"Henderson , NV",Henderson ,NV,89011
"Pahrump , NV",Pahrump ,NV,89048
"Las Vegas, NV",Las Vegas,NV,89102
"Ely , NV",Ely ,NV,89301
"Fallon , NV",Fallon ,NV,89406
"Minden , NV",Minden ,NV,89423
"Winnemucca , NV",Winnemucca ,NV,89445
"Yerington , NV",Yerington ,NV,89447
"Reno , NV",Reno ,NV,89502
"Elko , NV",Elko ,NV,89801
"Carson City, NV",Carson City,NV,89870
"Los Angeles, CA",Los Angeles,CA,90001
"West Los, CA",West Los,CA,90025
"Hollywood , CA",Hollywood ,CA,90028
"Commerce , CA",Commerce ,CA,90040
"Bell , CA",Bell ,CA,90201
"Beverly Hills, CA",Beverly Hills,CA,90210
"Culver City, CA",Culver City,CA,90230
"Downey , CA",Downey ,CA,90241
"Gardena , CA",Gardena ,CA,90247
"Hawthorne , CA",Hawthorne ,CA,90250
"Manhattan Beach, CA",Manhattan Beach,CA,90266
"South Gate, CA",South Gate,CA,90280
"Marina Del, CA",Marina Del,CA,90292
"Inglewood , CA",Inglewood ,CA,90301
"Santa Monica, CA",Santa Monica,CA,90401
"Van Nuys, CA",Van Nuys,CA,90401
"Torrance , CA",Torrance ,CA,90503
"Cerritos , CA",Cerritos ,CA,90504
"Whittier , CA",Whittier ,CA,90605
"Buena Park, CA",Buena Park,CA,90621
"La Habra, CA",La Habra,CA,90631
"Montebello , CA",Montebello ,CA,90640
"Norwalk , CA",Norwalk ,CA,90650
"Bellflower , CA",Bellflower ,CA,90706
"Signal Hill, CA",Signal Hill,CA,90732
"Carson , CA",Carson ,CA,90745
"Long Beach, CA",Long Beach,CA,90807
"Arcadia , CA",Arcadia ,CA,91007
"Duarte , CA",Duarte ,CA,91010
"Alhambra , CA",Alhambra ,CA,91016
"Monrovia , CA",Monrovia ,CA,91016
"Pasadena , CA",Pasadena ,CA,91105
"Glendale , CA",Glendale ,CA,91204
"La Crescenta, CA",La Crescenta,CA,91214
"Calabasas , CA",Calabasas ,CA,91302
"Canoga Park, CA",Canoga Park,CA,91304
"Northridge , CA",Northridge ,CA,91324
"Reseda , CA",Reseda ,CA,91335
"San Fernando, CA",San Fernando,CA,91340
"Mission Hills, CA",Mission Hills,CA,91340
"North Hills, CA",North Hills,CA,91343
"Santa Clarita, CA",Santa Clarita,CA,91355
"Valencia , CA",Valencia ,CA,91355
"Woodland Hills, CA",Woodland Hills,CA,91362
"Thousand Oaks, CA",Thousand Oaks,CA,91362
"Sherman Oaks, CA",Sherman Oaks,CA,91401
"Burbank , CA",Burbank ,CA,91502
"North Hollywood, CA",North Hollywood,CA,91601
"N Hollywood, CA",N Hollywood,CA,91602
"N. Hollywood, CA",N. Hollywood,CA,91602
"Chino , CA",Chino ,CA,91710
"Claremont , CA",Claremont ,CA,91711
"Covina , CA",Covina ,CA,91723
"El Monte, CA",El Monte,CA,91731
"Glendora , CA",Glendora ,CA,91740
"La Puente, CA",La Puente,CA,91744
"City Of, CA",City Of,CA,91745
"Monterey Park, CA",Monterey Park,CA,91754
"Ontario , CA",Ontario ,CA,91761
"Molntclair , CA",Molntclair ,CA,91763
"Montclair , CA",Montclair ,CA,91763
"Pomona , CA",Pomona ,CA,91766
"San Gabriel, CA",San Gabriel,CA,91776
"Upland , CA",Upland ,CA,91786
"West Covina, CA",West Covina,CA,91791
"Chula Vista, CA",Chula Vista,CA,91909
"Chula Vista, CA",Chula Vista,CA,91911
"El Cajon, CA",El Cajon,CA,91942
"La Mesa, CA",La Mesa,CA,91942
"Lemon Grove, CA",Lemon Grove,CA,91945
"National City, CA",National City,CA,91950
"San Diego, CA",San Diego,CA,91950
"Carlsbad , CA",Carlsbad ,CA,92008
"Encinitas , CA",Encinitas ,CA,92024
"Escondido , CA",Escondido ,CA,92025
"Oceanside , CA",Oceanside ,CA,92054
"Poway , CA",Poway ,CA,92064
"Vista , CA",Vista ,CA,92083
"Indio , CA",Indio ,CA,92203
"Banning , CA",Banning ,CA,92220
"Blythe , CA",Blythe ,CA,92225
"Calexico , CA",Calexico ,CA,92231
"Cathedral City, CA",Cathedral City,CA,92234
"El Centro, CA",El Centro,CA,92243
"Imperial , CA",Imperial ,CA,92251
"La Quinta, CA",La Quinta,CA,92253
"Yucca Valley, CA",Yucca Valley,CA,92284
"Barstow , CA",Barstow ,CA,92311
"Fontana , CA",Fontana ,CA,92335
"Lake Elsinore, CA",Lake Elsinore,CA,92351
"Loma Linda, CA",Loma Linda,CA,92354
"Needles , CA",Needles ,CA,92363
"Redlands , CA",Redlands ,CA,92373
"Victorville , CA",Victorville ,CA,92392
"San Bernardino, CA",San Bernardino,CA,92405
"San Bnerardino, CA",San Bnerardino,CA,92408
"Riverside , CA",Riverside ,CA,92504
"Lake Elisnore, CA",Lake Elisnore,CA,92530
"Hemet , CA",Hemet ,CA,92544
"Moreno Valley, CA",Moreno Valley,CA,92555
"Murrieta , CA",Murrieta ,CA,92562
"Temecula , CA",Temecula ,CA,92562
"Perris , CA",Perris ,CA,92570
"Temeucla , CA",Temeucla ,CA,92589
"Foothill Ranch, CA",Foothill Ranch,CA,92610
"Irvine , CA",Irvine ,CA,92618
"Costa Mesa, CA",Costa Mesa,CA,92626
"Lake Forest, CA",Lake Forest,CA,92630
"Huntington Beach, CA",Huntington Beach,CA,92647
"Laguna Hills, CA",Laguna Hills,CA,92653
"Midway City, CA",Midway City,CA,92655
"Newport Beach, CA",Newport Beach,CA,92660
"San Juan, CA",San Juan,CA,92675
"Laguna Niguel, CA",Laguna Niguel,CA,92677
"Westminster , CA",Westminster ,CA,92683
"Rancho Santa, CA",Rancho Santa,CA,92688
"Mission Viejo, CA",Mission Viejo,CA,92692
"Santa Ana, CA",Santa Ana,CA,92701
"Tustin , CA",Tustin ,CA,92782
"Anaheim , CA",Anaheim ,CA,92801
"Fullerton , CA",Fullerton ,CA,92832
"Garden Grove, CA",Garden Grove,CA,92843
"Norco , CA",Norco ,CA,92860
"Orange , CA",Orange ,CA,92865
"Placentia , CA",Placentia ,CA,92870
"Corona , CA",Corona ,CA,92882
"Ventura , CA",Ventura ,CA,93001
"Santa Barbara, CA",Santa Barbara,CA,93010
"Camarillo , CA",Camarillo ,CA,93010
"Fillmore , CA",Fillmore ,CA,93015
"Oxnard , CA",Oxnard ,CA,93036
"Simi Valley, CA",Simi Valley,CA,93065
"Goleta , CA",Goleta ,CA,93117
"Coalinga , CA",Coalinga ,CA,93210
"Corcoran , CA",Corcoran ,CA,93212
"Delano , CA",Delano ,CA,93215
"Exeter , CA",Exeter ,CA,93221
"Hanford , CA",Hanford ,CA,93230
"Porterville , CA",Porterville ,CA,93257
"Shafter , CA",Shafter ,CA,93263
"Taft , CA",Taft ,CA,93268
"Tulare , CA",Tulare ,CA,93274
"Visalia , CA",Visalia ,CA,93279
"Bakersfield , CA",Bakersfield ,CA,93301
"San Luis, CA",San Luis,CA,93401
"Arroyo Grande, CA",Arroyo Grande,CA,93420
"Buellton , CA",Buellton ,CA,93427
"Lompoc , CA",Lompoc ,CA,93436
"Paso Robles, CA",Paso Robles,CA,93446
"Santa Maria, CA",Santa Maria,CA,93454
"Mojave , CA",Mojave ,CA,93501
"Bishop , CA",Bishop ,CA,93514
"Lancaster , CA",Lancaster ,CA,93534
"Palmdale , CA",Palmdale ,CA,93551
"Ridgecrest , CA",Ridgecrest ,CA,93555
"Chowchilla , CA",Chowchilla ,CA,93610
"Clovis , CA",Clovis ,CA,93612
"Dinuba , CA",Dinuba ,CA,93618
"Kerman , CA",Kerman ,CA,93630
"Los Banos, CA",Los Banos,CA,93635
"Madera , CA",Madera ,CA,93637
"Reedley , CA",Reedley ,CA,93654
"Sanger , CA",Sanger ,CA,93657
"Selma , CA",Selma ,CA,93662
"Tranquillity , CA",Tranquillity ,CA,93668
"Fresno , CA",Fresno ,CA,93710
"Fresno, Ca., CA","Fresno, Ca.",CA,93725
"Salinas , CA",Salinas ,CA,93907
"King City, CA",King City,CA,93930
"Seaside , CA",Seaside ,CA,93955
"Burlingame , CA",Burlingame ,CA,94010
"Daly City, CA",Daly City,CA,94014
"Colma , CA",Colma ,CA,94014
"Half Moon, CA",Half Moon,CA,94019
"Millbrae , CA",Millbrae ,CA,94030
"Mountain View, CA",Mountain View,CA,94040
"Redwood City, CA",Redwood City,CA,94063
"San Bruno, CA",San Bruno,CA,94066
"Sunnyvale , CA",Sunnyvale ,CA,94087
"San Francisco, CA",San Francisco,CA,94103
"Palo Alto, CA",Palo Alto,CA,94301
"San Mateo, CA",San Mateo,CA,94401
"Tracy , CA",Tracy ,CA,94503
"Antioch , CA",Antioch ,CA,94509
"Brentwood , CA",Brentwood ,CA,94513
"Concord , CA",Concord ,CA,94520
"El Cerrito, CA",El Cerrito,CA,94530
"Fairfield , CA",Fairfield ,CA,94533
"Fremont , CA",Fremont ,CA,94538
"Hayward , CA",Hayward ,CA,94544
"Livermore , CA",Livermore ,CA,94550
"Napa , CA",Napa ,CA,94559
"Newark , CA",Newark ,CA,94560
"Pittsburg , CA",Pittsburg ,CA,94565
"Dublin , CA",Dublin ,CA,94568
"Dulin , CA",Dulin ,CA,94568
"Rio Vista, CA",Rio Vista,CA,94571
"St Helena, CA",St Helena,CA,94574
"St. Helena, CA",St. Helena,CA,94574
"San Leandro, CA",San Leandro,CA,94577
"Pleasanotn , CA",Pleasanotn ,CA,94588
"Pleasanton , CA",Pleasanton ,CA,94588
"Vallejo , CA",Vallejo ,CA,94590
"Walnut Creek, CA",Walnut Creek,CA,94596
"Oakland , CA",Oakland ,CA,94607
"Berkeley , CA",Berkeley ,CA,94704
"Albany , CA",Albany ,CA,94706
"Richmond , CA",Richmond ,CA,94806
"San Rafael, CA",San Rafael,CA,94901
"Corte Madera, CA",Corte Madera,CA,94925
"Novato , CA",Novato ,CA,94945
"Petaluma , CA",Petaluma ,CA,94952
"Capitola , CA",Capitola ,CA,95010
"Gilroy , CA",Gilroy ,CA,95020
"Hollister , CA",Hollister ,CA,95023
"Los Gatos, CA",Los Gatos,CA,95032
"Milpitas , CA",Milpitas ,CA,95035
"Morgan Hill, CA",Morgan Hill,CA,95037
"Watsonville , CA",Watsonville ,CA,95039
"Santa Clara, CA",Santa Clara,CA,95051
"Santa Cruz, CA",Santa Cruz,CA,95062
"Soquel , CA",Soquel ,CA,95073
"San Jose, CA",San Jose,CA,95117
"Stockton , CA",Stockton ,CA,95208
"Lodi , CA",Lodi ,CA,95219
"Ceres , CA",Ceres ,CA,95307
"Escalon , CA",Escalon ,CA,95320
"Gustine , CA",Gustine ,CA,95322
"Jamestown , CA",Jamestown ,CA,95327
"Manteca , CA",Manteca ,CA,95336
"Merced , CA",Merced ,CA,95340
"Modesto , CA",Modesto ,CA,95350
"Oakdale , CA",Oakdale ,CA,95361
"Patterson , CA",Patterson ,CA,95363
"Sonora , CA",Sonora ,CA,95370
"Turlock , CA",Turlock ,CA,95380
"Santa Rosa, CA",Santa Rosa,CA,95401
"Fort Bragg, CA",Fort Bragg,CA,95437
"Healdsburg , CA",Healdsburg ,CA,95448
"Lakeport , CA",Lakeport ,CA,95453
"Sonoma , CA",Sonoma ,CA,95476
"Ukiah , CA",Ukiah ,CA,95482
"Eureka , CA",Eureka ,CA,95501
"Mckinleyville , CA",Mckinleyville ,CA,95519
"Fortuna , CA",Fortuna ,CA,95540
"Auburn , CA",Auburn ,CA,95603
"Auburn Honda, CA",Auburn Honda,CA,95604
"Elk Grove, CA",Elk Grove,CA,95610
"Davis , CA",Davis ,CA,95616
"Dixon , CA",Dixon ,CA,95620
"Citrus Heights, CA",Citrus Heights,CA,95621
"Folsom , CA",Folsom ,CA,95630
"Roseville , CA",Roseville ,CA,95661
"Placerville , CA",Placerville ,CA,95667
"Shingle Springs, CA",Shingle Springs,CA,95682
"Shingle Sprinsg, CA",Shingle Sprinsg,CA,95682
"Vacaville , CA",Vacaville ,CA,95687
"Woodland , CA",Woodland ,CA,95695
"Colfax , CA",Colfax ,CA,95713
"Rancho Cordova, CA",Rancho Cordova,CA,95742
"Elk Grove, CA",Elk Grove,CA,95757
"Sacramento , CA",Sacramento ,CA,95811
"Sacramentoq , CA",Sacramentoq ,CA,95823
"Marysville , CA",Marysville ,CA,95901
"Chico , CA",Chico ,CA,95926
"Colusa , CA",Colusa ,CA,95932
"Gridley , CA",Gridley ,CA,95948
"Oroville , CA",Oroville ,CA,95965
"Yuba City, CA",Yuba City,CA,95991
"Redding , CA",Redding ,CA,96001
"Corning , CA",Corning ,CA,96021
"Mount Shasta, CA",Mount Shasta,CA,96067
"Red Bluff, CA",Red Bluff,CA,96080
"Yreka , CA",Yreka ,CA,96097
"Alturas , CA",Alturas ,CA,96101
"Susanville , CA",Susanville ,CA,96130
"South Lake, CA",South Lake,CA,96150
"Aiea , HI",Aiea ,HI,96701
"Honolulu , HI",Honolulu ,HI,96701
"Hilo , HI",Hilo ,HI,96720
"Kahului , HI",Kahului ,HI,96732
"Kailua , HI",Kailua ,HI,96734
"Kailua Kona, HI",Kailua Kona,HI,96740
"Kailua-kona , HI",Kailua-kona ,HI,96740
"Kaneohe , HI",Kaneohe ,HI,96744
"Lihue , HI",Lihue ,HI,96766
"Waipahu , HI",Waipahu ,HI,96797
"Tamuning , GU",Tamuning ,GU,96913
"Saipan , MP",Saipan ,MP,96950
"Beaverton , CO",Beaverton ,CO,97005
"Beaverton , OR",Beaverton ,OR,97005
"Canby , OR",Canby ,OR,97013
"Gresham , OR",Gresham ,OR,97024
"Gladstone , OR",Gladstone ,OR,97027
"Hubbard , OR",Hubbard ,OR,97032
"St Helens, OR",St Helens,OR,97051
"St. Helens, OR",St. Helens,OR,97051
"Warren , OR",Warren ,OR,97051
"Sandy , OR",Sandy ,OR,97055
"The Dalles, OR",The Dalles,OR,97058
"Troutdale , OR",Troutdale ,OR,97060
"Wilsonville , OR",Wilsonville ,OR,97070
"Woodburn , OR",Woodburn ,OR,97071
"Astoria , OR",Astoria ,OR,97103
"Forest Grove, OR",Forest Grove,OR,97116
"Hillsboro , OR",Hillsboro ,OR,97123
"Mcminnville , OR",Mcminnville ,OR,97128
"Newberg , OR",Newberg ,OR,97132
"Tillamook , OR",Tillamook ,OR,97141
"Warrenton , OR",Warrenton ,OR,97146
"Portland , OR",Portland ,OR,97201
"Tigard , OR",Tigard ,OR,97223
"Milwaukie , OR",Milwaukie ,OR,97267
"Milwuakie , OR",Milwuakie ,OR,97267
"Salem , OR",Salem ,OR,97301
"Albany , OR",Albany ,OR,97321
"Corvallis , OR",Corvallis ,OR,97330
"Dallas , OR",Dallas ,OR,97337
"Lebanon , OR",Lebanon ,OR,97355
"Newport , OR",Newport ,OR,97365
"Stayton , OR",Stayton ,OR,97383
"Sublimity , OR",Sublimity ,OR,97385
"Eugene , OR",Eugene ,OR,97401
"Oregon City, OR",Oregon City,OR,97405
"Brookings , OR",Brookings ,OR,97415
"Coos Bay, OR",Coos Bay,OR,97420
"Cottage Grove, OR",Cottage Grove,OR,97424
"Florence , OR",Florence ,OR,97439
"Junction City, OR",Junction City,OR,97448
"Roseburg , OR",Roseburg ,OR,97470
"Medford , OR",Medford ,OR,97501
"Ashland , OR",Ashland ,OR,97520
"Grants Pass, OR",Grants Pass,OR,97526
"Klamath Falls, OR",Klamath Falls,OR,97603
"Lakeview , OR",Lakeview ,OR,97630
"Bend , OR",Bend ,OR,97701
"Burns , OR",Burns ,OR,97720
"Madras , OR",Madras ,OR,97741
"Redmond , OR",Redmond ,OR,97756
"Baker City, OR",Baker City,OR,97814
"Fossil , OR",Fossil ,OR,97830
"Hermiston , OR",Hermiston ,OR,97838
"Island City, OR",Island City,OR,97850
"La Grande, OR",La Grande,OR,97850
"Ontario , OR",Ontario ,OR,97914
"Auburn , WA",Auburn ,WA,98002
"Aunurn , WA",Aunurn ,WA,98002
"Bellevue , WA",Bellevue ,WA,98004
"Bothell , WA",Bothell ,WA,98011
"Enumclaw , WA",Enumclaw ,WA,98022
"Edmonds , WA",Edmonds ,WA,98026
"Issaquah , WA",Issaquah ,WA,98027
"Kent , WA",Kent ,WA,98032
"Kirkland , WA",Kirkland ,WA,98033
"Bellingham , WA",Bellingham ,WA,98034
"Lynnwood , WA",Lynnwood ,WA,98036
"North Bend, WA",North Bend,WA,98045
"Renton , WA",Renton ,WA,98057
"Federal Way, WA",Federal Way,WA,98063
"Seattle , WA",Seattle ,WA,98101
"Shoreline , WA",Shoreline ,WA,98133
"Burien , WA",Burien ,WA,98148
"Everett , WA",Everett ,WA,98203
"Anacortes , WA",Anacortes ,WA,98221
"Arlington , WA",Arlington ,WA,98223
"Burlington , WA",Burlington ,WA,98232
"Lynden , WA",Lynden ,WA,98264
"Marysville , WA",Marysville ,WA,98270
"Monroe , WA",Monroe ,WA,98272
"Mount Vernon, WA",Mount Vernon,WA,98273
"Mt Vernon, WA",Mt Vernon,WA,98273
"Oak Harbor, WA",Oak Harbor,WA,98277
"Sedro Woolley, WA",Sedro Woolley,WA,98281
"Sedro-woolley , WA",Sedro-woolley ,WA,98284
"Bremerton , WA",Bremerton ,WA,98312
"Morton , WA",Morton ,WA,98356
"Port Angele, WA",Port Angele,WA,98362
"Port Angeles, WA",Port Angeles,WA,98362
"Port Orchard, WA",Port Orchard,WA,98366
"Poulsbo , WA",Poulsbo ,WA,98370
"Puyallup , WA",Puyallup ,WA,98371
"Sumner , WA",Sumner ,WA,98390
"Tacoma , WA",Tacoma ,WA,98403
"Fife , WA",Fife ,WA,98424
"Lakewood , WA",Lakewood ,WA,98499
"Olympia , WA",Olympia ,WA,98502
"Aberdeen , WA",Aberdeen ,WA,98520
"Centralia , WA",Centralia ,WA,98531
"Chehalis , WA",Chehalis ,WA,98532
"Elma , WA",Elma ,WA,98541
"Mckenna , WA",Mckenna ,WA,98558
"Montesano , WA",Montesano ,WA,98563
"Shelton , WA",Shelton ,WA,98584
"Camas , WA",Camas ,WA,98607
"Longview , WA",Longview ,WA,98632
"Vancouver , WA",Vancouver ,WA,98661
"Woodland , WA",Woodland ,WA,98674
"Wenatchee , WA",Wenatchee ,WA,98801
"East Wenatchee, WA",East Wenatchee,WA,98802
"Ephrata , WA",Ephrata ,WA,98823
"Moses Lake, WA",Moses Lake,WA,98837
"Omak , WA",Omak ,WA,98841
"Yakima , WA",Yakima ,WA,98901
"Grandview , WA",Grandview ,WA,98930
"Selah , WA",Selah ,WA,98942
"Sunnyside , WA",Sunnyside ,WA,98944
"Ellensburg , WA",Ellensburg ,WA,98982
"Deer Park, WA",Deer Park,WA,99006
"Liberty Lake, WA",Liberty Lake,WA,99019
"Colvile , WA",Colvile ,WA,99114
"Davenport , WA",Davenport ,WA,99122
"Grand Coulee, WA",Grand Coulee,WA,99133
"Pullman , WA",Pullman ,WA,99163
"Spokane , WA",Spokane ,WA,99201
"Spokanne , WA",Spokanne ,WA,99201
"Spokane Valley, WA",Spokane Valley,WA,99212
"Pasco , WA",Pasco ,WA,99301
"Kennewick , WA",Kennewick ,WA,99336
"Pomeroy , WA",Pomeroy ,WA,99347
"Prosser , WA",Prosser ,WA,99350
"Walla Walla, WA",Walla Walla,WA,99362
"Anchorage , AK",Anchorage ,AK,99501
"Kenai , AK",Kenai ,AK,99611
"Kodiak , AK",Kodiak ,AK,99615
"Wasilla , AK",Wasilla ,AK,99654
"Soldotna , AK",Soldotna ,AK,99669
"Fairbanks , AK",Fairbanks ,AK,99701
"Juneau , AK",Juneau ,AK,99801